{
"type": "FeatureCollection",
"name": "conexiones",
"crs": { "type": "name", "properties": { "name": "urn:ogc:def:crs:OGC:1.3:CRS84" } },
"features": [
{ "type": "Feature", "properties": { "id_linea": "R104", "capa": "Cercanía con Transmetro a minutos caminando", "orden": 1, "nombre": "Estación Colón de Líneas 6 y 18", "id_ruta": "R104", "sistema": "transmetro" }, "geometry": { "type": "Point", "coordinates": [ -90.508342, 14.639922, 0.0 ] } },
{ "type": "Feature", "properties": { "id_linea": "R104", "capa": "Cercanía con Transmetro a minutos caminando", "orden": 2, "nombre": "Hacia Estación Colón de Líneas 6 y 18", "id_ruta": "R104", "sistema": "transmetro" }, "geometry": { "type": "LineString", "coordinates": [ [ -90.507202, 14.639829, 0.0 ], [ -90.507159, 14.640154, 0.0 ], [ -90.507195, 14.640214, 0.0 ], [ -90.508249, 14.640362, 0.0 ], [ -90.508285, 14.640346, 0.0 ], [ -90.508343, 14.639963, 0.0 ] ] } },
{ "type": "Feature", "properties": { "id_linea": "R104", "capa": "Cercanía con Transmetro a minutos caminando", "orden": 3, "nombre": "Estación Capuchinas de Líneas 6 y 18", "id_ruta": "R104", "sistema": "transmetro" }, "geometry": { "type": "Point", "coordinates": [ -90.509932, 14.638596, 0.0 ] } },
{ "type": "Feature", "properties": { "id_linea": "R104", "capa": "Cercanía con Transmetro a minutos caminando", "orden": 4, "nombre": "Hacia Estación Capuchinas de Líneas 6 y 18", "id_ruta": "R104", "sistema": "transmetro" }, "geometry": { "type": "LineString", "coordinates": [ [ -90.507201, 14.639833, 0.0 ], [ -90.507159, 14.640154, 0.0 ], [ -90.507157, 14.640175, 0.0 ], [ -90.507213, 14.640268, 0.0 ], [ -90.508249, 14.640421, 0.0 ], [ -90.509526, 14.64061, 0.0 ], [ -90.509631, 14.64052, 0.0 ], [ -90.509897, 14.638558, 0.0 ] ] } },
{ "type": "Feature", "properties": { "id_linea": "R104", "capa": "Cercanía con Transmetro a minutos caminando", "orden": 5, "nombre": "Estación Plaza Barrios/FEGUA de Líneas 6 y 18", "id_ruta": "R104", "sistema": "transmetro" }, "geometry": { "type": "Point", "coordinates": [ -90.511708, 14.630518, 0.0 ] } },
{ "type": "Feature", "properties": { "id_linea": "R104", "capa": "Cercanía con Transmetro a minutos caminando", "orden": 6, "nombre": "Estación Plaza Barrios de Línea 12", "id_ruta": "R104", "sistema": "transmetro" }, "geometry": { "type": "Point", "coordinates": [ -90.512246, 14.630142, 0.0 ] } },
{ "type": "Feature", "properties": { "id_linea": "R104", "capa": "Cercanía con Transmetro a minutos caminando", "orden": 7, "nombre": "Hacia Estación Plaza Barrios / FEGUA de Líneas 6, 18 y Estación Plaza Barrios de Línea 12", "id_ruta": "R104", "sistema": "transmetro" }, "geometry": { "type": "LineString", "coordinates": [ [ -90.508544, 14.629785, 0.0 ], [ -90.508523, 14.629799, 0.0 ], [ -90.508487, 14.63005, 0.0 ], [ -90.508523, 14.630102, 0.0 ], [ -90.511661, 14.630528, 0.0 ], [ -90.511708, 14.630518, 0.0 ] ] } },
{ "type": "Feature", "properties": { "id_linea": "R104", "capa": "Cercanía con Transmetro a minutos caminando", "orden": 8, "nombre": "Hacia Estación Plaza Barrios / FEGUA de Líneas 6, 18 y Estación Plaza Barrios de Línea 12", "id_ruta": "R104", "sistema": "transmetro" }, "geometry": { "type": "LineString", "coordinates": [ [ -90.509721, 14.629992, 0.0 ], [ -90.509692, 14.630184, 0.0 ], [ -90.509754, 14.630251, 0.0 ], [ -90.511708, 14.630518, 0.0 ] ] } },
{ "type": "Feature", "properties": { "id_linea": "R104", "capa": "Cercanía con Transmetro a minutos caminando", "orden": 9, "nombre": "Estación IGSS Zona 6 de Línea 6", "id_ruta": "R104", "sistema": "transmetro" }, "geometry": { "type": "Point", "coordinates": [ -90.497471, 14.651574, 0.0 ] } },
{ "type": "Feature", "properties": { "id_linea": "R104", "capa": "Cercanía con Transmetro a minutos caminando", "orden": 10, "nombre": "Hacia Estación IGSS Zona 6 de Línea 6", "id_ruta": "R104", "sistema": "transmetro" }, "geometry": { "type": "LineString", "coordinates": [ [ -90.497391, 14.651276, 0.0 ], [ -90.497541, 14.651301, 0.0 ], [ -90.49755, 14.65133, 0.0 ], [ -90.497481, 14.651569, 0.0 ] ] } },
{ "type": "Feature", "properties": { "id_linea": "R104", "capa": "Cercanía con Transmetro a minutos caminando", "orden": 11, "nombre": "Estación IGSS Zona 9 de Línea 13", "id_ruta": "R104", "sistema": "transmetro" }, "geometry": { "type": "Point", "coordinates": [ -90.51834, 14.604125, 0.0 ] } },
{ "type": "Feature", "properties": { "id_linea": "R104", "capa": "Cercanía con Transmetro a minutos caminando", "orden": 12, "nombre": "Hacia Estación IGSS Zona 9 de Línea 13", "id_ruta": "R104", "sistema": "transmetro" }, "geometry": { "type": "LineString", "coordinates": [ [ -90.513787, 14.604486, 0.0 ], [ -90.513878, 14.604431, 0.0 ], [ -90.513986, 14.603708, 0.0 ], [ -90.514034, 14.60367, 0.0 ], [ -90.515856, 14.603912, 0.0 ], [ -90.516035, 14.603801, 0.0 ], [ -90.516056, 14.603791, 0.0 ], [ -90.516279, 14.603822, 0.0 ], [ -90.516313, 14.603804, 0.0 ], [ -90.516362, 14.603511, 0.0 ], [ -90.516413, 14.603482, 0.0 ], [ -90.51825, 14.603795, 0.0 ], [ -90.518342, 14.603818, 0.0 ], [ -90.518281, 14.604204, 0.0 ] ] } },
{ "type": "Feature", "properties": { "id_linea": "R104", "capa": "Cercanía con Transmetro a minutos caminando", "orden": 13, "nombre": "Estación 626 de Línea 13", "id_ruta": "R104", "sistema": "transmetro" }, "geometry": { "type": "Point", "coordinates": [ -90.517367, 14.609239, 0.0 ] } },
{ "type": "Feature", "properties": { "id_linea": "R104", "capa": "Cercanía con Transmetro a minutos caminando", "orden": 14, "nombre": "Hacia Estación 626 de Línea 13", "id_ruta": "R104", "sistema": "transmetro" }, "geometry": { "type": "LineString", "coordinates": [ [ -90.512912, 14.607666, 0.0 ], [ -90.512897, 14.607783, 0.0 ], [ -90.513018, 14.60789, 0.0 ], [ -90.515459, 14.608296, 0.0 ], [ -90.515407, 14.608636, 0.0 ], [ -90.517236, 14.608965, 0.0 ], [ -90.517358, 14.60909, 0.0 ], [ -90.517318, 14.609305, 0.0 ] ] } },
{ "type": "Feature", "properties": { "id_linea": "R104", "capa": "Cercanía con Transmetro a minutos caminando", "orden": 15, "nombre": "Hacia Estación La Merced de Línea 7", "id_ruta": "R104", "sistema": "transmetro" }, "geometry": { "type": "LineString", "coordinates": [ [ -90.507197, 14.639854, 0.0 ], [ -90.507157, 14.640175, 0.0 ], [ -90.507213, 14.640268, 0.0 ], [ -90.508294, 14.640427, 0.0 ], [ -90.508251, 14.640669, 0.0 ], [ -90.50821, 14.64098, 0.0 ], [ -90.508103, 14.641839, 0.0 ], [ -90.507942, 14.643004, 0.0 ] ] } },
{ "type": "Feature", "properties": { "id_linea": "R104", "capa": "Cercanía con Transmetro a minutos caminando", "orden": 16, "nombre": "Estación La Merced de Línea 7", "id_ruta": "R104", "sistema": "transmetro" }, "geometry": { "type": "Point", "coordinates": [ -90.507926, 14.643018, 0.0 ] } },
{ "type": "Feature", "properties": { "id_linea": "R104", "capa": "Cercanía con Transmetro a minutos caminando", "orden": 17, "nombre": "Hacia Estación La Merced de Línea 7", "id_ruta": "R104", "sistema": "transmetro" }, "geometry": { "type": "LineString", "coordinates": [ [ -90.507077, 14.642336, 0.0 ], [ -90.508015, 14.642471, 0.0 ], [ -90.507942, 14.643004, 0.0 ] ] } },
{ "type": "Feature", "properties": { "id_linea": "R105", "capa": "Cercanía con Transmetro/TuBus a minutos caminando_105", "orden": 1, "nombre": "Estación Jocotenango de Línea 2", "id_ruta": "R105", "sistema": "tubus" }, "geometry": { "type": "Point", "coordinates": [ -90.5131341, 14.650847, 0.0 ] } },
{ "type": "Feature", "properties": { "id_linea": "R105", "capa": "Cercanía con Transmetro/TuBus a minutos caminando_105", "orden": 2, "nombre": "Hacia Estación Jocotenango de Línea 2", "id_ruta": "R105", "sistema": "tubus" }, "geometry": { "type": "LineString", "coordinates": [ [ -90.5131234, 14.651292, 0.0 ], [ -90.5130456, 14.6512868, 0.0 ], [ -90.5131247, 14.6508379, 0.0 ] ] } },
{ "type": "Feature", "properties": { "id_linea": "R105", "capa": "Cercanía con Transmetro/TuBus a minutos caminando_105", "orden": 3, "nombre": "Parada #115 de la Ruta 802 de TuBus", "id_ruta": "R105", "sistema": "tubus" }, "geometry": { "type": "Point", "coordinates": [ -90.5163504, 14.6487455, 0.0 ] } },
{ "type": "Feature", "properties": { "id_linea": "R105", "capa": "Cercanía con Transmetro/TuBus a minutos caminando_105", "orden": 4, "nombre": "Hacia Parada #115 de la Ruta 802 de TuBus", "id_ruta": "R105", "sistema": "tubus" }, "geometry": { "type": "LineString", "coordinates": [ [ -90.517378, 14.649034, 0.0 ], [ -90.5173965, 14.6488752, 0.0 ], [ -90.5163612, 14.6487221, 0.0 ] ] } },
{ "type": "Feature", "properties": { "id_linea": "R105", "capa": "Cercanía con Transmetro/TuBus a minutos caminando_105", "orden": 5, "nombre": "Parada #127 de la Ruta 802 de TuBus", "id_ruta": "R105", "sistema": "tubus" }, "geometry": { "type": "Point", "coordinates": [ -90.5176751, 14.6452919, 0.0 ] } },
{ "type": "Feature", "properties": { "id_linea": "R105", "capa": "Cercanía con Transmetro/TuBus a minutos caminando_105", "orden": 6, "nombre": "Hacia Parada #127 de la Ruta 802 de TuBus", "id_ruta": "R105", "sistema": "tubus" }, "geometry": { "type": "LineString", "coordinates": [ [ -90.517831, 14.645469, 0.0 ], [ -90.5178555, 14.645326, 0.0 ], [ -90.5176751, 14.6452919, 0.0 ] ] } },
{ "type": "Feature", "properties": { "id_linea": "R105", "capa": "Cercanía con Transmetro/TuBus a minutos caminando_105", "orden": 7, "nombre": "Parada #122 de la Ruta 802 de TuBus", "id_ruta": "R105", "sistema": "tubus" }, "geometry": { "type": "Point", "coordinates": [ -90.5185937, 14.6304198, 0.0 ] } },
{ "type": "Feature", "properties": { "id_linea": "R105", "capa": "Cercanía con Transmetro/TuBus a minutos caminando_105", "orden": 8, "nombre": "Hacia Parada #122 de la Ruta 802 de TuBus", "id_ruta": "R105", "sistema": "tubus" }, "geometry": { "type": "LineString", "coordinates": [ [ -90.5199097, 14.6308627, 0.0 ], [ -90.5185527, 14.6306574, 0.0 ], [ -90.5185937, 14.6304198, 0.0 ] ] } },
{ "type": "Feature", "properties": { "id_linea": "R105", "capa": "Cercanía con Transmetro/TuBus a minutos caminando_105", "orden": 9, "nombre": "Parada #078 de la Ruta 801 de TuBus", "id_ruta": "R105", "sistema": "tubus" }, "geometry": { "type": "Point", "coordinates": [ -90.5416936, 14.622018, 0.0 ] } },
{ "type": "Feature", "properties": { "id_linea": "R105", "capa": "Cercanía con Transmetro/TuBus a minutos caminando_105", "orden": 10, "nombre": "Hacia Parada #078 de la Ruta 801 de TuBus", "id_ruta": "R105", "sistema": "tubus" }, "geometry": { "type": "LineString", "coordinates": [ [ -90.540399, 14.62301, 0.0 ], [ -90.5416936, 14.622018, 0.0 ] ] } },
{ "type": "Feature", "properties": { "id_linea": "R105", "capa": "Cercanía con Transmetro/TuBus a minutos caminando_105", "orden": 11, "nombre": "Parada #097 de la Ruta 801 de TuBus", "id_ruta": "R105", "sistema": "tubus" }, "geometry": { "type": "Point", "coordinates": [ -90.5422998, 14.6233183, 0.0 ] } },
{ "type": "Feature", "properties": { "id_linea": "R105", "capa": "Cercanía con Transmetro/TuBus a minutos caminando_105", "orden": 12, "nombre": "Hacia Parada #097 de la Ruta 801 de TuBus", "id_ruta": "R105", "sistema": "tubus" }, "geometry": { "type": "LineString", "coordinates": [ [ -90.5404182, 14.6230029, 0.0 ], [ -90.5413838, 14.6222607, 0.0 ], [ -90.5422368, 14.6233287, 0.0 ], [ -90.5423038, 14.6232949, 0.0 ] ] } },
{ "type": "Feature", "properties": { "id_linea": "R105", "capa": "Cercanía con Transmetro/TuBus a minutos caminando_105", "orden": 13, "nombre": "Estación Bolívar (Dirección Centra Sur) de Línea 12", "id_ruta": "R105", "sistema": "tubus" }, "geometry": { "type": "Point", "coordinates": [ -90.5270433, 14.6199378, 0.0 ] } },
{ "type": "Feature", "properties": { "id_linea": "R105", "capa": "Cercanía con Transmetro/TuBus a minutos caminando_105", "orden": 14, "nombre": "Hacia Estación Bolívar (Dirección Centra Sur) de Línea 12", "id_ruta": "R105", "sistema": "tubus" }, "geometry": { "type": "LineString", "coordinates": [ [ -90.528372, 14.619512, 0.0 ], [ -90.5279821, 14.6191228, 0.0 ], [ -90.527054, 14.6201246, 0.0 ], [ -90.5270219, 14.6200935, 0.0 ], [ -90.5269199, 14.6201869, 0.0 ], [ -90.5268529, 14.6201143, 0.0 ], [ -90.5270433, 14.6199378, 0.0 ] ] } },
{ "type": "Feature", "properties": { "id_linea": "R105", "capa": "Cercanía con Transmetro/TuBus a minutos caminando_105", "orden": 15, "nombre": "Estación San Juan de Dios de Línea 7", "id_ruta": "R105", "sistema": "tubus" }, "geometry": { "type": "Point", "coordinates": [ -90.5189977, 14.6412624, 0.0 ] } },
{ "type": "Feature", "properties": { "id_linea": "R105", "capa": "Cercanía con Transmetro/TuBus a minutos caminando_105", "orden": 16, "nombre": "Hacia Estación San Juan de Dios de Línea 7", "id_ruta": "R105", "sistema": "tubus" }, "geometry": { "type": "LineString", "coordinates": [ [ -90.521528, 14.64209, 0.0 ], [ -90.5216003, 14.6416098, 0.0 ], [ -90.5190307, 14.641246, 0.0 ] ] } },
{ "type": "Feature", "properties": { "id_linea": "R105", "capa": "Cercanía con Transmetro/TuBus a minutos caminando_105", "orden": 17, "nombre": "Estación Santuario de Guadalupe de Línea 7", "id_ruta": "R105", "sistema": "tubus" }, "geometry": { "type": "Point", "coordinates": [ -90.5189776, 14.6420306, 0.0 ] } },
{ "type": "Feature", "properties": { "id_linea": "R105", "capa": "Cercanía con Transmetro/TuBus a minutos caminando_105", "orden": 18, "nombre": "Hacia Estación Santuario de Guadalupe de Línea 7", "id_ruta": "R105", "sistema": "tubus" }, "geometry": { "type": "LineString", "coordinates": [ [ -90.5215326, 14.6421111, 0.0 ], [ -90.5214777, 14.6424446, 0.0 ], [ -90.5189776, 14.6420306, 0.0 ] ] } },
{ "type": "Feature", "properties": { "id_linea": "R402", "capa": "Cercanía con Transmetro a minutos caminando_402", "orden": 1, "nombre": "Estación Trébol de Línea 12", "id_ruta": "R402", "sistema": "transmetro" }, "geometry": { "type": "Point", "coordinates": [ -90.5360836, 14.612639, 0.0 ] } },
{ "type": "Feature", "properties": { "id_linea": "R402", "capa": "Cercanía con Transmetro a minutos caminando_402", "orden": 2, "nombre": "Hacia Estación Trébol de Línea 12", "id_ruta": "R402", "sistema": "transmetro" }, "geometry": { "type": "LineString", "coordinates": [ [ -90.5345904, 14.6114614, 0.0 ], [ -90.5356853, 14.6117147, 0.0 ], [ -90.5359374, 14.6118004, 0.0 ], [ -90.5358074, 14.6120924, 0.0 ], [ -90.5361051, 14.6124739, 0.0 ], [ -90.5361691, 14.6125537, 0.0 ], [ -90.5361021, 14.6125861, 0.0 ] ] } },
{ "type": "Feature", "properties": { "id_linea": "R801", "capa": "Cercanía con Transmetro a minutos caminando_801", "orden": 1, "nombre": "Hacia Estación Bethania en dirección a USAC Periférico de Línea 7", "id_ruta": "R801", "sistema": "transmetro" }, "geometry": { "type": "LineString", "coordinates": [ [ -90.5368385, 14.6461331, 0.0 ], [ -90.536868, 14.6460202, 0.0 ], [ -90.5368036, 14.6460008, 0.0 ], [ -90.5368291, 14.645906, 0.0 ], [ -90.5367164, 14.6458879, 0.0 ] ] } },
{ "type": "Feature", "properties": { "id_linea": "R801", "capa": "Cercanía con Transmetro a minutos caminando_801", "orden": 2, "nombre": "Estación Bethania en dirección a USAC Periférico de Línea 7", "id_ruta": "R801", "sistema": "transmetro" }, "geometry": { "type": "Point", "coordinates": [ -90.5367231, 14.6458749, 0.0 ] } },
{ "type": "Feature", "properties": { "id_linea": "R801", "capa": "Cercanía con Transmetro a minutos caminando_801", "orden": 3, "nombre": "Hacia Estación 4 de Febrero en dirección a USAC Periférico de Línea 7", "id_ruta": "R801", "sistema": "transmetro" }, "geometry": { "type": "LineString", "coordinates": [ [ -90.5400017, 14.6450329, 0.0 ], [ -90.5401666, 14.6449758, 0.0 ], [ -90.5409686, 14.6445191, 0.0 ], [ -90.5409351, 14.6444568, 0.0 ], [ -90.5408787, 14.6444893, 0.0 ] ] } },
{ "type": "Feature", "properties": { "id_linea": "R801", "capa": "Cercanía con Transmetro a minutos caminando_801", "orden": 4, "nombre": "Estación 4 de Febrero en dirección a USAC Periférico de Línea 7", "id_ruta": "R801", "sistema": "transmetro" }, "geometry": { "type": "Point", "coordinates": [ -90.5408508, 14.6445072, 0.0 ] } },
{ "type": "Feature", "properties": { "id_linea": "R801", "capa": "Cercanía con Transmetro a minutos caminando_801", "orden": 5, "nombre": "Estación 4 de Febrero en dirección a La Merced de Línea 7", "id_ruta": "R801", "sistema": "transmetro" }, "geometry": { "type": "LineString", "coordinates": [ [ -90.5398179, 14.6447598, 0.0 ], [ -90.5396117, 14.644891, 0.0 ] ] } },
{ "type": "Feature", "properties": { "id_linea": "R801", "capa": "Cercanía con Transmetro a minutos caminando_801", "orden": 6, "nombre": "Estación 4 de Febrero en dirección a La Merced de Línea 7", "id_ruta": "R801", "sistema": "transmetro" }, "geometry": { "type": "Point", "coordinates": [ -90.5396117, 14.644891, 0.0 ] } },
{ "type": "Feature", "properties": { "id_linea": "R801", "capa": "Cercanía con Transmetro a minutos caminando_801", "orden": 7, "nombre": "Hacia Estación Villa Linda en dirección a USAC Periférico de Línea 7", "id_ruta": "R801", "sistema": "transmetro" }, "geometry": { "type": "LineString", "coordinates": [ [ -90.5453379, 14.6424823, 0.0 ], [ -90.5453634, 14.6424576, 0.0 ], [ -90.5453097, 14.6423914, 0.0 ], [ -90.5455015, 14.6422396, 0.0 ] ] } },
{ "type": "Feature", "properties": { "id_linea": "R801", "capa": "Cercanía con Transmetro a minutos caminando_801", "orden": 8, "nombre": "Estación Villa Linda en dirección a USAC Periférico de Línea 7", "id_ruta": "R801", "sistema": "transmetro" }, "geometry": { "type": "Point", "coordinates": [ -90.5455087, 14.6422364, 0.0 ] } },
{ "type": "Feature", "properties": { "id_linea": "R801", "capa": "Cercanía con Transmetro a minutos caminando_801", "orden": 9, "nombre": "Hacia Estación Villa Linda en dirección a La Merced de Línea 7", "id_ruta": "R801", "sistema": "transmetro" }, "geometry": { "type": "LineString", "coordinates": [ [ -90.5461991, 14.6409444, 0.0 ], [ -90.5459135, 14.641309, 0.0 ], [ -90.5460087, 14.641431, 0.0 ], [ -90.5460891, 14.6413856, 0.0 ] ] } },
{ "type": "Feature", "properties": { "id_linea": "R801", "capa": "Cercanía con Transmetro a minutos caminando_801", "orden": 10, "nombre": "Estación Villa Linda en dirección a La Merced de Línea 7", "id_ruta": "R801", "sistema": "transmetro" }, "geometry": { "type": "Point", "coordinates": [ -90.5461203, 14.641387, 0.0 ] } },
{ "type": "Feature", "properties": { "id_linea": "R801", "capa": "Cercanía con Transmetro a minutos caminando_801", "orden": 11, "nombre": "Hacia Estación Santa Cecilia de Línea 12", "id_ruta": "R801", "sistema": "transmetro" }, "geometry": { "type": "LineString", "coordinates": [ [ -90.5354218, 14.6140221, 0.0 ], [ -90.5349873, 14.6141895, 0.0 ], [ -90.5344803, 14.6139715, 0.0 ], [ -90.533437, 14.6145477, 0.0 ], [ -90.5333659, 14.6144374, 0.0 ], [ -90.5332023, 14.6145321, 0.0 ] ] } },
{ "type": "Feature", "properties": { "id_linea": "R801", "capa": "Cercanía con Transmetro a minutos caminando_801", "orden": 12, "nombre": "Estación Santa Cecilia de Línea 12", "id_ruta": "R801", "sistema": "transmetro" }, "geometry": { "type": "Point", "coordinates": [ -90.5331876, 14.6145441, 0.0 ] } },
{ "type": "Feature", "properties": { "id_linea": "R801", "capa": "Cercanía con Transmetro a minutos caminando_801", "orden": 13, "nombre": "Hacia Estación Trébol de Línea 12", "id_ruta": "R801", "sistema": "transmetro" }, "geometry": { "type": "LineString", "coordinates": [ [ -90.5358875, 14.6138285, 0.0 ], [ -90.5359868, 14.6137325, 0.0 ], [ -90.5360136, 14.6129863, 0.0 ], [ -90.536027, 14.6128864, 0.0 ], [ -90.5362939, 14.6126761, 0.0 ], [ -90.5360927, 14.6124088, 0.0 ], [ -90.5359465, 14.6125009, 0.0 ] ] } },
{ "type": "Feature", "properties": { "id_linea": "R801", "capa": "Cercanía con Transmetro a minutos caminando_801", "orden": 14, "nombre": "Hacia Estación Trébol de Línea 12", "id_ruta": "R801", "sistema": "transmetro" }, "geometry": { "type": "LineString", "coordinates": [ [ -90.5346338, 14.6121438, 0.0 ], [ -90.5350415, 14.6117363, 0.0 ], [ -90.5358569, 14.6119336, 0.0 ], [ -90.5359025, 14.6118232, 0.0 ], [ -90.5359441, 14.6118375, 0.0 ], [ -90.5358462, 14.6120893, 0.0 ], [ -90.5360836, 14.612402, 0.0 ], [ -90.5359347, 14.6124955, 0.0 ] ] } },
{ "type": "Feature", "properties": { "id_linea": "R801", "capa": "Cercanía con Transmetro a minutos caminando_801", "orden": 15, "nombre": "Estación Trébol de Línea 12", "id_ruta": "R801", "sistema": "transmetro" }, "geometry": { "type": "Point", "coordinates": [ -90.5359322, 14.6125185, 0.0 ] } },
{ "type": "Feature", "properties": { "id_linea": "R801", "capa": "Cercanía con Transmetro a minutos caminando_801", "orden": 16, "nombre": "Hacia Estación Trébol de Línea 12", "id_ruta": "R801", "sistema": "transmetro" }, "geometry": { "type": "LineString", "coordinates": [ [ -90.5339778, 14.6122347, 0.0 ], [ -90.5341762, 14.6124255, 0.0 ], [ -90.5345437, 14.6120647, 0.0 ], [ -90.5346215, 14.6121374, 0.0 ], [ -90.5350332, 14.6117208, 0.0 ], [ -90.5358486, 14.6119194, 0.0 ], [ -90.5358942, 14.6118117, 0.0 ], [ -90.5359572, 14.6118337, 0.0 ], [ -90.5358573, 14.6120884, 0.0 ], [ -90.5360947, 14.6124012, 0.0 ], [ -90.5359401, 14.6124989, 0.0 ] ] } },
{ "type": "Feature", "properties": { "id_linea": "R801", "capa": "Cercanía con Transmetro a minutos caminando_801", "orden": 17, "nombre": "Hacia Estación Industria de Línea 13", "id_ruta": "R801", "sistema": "transmetro" }, "geometry": { "type": "LineString", "coordinates": [ [ -90.5211943, 14.6107162, 0.0 ], [ -90.5212935, 14.6102594, 0.0 ], [ -90.5190539, 14.609883, 0.0 ], [ -90.5191665, 14.6093562, 0.0 ], [ -90.5190566, 14.6093354, 0.0 ] ] } },
{ "type": "Feature", "properties": { "id_linea": "R801", "capa": "Cercanía con Transmetro a minutos caminando_801", "orden": 18, "nombre": "Estación Industria de Línea 13", "id_ruta": "R801", "sistema": "transmetro" }, "geometry": { "type": "Point", "coordinates": [ -90.5190539, 14.6093925, 0.0 ] } },
{ "type": "Feature", "properties": { "id_linea": "R801", "capa": "Cercanía con Transmetro a minutos caminando_801", "orden": 19, "nombre": "Hacia Estación Seis 26 de Línea 13", "id_ruta": "R801", "sistema": "transmetro" }, "geometry": { "type": "LineString", "coordinates": [ [ -90.5211732, 14.6107054, 0.0 ], [ -90.5212725, 14.610272, 0.0 ], [ -90.5173404, 14.6096101, 0.0 ], [ -90.5174664, 14.6090132, 0.0 ], [ -90.517394, 14.6090002, 0.0 ] ] } },
{ "type": "Feature", "properties": { "id_linea": "R801", "capa": "Cercanía con Transmetro a minutos caminando_801", "orden": 20, "nombre": "Estación Seis 26 de Línea 13", "id_ruta": "R801", "sistema": "transmetro" }, "geometry": { "type": "Point", "coordinates": [ -90.5173886, 14.6090573, 0.0 ] } },
{ "type": "Feature", "properties": { "id_linea": "R802", "capa": "Cercanía con Transmetro a minutos caminando_802", "orden": 1, "nombre": "Hacia Estación Bethania en dirección a La Merced de Línea 7", "id_ruta": "R802", "sistema": "transmetro" }, "geometry": { "type": "LineString", "coordinates": [ [ -90.536404, 14.645508, 0.0 ], [ -90.536502, 14.645507, 0.0 ] ] } },
{ "type": "Feature", "properties": { "id_linea": "R802", "capa": "Cercanía con Transmetro a minutos caminando_802", "orden": 2, "nombre": "Estación Bethania en dirección a La Merced de Línea 7", "id_ruta": "R802", "sistema": "transmetro" }, "geometry": { "type": "Point", "coordinates": [ -90.536512, 14.64551, 0.0 ] } },
{ "type": "Feature", "properties": { "id_linea": "R802", "capa": "Cercanía con Transmetro a minutos caminando_802", "orden": 3, "nombre": "Hacia Estación Bethania en dirección a USAC Periférico de Línea 7", "id_ruta": "R802", "sistema": "transmetro" }, "geometry": { "type": "LineString", "coordinates": [ [ -90.535335, 14.645742, 0.0 ], [ -90.535984, 14.645801, 0.0 ], [ -90.536536, 14.645817, 0.0 ], [ -90.536706, 14.645858, 0.0 ] ] } },
{ "type": "Feature", "properties": { "id_linea": "R802", "capa": "Cercanía con Transmetro a minutos caminando_802", "orden": 4, "nombre": "Estación Bethania en dirección a USAC Periférico de Línea 7", "id_ruta": "R802", "sistema": "transmetro" }, "geometry": { "type": "Point", "coordinates": [ -90.536723, 14.645875, 0.0 ] } },
{ "type": "Feature", "properties": { "id_linea": "R802", "capa": "Cercanía con Transmetro a minutos caminando_802", "orden": 5, "nombre": "Hacia Estación Incienso en dirección a USAC Periférico de Línea 7", "id_ruta": "R802", "sistema": "transmetro" }, "geometry": { "type": "LineString", "coordinates": [ [ -90.531028, 14.649, 0.0 ], [ -90.531388, 14.648813, 0.0 ] ] } },
{ "type": "Feature", "properties": { "id_linea": "R802", "capa": "Cercanía con Transmetro a minutos caminando_802", "orden": 6, "nombre": "Estación Incienso en dirección a USAC Periférico de Línea 7", "id_ruta": "R802", "sistema": "transmetro" }, "geometry": { "type": "Point", "coordinates": [ -90.531404, 14.64881, 0.0 ] } },
{ "type": "Feature", "properties": { "id_linea": "R802", "capa": "Cercanía con Transmetro a minutos caminando_802", "orden": 7, "nombre": "Hacia Estación Incienso en dirección a La Merced de Línea 7", "id_ruta": "R802", "sistema": "transmetro" }, "geometry": { "type": "LineString", "coordinates": [ [ -90.530804, 14.648797, 0.0 ], [ -90.530979, 14.648709, 0.0 ] ] } },
{ "type": "Feature", "properties": { "id_linea": "R802", "capa": "Cercanía con Transmetro a minutos caminando_802", "orden": 8, "nombre": "Estación Incienso en dirección a La Merced de Línea 7", "id_ruta": "R802", "sistema": "transmetro" }, "geometry": { "type": "Point", "coordinates": [ -90.530991, 14.648714, 0.0 ] } },
{ "type": "Feature", "properties": { "id_linea": "R802", "capa": "Cercanía con Transmetro a minutos caminando_802", "orden": 9, "nombre": "Hacia Estación San Sebastián de Línea 1", "id_ruta": "R802", "sistema": "transmetro" }, "geometry": { "type": "LineString", "coordinates": [ [ -90.515011, 14.647296, 0.0 ], [ -90.515185, 14.646194, 0.0 ], [ -90.513088, 14.645851, 0.0 ] ] } },
{ "type": "Feature", "properties": { "id_linea": "R802", "capa": "Cercanía con Transmetro a minutos caminando_802", "orden": 10, "nombre": "Estación San Sebastián de Línea 1", "id_ruta": "R802", "sistema": "transmetro" }, "geometry": { "type": "Point", "coordinates": [ -90.513075, 14.645877, 0.0 ] } },
{ "type": "Feature", "properties": { "id_linea": "R802", "capa": "Cercanía con Transmetro a minutos caminando_802", "orden": 11, "nombre": "Hacia Estación Archivo General de Línea 7", "id_ruta": "R802", "sistema": "transmetro" }, "geometry": { "type": "LineString", "coordinates": [ [ -90.515504, 14.643776, 0.0 ], [ -90.51569, 14.642506, 0.0 ] ] } },
{ "type": "Feature", "properties": { "id_linea": "R802", "capa": "Cercanía con Transmetro a minutos caminando_802", "orden": 12, "nombre": "Hacia Estación Archivo General de Línea 7", "id_ruta": "R802", "sistema": "transmetro" }, "geometry": { "type": "LineString", "coordinates": [ [ -90.515928, 14.640837, 0.0 ], [ -90.51569, 14.642506, 0.0 ] ] } },
{ "type": "Feature", "properties": { "id_linea": "R802", "capa": "Cercanía con Transmetro a minutos caminando_802", "orden": 13, "nombre": "Estación Archivo General de Línea 7", "id_ruta": "R802", "sistema": "transmetro" }, "geometry": { "type": "Point", "coordinates": [ -90.51569, 14.642506, 0.0 ] } },
{ "type": "Feature", "properties": { "id_linea": "R802", "capa": "Cercanía con Transmetro a minutos caminando_802", "orden": 14, "nombre": "Hacia Estación Parque Centenario de Línea 1", "id_ruta": "R802", "sistema": "transmetro" }, "geometry": { "type": "LineString", "coordinates": [ [ -90.51551, 14.643723, 0.0 ], [ -90.514643, 14.643588, 0.0 ], [ -90.514847, 14.642051, 0.0 ] ] } },
{ "type": "Feature", "properties": { "id_linea": "R802", "capa": "Cercanía con Transmetro a minutos caminando_802", "orden": 15, "nombre": "Estación Parque Centenario de Línea 1", "id_ruta": "R802", "sistema": "transmetro" }, "geometry": { "type": "Point", "coordinates": [ -90.514828, 14.642044, 0.0 ] } },
{ "type": "Feature", "properties": { "id_linea": "R802", "capa": "Cercanía con Transmetro a minutos caminando_802", "orden": 16, "nombre": "Hacia Estación San Agustín de Línea 1", "id_ruta": "R802", "sistema": "transmetro" }, "geometry": { "type": "LineString", "coordinates": [ [ -90.516216, 14.638512, 0.0 ], [ -90.515267, 14.638359, 0.0 ], [ -90.515248, 14.638468, 0.0 ] ] } },
{ "type": "Feature", "properties": { "id_linea": "R802", "capa": "Cercanía con Transmetro a minutos caminando_802", "orden": 17, "nombre": "Estación San Agustín de Línea 1", "id_ruta": "R802", "sistema": "transmetro" }, "geometry": { "type": "Point", "coordinates": [ -90.515235, 14.638492, 0.0 ] } },
{ "type": "Feature", "properties": { "id_linea": "R802", "capa": "Cercanía con Transmetro a minutos caminando_802", "orden": 18, "nombre": "Hacia Estación Gómez Carrillo de Línea 1", "id_ruta": "R802", "sistema": "transmetro" }, "geometry": { "type": "LineString", "coordinates": [ [ -90.516857, 14.633976, 0.0 ], [ -90.515875, 14.63381, 0.0 ], [ -90.515778, 14.634503, 0.0 ] ] } },
{ "type": "Feature", "properties": { "id_linea": "R802", "capa": "Cercanía con Transmetro a minutos caminando_802", "orden": 19, "nombre": "Estación Gómez Carrillo de Línea 1", "id_ruta": "R802", "sistema": "transmetro" }, "geometry": { "type": "Point", "coordinates": [ -90.515773, 14.634534, 0.0 ] } },
{ "type": "Feature", "properties": { "id_linea": "R802", "capa": "Cercanía con Transmetro a minutos caminando_802", "orden": 20, "nombre": "Hacia Estación Plaza El Amate de Línea 12", "id_ruta": "R802", "sistema": "transmetro" }, "geometry": { "type": "LineString", "coordinates": [ [ -90.517286, 14.630733, 0.0 ], [ -90.517277, 14.631057, 0.0 ], [ -90.517226, 14.631408, 0.0 ], [ -90.516926, 14.631345, 0.0 ] ] } },
{ "type": "Feature", "properties": { "id_linea": "R802", "capa": "Cercanía con Transmetro a minutos caminando_802", "orden": 21, "nombre": "Estación Plaza El Amate de Línea 12", "id_ruta": "R802", "sistema": "transmetro" }, "geometry": { "type": "Point", "coordinates": [ -90.516891, 14.63134, 0.0 ] } },
{ "type": "Feature", "properties": { "id_linea": "R802", "capa": "Cercanía con Transmetro a minutos caminando_802", "orden": 22, "nombre": "Hacia Estación San Juan de Dios de Línea 7", "id_ruta": "R802", "sistema": "transmetro" }, "geometry": { "type": "LineString", "coordinates": [ [ -90.517171, 14.640823, 0.0 ], [ -90.517157, 14.640953, 0.0 ], [ -90.518954, 14.641226, 0.0 ] ] } },
{ "type": "Feature", "properties": { "id_linea": "R802", "capa": "Cercanía con Transmetro a minutos caminando_802", "orden": 23, "nombre": "Estación San Juan de Dios de Línea 7", "id_ruta": "R802", "sistema": "transmetro" }, "geometry": { "type": "Point", "coordinates": [ -90.518989, 14.641246, 0.0 ] } },
{ "type": "Feature", "properties": { "id_linea": "R802", "capa": "Cercanía con Transmetro a minutos caminando_802", "orden": 24, "nombre": "Hacia Estación Santuario de Guadalupe de Línea 7", "id_ruta": "R802", "sistema": "transmetro" }, "geometry": { "type": "LineString", "coordinates": [ [ -90.517143, 14.640822, 0.0 ], [ -90.517017, 14.641728, 0.0 ], [ -90.51898, 14.642034, 0.0 ] ] } },
{ "type": "Feature", "properties": { "id_linea": "R802", "capa": "Cercanía con Transmetro a minutos caminando_802", "orden": 25, "nombre": "Estación Santuario de Guadalupe de Línea 7", "id_ruta": "R802", "sistema": "transmetro" }, "geometry": { "type": "Point", "coordinates": [ -90.51898, 14.642034, 0.0 ] } }
]
}
