<?xml version="1.0" encoding="UTF-8"?>
<kml xmlns="http://www.opengis.net/kml/2.2">
  <Document>
    <name>Transmetro - Línea 12</name>
    <description>Centra Sur / Plaza Barrios Z.1</description>
    <Style id="icon-1899-DB4436-normal">
      <IconStyle>
        <color>ff3644db</color>
        <scale>1</scale>
        <Icon>
          <href>https://www.gstatic.com/mapspro/images/stock/503-wht-blank_maps.png</href>
        </Icon>
        <hotSpot x="32" xunits="pixels" y="64" yunits="insetPixels"/>
      </IconStyle>
      <LabelStyle>
        <scale>0</scale>
      </LabelStyle>
    </Style>
    <Style id="icon-1899-DB4436-highlight">
      <IconStyle>
        <color>ff3644db</color>
        <scale>1</scale>
        <Icon>
          <href>https://www.gstatic.com/mapspro/images/stock/503-wht-blank_maps.png</href>
        </Icon>
        <hotSpot x="32" xunits="pixels" y="64" yunits="insetPixels"/>
      </IconStyle>
      <LabelStyle>
        <scale>1</scale>
      </LabelStyle>
    </Style>
    <StyleMap id="icon-1899-DB4436">
      <Pair>
        <key>normal</key>
        <styleUrl>#icon-1899-DB4436-normal</styleUrl>
      </Pair>
      <Pair>
        <key>highlight</key>
        <styleUrl>#icon-1899-DB4436-highlight</styleUrl>
      </Pair>
    </StyleMap>
    <Style id="poly-F57C00-4000-0-nodesc-normal">
      <LineStyle>
        <color>ff007cf5</color>
        <width>4</width>
      </LineStyle>
      <PolyStyle>
        <color>00007cf5</color>
        <fill>1</fill>
        <outline>1</outline>
      </PolyStyle>
      <BalloonStyle>
        <text><![CDATA[<h3>$[name]</h3>]]></text>
      </BalloonStyle>
    </Style>
    <Style id="poly-F57C00-4000-0-nodesc-highlight">
      <LineStyle>
        <color>ff007cf5</color>
        <width>6</width>
      </LineStyle>
      <PolyStyle>
        <color>00007cf5</color>
        <fill>1</fill>
        <outline>1</outline>
      </PolyStyle>
      <BalloonStyle>
        <text><![CDATA[<h3>$[name]</h3>]]></text>
      </BalloonStyle>
    </Style>
    <StyleMap id="poly-F57C00-4000-0-nodesc">
      <Pair>
        <key>normal</key>
        <styleUrl>#poly-F57C00-4000-0-nodesc-normal</styleUrl>
      </Pair>
      <Pair>
        <key>highlight</key>
        <styleUrl>#poly-F57C00-4000-0-nodesc-highlight</styleUrl>
      </Pair>
    </StyleMap>
    <Folder>
      <name>TRANSMETRO - Línea 12</name>
      <Placemark>
        <name>Plaza Municipal</name>
        <description>6ª avenida y 21 calle, zona 1.</description>
        <styleUrl>#icon-1899-DB4436</styleUrl>
        <Point>
          <coordinates>
            -90.51581,14.627598,0
          </coordinates>
        </Point>
      </Placemark>
      <Placemark>
        <name>Plaza Barrios</name>
        <description>9ª avenida y 18 calle, zona 1.</description>
        <styleUrl>#icon-1899-DB4436</styleUrl>
        <Point>
          <coordinates>
            -90.512264,14.630161,0
          </coordinates>
        </Point>
      </Placemark>
      <Placemark>
        <name>Plaza El Amate</name>
        <description>18 calle y 4ª avenida, zona 1.</description>
        <styleUrl>#icon-1899-DB4436</styleUrl>
        <Point>
          <coordinates>
            -90.516836,14.631332,0
          </coordinates>
        </Point>
      </Placemark>
      <Placemark>
        <name>Don Bosco</name>
        <description>1ª avenida y 26 calle, zona 1. En dirección a Centra Sur y Plaza Barrios.</description>
        <styleUrl>#icon-1899-DB4436</styleUrl>
        <Point>
          <coordinates>
            -90.522144,14.625061,0
          </coordinates>
        </Point>
      </Placemark>
      <Placemark>
        <name>Bolívar - Dir. Plaza Barrios</name>
        <description>Avenida Bolívar y 32 calle, zona 8. En dirección a Plaza Barrios.</description>
        <styleUrl>#icon-1899-DB4436</styleUrl>
        <Point>
          <coordinates>
            -90.527815,14.619062,0
          </coordinates>
        </Point>
      </Placemark>
      <Placemark>
        <name>Bolívar - Dir. Centra Sur</name>
        <description>Avenida Bolívar y 31 calle, zona 3. En dirección a Centra Sur.</description>
        <styleUrl>#icon-1899-DB4436</styleUrl>
        <Point>
          <coordinates>
            -90.527253,14.619842,0
          </coordinates>
        </Point>
      </Placemark>
      <Placemark>
        <name>Santa Cecilia</name>
        <description>Avenida Bolívar y 40 calle, zona 8. En dirección a Centra Sur y Plaza Barrios.</description>
        <styleUrl>#icon-1899-DB4436</styleUrl>
        <Point>
          <coordinates>
            -90.533122,14.614573,0
          </coordinates>
        </Point>
      </Placemark>
      <Placemark>
        <name>Trébol</name>
        <description>Calzada Aguilar Batres y avenida Bolívar, zona 12.</description>
        <styleUrl>#icon-1899-DB4436</styleUrl>
        <Point>
          <coordinates>
            -90.535721,14.61267,0
          </coordinates>
        </Point>
      </Placemark>
      <Placemark>
        <name>Mariscal - Dir. Centra Sur</name>
        <description>Calzada Aguilar Batres y 13 calle, zona 12. En dirección a Centra Sur.</description>
        <styleUrl>#icon-1899-DB4436</styleUrl>
        <Point>
          <coordinates>
            -90.544066,14.605749,0
          </coordinates>
        </Point>
      </Placemark>
      <Placemark>
        <name>Mariscal - Dir. Plaza Barrios</name>
        <description>Calzada Aguilar Batres y 15 calle, zona 12. En dirección a Plaza Barrios.</description>
        <styleUrl>#icon-1899-DB4436</styleUrl>
        <Point>
          <coordinates>
            -90.545099,14.604719,0
          </coordinates>
        </Point>
      </Placemark>
      <Placemark>
        <name>Reformita - Dir. Centra Sur</name>
        <description>Calzada Aguilar Batres y 20 calle, zona 12. En dirección a Centra Sur.</description>
        <styleUrl>#icon-1899-DB4436</styleUrl>
        <Point>
          <coordinates>
            -90.548,14.602392,0
          </coordinates>
        </Point>
      </Placemark>
      <Placemark>
        <name>Reformita - Dir. Plaza Barrios</name>
        <description>Calzada Aguilar Batres y 21 calle, zona 12. En dirección a Plaza Barrios.</description>
        <styleUrl>#icon-1899-DB4436</styleUrl>
        <Point>
          <coordinates>
            -90.549604,14.601026,0
          </coordinates>
        </Point>
      </Placemark>
      <Placemark>
        <name>El Carmen</name>
        <description>Calzada Aguilar Batres y 29 calle, zona 12. En dirección a Centra Sur y Plaza Barrios.</description>
        <styleUrl>#icon-1899-DB4436</styleUrl>
        <Point>
          <coordinates>
            -90.555506,14.596331,0
          </coordinates>
        </Point>
      </Placemark>
      <Placemark>
        <name>Las Charcas - Dir. Centra sur</name>
        <description>Calzada Aguilar Batres y 32 calle, zona 12. En dirección a Centra Sur.</description>
        <styleUrl>#icon-1899-DB4436</styleUrl>
        <Point>
          <coordinates>
            -90.558488,14.593477,0
          </coordinates>
        </Point>
      </Placemark>
      <Placemark>
        <name>Las Charcas - Dir. Plaza Barrios</name>
        <description>Calzada Aguilar Batres y 34 calle, zona 12. En dirección a Plaza Barrios.</description>
        <styleUrl>#icon-1899-DB4436</styleUrl>
        <Point>
          <coordinates>
            -90.559007,14.59242,0
          </coordinates>
        </Point>
      </Placemark>
      <Placemark>
        <name>Javier</name>
        <description>Calzada Aguilar Batres y 38 calle, zona 12 Villa Nueva. En dirección a Centra Sur y Plaza Barrios.</description>
        <styleUrl>#icon-1899-DB4436</styleUrl>
        <Point>
          <coordinates>
            -90.562803,14.586964,0
          </coordinates>
        </Point>
      </Placemark>
      <Placemark>
        <name>Monte María</name>
        <description>Calzada Aguilar Batres y 46 calle, zona 12 Villa Nueva. En dirección a Centra Sur y Plaza Barrios.</description>
        <styleUrl>#icon-1899-DB4436</styleUrl>
        <Point>
          <coordinates>
            -90.567952,14.580631,0
          </coordinates>
        </Point>
      </Placemark>
      <Placemark>
        <name>Centra Sur</name>
        <description>21 avenida final, zona 12 Villa Nueva.</description>
        <styleUrl>#icon-1899-DB4436</styleUrl>
        <Point>
          <coordinates>
            -90.563759,14.564474,0
          </coordinates>
        </Point>
      </Placemark>
      <Placemark>
        <name>Línea 12</name>
        <styleUrl>#poly-F57C00-4000-0-nodesc</styleUrl>
        <Polygon>
          <outerBoundaryIs>
            <LinearRing>
              <tessellate>1</tessellate>
              <coordinates>
                -90.512346,14.630151,0
                -90.512263,14.630617,0
                -90.513171,14.630705,0
                -90.514967,14.63089,0
                -90.516315,14.631048,0
                -90.516285,14.631235,0
                -90.517178,14.631401,0
                -90.518509,14.631624,0
                -90.521111,14.63202,0
                -90.521216,14.631247,0
                -90.521331,14.630494,0
                -90.521503,14.629508,0
                -90.521546,14.629284,0
                -90.52158,14.629046,0
                -90.521658,14.628512,0
                -90.5218,14.627626,0
                -90.522058,14.626007,0
                -90.522116,14.625616,0
                -90.522177,14.625235,0
                -90.522278,14.624681,0
                -90.522307,14.624515,0
                -90.522322,14.624429,0
                -90.522364,14.624358,0
                -90.522442,14.624274,0
                -90.522541,14.624191,0
                -90.522755,14.624012,0
                -90.52318,14.623682,0
                -90.523769,14.623224,0
                -90.524351,14.622705,0
                -90.524687,14.622394,0
                -90.525024,14.622062,0
                -90.526539,14.620524,0
                -90.527503,14.619533,0
                -90.52805,14.618945,0
                -90.528218,14.618756,0
                -90.528395,14.61858,0
                -90.528739,14.618234,0
                -90.529031,14.617949,0
                -90.529314,14.617648,0
                -90.529878,14.617057,0
                -90.530256,14.616643,0
                -90.530605,14.616311,0
                -90.531089,14.615924,0
                -90.531442,14.615669,0
                -90.531872,14.61538,0
                -90.532875,14.614824,0
                -90.53365,14.614358,0
                -90.533976,14.614162,0
                -90.534318,14.613978,0
                -90.534515,14.613858,0
                -90.534945,14.613552,0
                -90.535503,14.61315,0
                -90.536042,14.612769,0
                -90.536287,14.612601,0
                -90.536534,14.61242,0
                -90.536888,14.612127,0
                -90.537383,14.611712,0
                -90.537955,14.611221,0
                -90.538461,14.610783,0
                -90.5392,14.610147,0
                -90.540364,14.609108,0
                -90.541245,14.608316,0
                -90.542999,14.606738,0
                -90.544232,14.605646,0
                -90.54547,14.604538,0
                -90.546599,14.603586,0
                -90.547464,14.602892,0
                -90.548344,14.602198,0
                -90.549205,14.601501,0
                -90.550878,14.600144,0
                -90.553233,14.598249,0
                -90.554911,14.596908,0
                -90.555328,14.596578,0
                -90.555738,14.59624,0
                -90.556952,14.595156,0
                -90.557513,14.594695,0
                -90.557916,14.594337,0
                -90.558191,14.593976,0
                -90.558312,14.5938,0
                -90.558662,14.593239,0
                -90.559695,14.591623,0
                -90.559944,14.591224,0
                -90.560389,14.590567,0
                -90.560831,14.589934,0
                -90.561266,14.58929,0
                -90.561436,14.589045,0
                -90.561618,14.588812,0
                -90.561873,14.58846,0
                -90.56203,14.588227,0
                -90.562291,14.587819,0
                -90.562526,14.587451,0
                -90.562812,14.587087,0
                -90.563265,14.586485,0
                -90.563994,14.585447,0
                -90.564436,14.584942,0
                -90.564602,14.58477,0
                -90.564796,14.584594,0
                -90.565325,14.584118,0
                -90.565656,14.58382,0
                -90.565827,14.583648,0
                -90.566025,14.583445,0
                -90.56711,14.581993,0
                -90.567332,14.581689,0
                -90.567524,14.581392,0
                -90.567873,14.580933,0
                -90.568168,14.580477,0
                -90.568328,14.580171,0
                -90.568478,14.579839,0
                -90.568748,14.579195,0
                -90.569018,14.578569,0
                -90.569211,14.578134,0
                -90.569363,14.577858,0
                -90.569508,14.577666,0
                -90.569779,14.577414,0
                -90.570142,14.57711,0
                -90.571311,14.576096,0
                -90.571631,14.575797,0
                -90.571951,14.575457,0
                -90.572103,14.57524,0
                -90.572188,14.575076,0
                -90.572148,14.574812,0
                -90.572105,14.574679,0
                -90.571986,14.57453,0
                -90.571644,14.574307,0
                -90.571442,14.574218,0
                -90.571279,14.574165,0
                -90.570816,14.574075,0
                -90.570502,14.574026,0
                -90.570253,14.573987,0
                -90.569941,14.573895,0
                -90.569571,14.573787,0
                -90.569382,14.573705,0
                -90.569142,14.573614,0
                -90.568667,14.573412,0
                -90.567627,14.572917,0
                -90.56733,14.572765,0
                -90.567058,14.572582,0
                -90.566761,14.572383,0
                -90.56639,14.572163,0
                -90.566202,14.572072,0
                -90.565852,14.571899,0
                -90.565349,14.571663,0
                -90.565048,14.571517,0
                -90.564737,14.571361,0
                -90.564142,14.571059,0
                -90.563796,14.570882,0
                -90.563376,14.570662,0
                -90.5632,14.570554,0
                -90.56307,14.570436,0
                -90.562992,14.570304,0
                -90.56294,14.570144,0
                -90.562943,14.569914,0
                -90.562959,14.56974,0
                -90.563107,14.568966,0
                -90.563156,14.568662,0
                -90.563177,14.568493,0
                -90.563174,14.568363,0
                -90.563151,14.568256,0
                -90.563161,14.568109,0
                -90.563271,14.567603,0
                -90.563607,14.565996,0
                -90.563892,14.564337,0
                -90.563615,14.564284,0
                -90.563344,14.56587,0
                -90.563225,14.566612,0
                -90.563141,14.567343,0
                -90.56307,14.567916,0
                -90.563079,14.568079,0
                -90.563113,14.568173,0
                -90.563109,14.568256,0
                -90.563032,14.568402,0
                -90.562998,14.568672,0
                -90.562881,14.569304,0
                -90.562822,14.569616,0
                -90.562775,14.569938,0
                -90.562787,14.570094,0
                -90.562812,14.570249,0
                -90.562873,14.570383,0
                -90.562954,14.570507,0
                -90.563109,14.570646,0
                -90.563308,14.570773,0
                -90.563468,14.570864,0
                -90.563633,14.57095,0
                -90.564303,14.571278,0
                -90.564515,14.571382,0
                -90.564716,14.571491,0
                -90.565128,14.571716,0
                -90.565698,14.571968,0
                -90.565976,14.572106,0
                -90.566358,14.5723,0
                -90.566663,14.572473,0
                -90.566799,14.572566,0
                -90.566948,14.572679,0
                -90.567065,14.57277,0
                -90.567201,14.57284,0
                -90.567528,14.573011,0
                -90.568128,14.573317,0
                -90.568644,14.573607,0
                -90.569133,14.573848,0
                -90.569536,14.574084,0
                -90.569938,14.574332,0
                -90.570132,14.574435,0
                -90.570285,14.574492,0
                -90.570551,14.574588,0
                -90.570615,14.574604,0
                -90.570886,14.574661,0
                -90.571121,14.574714,0
                -90.57141,14.574814,0
                -90.571575,14.574872,0
                -90.571643,14.574916,0
                -90.57169,14.574977,0
                -90.571718,14.575022,0
                -90.571732,14.575087,0
                -90.571736,14.575261,0
                -90.571751,14.575409,0
                -90.571619,14.575588,0
                -90.571393,14.575817,0
                -90.571082,14.576076,0
                -90.570768,14.576324,0
                -90.570463,14.576578,0
                -90.570182,14.576828,0
                -90.569894,14.577067,0
                -90.569667,14.577253,0
                -90.569549,14.577348,0
                -90.569445,14.577454,0
                -90.569334,14.577576,0
                -90.56923,14.577709,0
                -90.569143,14.577846,0
                -90.569055,14.578005,0
                -90.568903,14.578319,0
                -90.568626,14.578973,0
                -90.568362,14.579635,0
                -90.568217,14.579972,0
                -90.568051,14.580297,0
                -90.567878,14.580575,0
                -90.567653,14.580883,0
                -90.566769,14.582105,0
                -90.565874,14.583323,0
                -90.565521,14.583686,0
                -90.565152,14.584024,0
                -90.564821,14.584332,0
                -90.564412,14.584693,0
                -90.564148,14.584969,0
                -90.563929,14.585262,0
                -90.563481,14.58585,0
                -90.562842,14.586748,0
                -90.562224,14.587627,0
                -90.561533,14.588661,0
                -90.560883,14.589605,0
                -90.559919,14.591006,0
                -90.559634,14.591414,0
                -90.559434,14.591716,0
                -90.55898,14.592436,0
                -90.558405,14.593358,0
                -90.558108,14.593829,0
                -90.557948,14.594055,0
                -90.557785,14.594247,0
                -90.557689,14.594354,0
                -90.557612,14.594432,0
                -90.557576,14.594462,0
                -90.557335,14.594659,0
                -90.557111,14.594848,0
                -90.556868,14.595064,0
                -90.556556,14.595334,0
                -90.556374,14.595486,0
                -90.556176,14.595636,0
                -90.555434,14.596218,0
                -90.554084,14.59736,0
                -90.554003,14.597424,0
                -90.553898,14.597508,0
                -90.553676,14.597694,0
                -90.553262,14.598038,0
                -90.552467,14.598682,0
                -90.552068,14.59901,0
                -90.551662,14.599337,0
                -90.550839,14.599981,0
                -90.550431,14.600303,0
                -90.550024,14.600634,0
                -90.549208,14.601292,0
                -90.547584,14.602614,0
                -90.54588,14.60397,0
                -90.545505,14.60429,0
                -90.545316,14.604454,0
                -90.545197,14.604556,0
                -90.545103,14.604643,0
                -90.544349,14.605332,0
                -90.544143,14.605521,0
                -90.543941,14.605705,0
                -90.543748,14.605874,0
                -90.543548,14.606056,0
                -90.543406,14.60619,0
                -90.543285,14.606298,0
                -90.543042,14.606511,0
                -90.542567,14.60695,0
                -90.542333,14.607163,0
                -90.542044,14.607422,0
                -90.541503,14.607911,0
                -90.540438,14.608878,0
                -90.540064,14.609227,0
                -90.539359,14.609839,0
                -90.538155,14.610897,0
                -90.537459,14.611489,0
                -90.537008,14.611867,0
                -90.536885,14.611938,0
                -90.536821,14.611974,0
                -90.536754,14.612,0
                -90.536698,14.612011,0
                -90.536625,14.612015,0
                -90.536465,14.612013,0
                -90.53625,14.612015,0
                -90.536141,14.612038,0
                -90.536067,14.612068,0
                -90.535998,14.612106,0
                -90.535824,14.61222,0
                -90.535401,14.612513,0
                -90.535067,14.612747,0
                -90.534616,14.613085,0
                -90.534571,14.613176,0
                -90.53454,14.613271,0
                -90.534451,14.613536,0
                -90.534427,14.613596,0
                -90.534395,14.61365,0
                -90.534358,14.613704,0
                -90.534314,14.613753,0
                -90.534249,14.613811,0
                -90.5342,14.613853,0
                -90.534113,14.613908,0
                -90.533961,14.613989,0
                -90.533584,14.614188,0
                -90.533186,14.614416,0
                -90.532389,14.614896,0
                -90.531671,14.615339,0
                -90.531212,14.615648,0
                -90.530758,14.615977,0
                -90.530496,14.616211,0
                -90.530255,14.616452,0
                -90.529704,14.617036,0
                -90.52911,14.617655,0
                -90.527666,14.619158,0
                -90.526571,14.620259,0
                -90.526118,14.620744,0
                -90.525652,14.621234,0
                -90.525203,14.62172,0
                -90.52497,14.621955,0
                -90.524724,14.622189,0
                -90.523929,14.622903,0
                -90.523733,14.623076,0
                -90.523508,14.623259,0
                -90.523085,14.62359,0
                -90.522893,14.623741,0
                -90.522678,14.62392,0
                -90.522291,14.624242,0
                -90.522241,14.624753,0
                -90.522146,14.625271,0
                -90.522115,14.625455,0
                -90.522082,14.625653,0
                -90.522026,14.62603,0
                -90.52191,14.626788,0
                -90.521696,14.628122,0
                -90.520658,14.627989,0
                -90.519674,14.627876,0
                -90.519081,14.628479,0
                -90.519003,14.62856,0
                -90.51892,14.628656,0
                -90.518884,14.628722,0
                -90.518712,14.628765,0
                -90.518598,14.62885,0
                -90.518533,14.628891,0
                -90.51848,14.628896,0
                -90.518428,14.62891,0
                -90.518357,14.62893,0
                -90.51822,14.629044,0
                -90.51795,14.629274,0
                -90.517707,14.629479,0
                -90.517458,14.629683,0
                -90.51739,14.629718,0
                -90.517316,14.629742,0
                -90.517265,14.629742,0
                -90.51722,14.62973,0
                -90.517175,14.629709,0
                -90.517052,14.629585,0
                -90.516839,14.629359,0
                -90.516614,14.629127,0
                -90.516452,14.628992,0
                -90.515904,14.628364,0
                -90.515822,14.628208,0
                -90.516046,14.626607,0
                -90.51573,14.626552,0
                -90.515392,14.626503,0
                -90.514694,14.626413,0
                -90.514557,14.626394,0
                -90.514449,14.627022,0
                -90.514349,14.627181,0
                -90.514245,14.627354,0
                -90.514154,14.62743,0
                -90.514053,14.627504,0
                -90.513986,14.627538,0
                -90.513895,14.627559,0
                -90.513821,14.627556,0
                -90.513596,14.627536,0
                -90.512782,14.627425,0
                -90.512578,14.628793,0
                -90.512469,14.629477,0
                -90.512346,14.630151,0
              </coordinates>
            </LinearRing>
          </outerBoundaryIs>
        </Polygon>
      </Placemark>
    </Folder>
  </Document>
</kml>
