<?xml version="1.0" encoding="UTF-8"?>
<kml xmlns="http://www.opengis.net/kml/2.2">
  <Document>
    <name>Transmetro - Línea 13</name>
    <description>Plaza Argentina Z.13 / Tipografía Z.1</description>
    <Style id="icon-1899-DB4436-normal">
      <IconStyle>
        <color>ff3644db</color>
        <scale>1</scale>
        <Icon>
          <href>https://www.gstatic.com/mapspro/images/stock/503-wht-blank_maps.png</href>
        </Icon>
        <hotSpot x="32" xunits="pixels" y="64" yunits="insetPixels"/>
      </IconStyle>
      <LabelStyle>
        <scale>0</scale>
      </LabelStyle>
    </Style>
    <Style id="icon-1899-DB4436-highlight">
      <IconStyle>
        <color>ff3644db</color>
        <scale>1</scale>
        <Icon>
          <href>https://www.gstatic.com/mapspro/images/stock/503-wht-blank_maps.png</href>
        </Icon>
        <hotSpot x="32" xunits="pixels" y="64" yunits="insetPixels"/>
      </IconStyle>
      <LabelStyle>
        <scale>1</scale>
      </LabelStyle>
    </Style>
    <StyleMap id="icon-1899-DB4436">
      <Pair>
        <key>normal</key>
        <styleUrl>#icon-1899-DB4436-normal</styleUrl>
      </Pair>
      <Pair>
        <key>highlight</key>
        <styleUrl>#icon-1899-DB4436-highlight</styleUrl>
      </Pair>
    </StyleMap>
    <Style id="poly-7CB342-3000-0-nodesc-normal">
      <LineStyle>
        <color>ff42b37c</color>
        <width>3</width>
      </LineStyle>
      <PolyStyle>
        <color>0042b37c</color>
        <fill>1</fill>
        <outline>1</outline>
      </PolyStyle>
      <BalloonStyle>
        <text><![CDATA[<h3>$[name]</h3>]]></text>
      </BalloonStyle>
    </Style>
    <Style id="poly-7CB342-3000-0-nodesc-highlight">
      <LineStyle>
        <color>ff42b37c</color>
        <width>4.5</width>
      </LineStyle>
      <PolyStyle>
        <color>0042b37c</color>
        <fill>1</fill>
        <outline>1</outline>
      </PolyStyle>
      <BalloonStyle>
        <text><![CDATA[<h3>$[name]</h3>]]></text>
      </BalloonStyle>
    </Style>
    <StyleMap id="poly-7CB342-3000-0-nodesc">
      <Pair>
        <key>normal</key>
        <styleUrl>#poly-7CB342-3000-0-nodesc-normal</styleUrl>
      </Pair>
      <Pair>
        <key>highlight</key>
        <styleUrl>#poly-7CB342-3000-0-nodesc-highlight</styleUrl>
      </Pair>
    </StyleMap>
    <Style id="poly-7CB342-4000-0-nodesc-normal">
      <LineStyle>
        <color>ff42b37c</color>
        <width>4</width>
      </LineStyle>
      <PolyStyle>
        <color>0042b37c</color>
        <fill>1</fill>
        <outline>1</outline>
      </PolyStyle>
      <BalloonStyle>
        <text><![CDATA[<h3>$[name]</h3>]]></text>
      </BalloonStyle>
    </Style>
    <Style id="poly-7CB342-4000-0-nodesc-highlight">
      <LineStyle>
        <color>ff42b37c</color>
        <width>6</width>
      </LineStyle>
      <PolyStyle>
        <color>0042b37c</color>
        <fill>1</fill>
        <outline>1</outline>
      </PolyStyle>
      <BalloonStyle>
        <text><![CDATA[<h3>$[name]</h3>]]></text>
      </BalloonStyle>
    </Style>
    <StyleMap id="poly-7CB342-4000-0-nodesc">
      <Pair>
        <key>normal</key>
        <styleUrl>#poly-7CB342-4000-0-nodesc-normal</styleUrl>
      </Pair>
      <Pair>
        <key>highlight</key>
        <styleUrl>#poly-7CB342-4000-0-nodesc-highlight</styleUrl>
      </Pair>
    </StyleMap>
    <Folder>
      <name>TRANSMETRO - Línea 13</name>
      <Placemark>
        <name>4 Grados Sur</name>
        <description>6ª avenida y 24 calle, zona 4.</description>
        <styleUrl>#icon-1899-DB4436</styleUrl>
        <Point>
          <coordinates>
            -90.516399,14.624344,0
          </coordinates>
        </Point>
      </Placemark>
      <Placemark>
        <name>Exposición </name>
        <description>6ª avenida y ruta 6, zona 4.</description>
        <styleUrl>#icon-1899-DB4436</styleUrl>
        <Point>
          <coordinates>
            -90.517193,14.619299,0
          </coordinates>
        </Point>
      </Placemark>
      <Placemark>
        <name>Terminal</name>
        <description>6ª avenida y 2ª calle, zona 9.</description>
        <styleUrl>#icon-1899-DB4436</styleUrl>
        <Point>
          <coordinates>
            -90.518269,14.613559,0
          </coordinates>
        </Point>
      </Placemark>
      <Placemark>
        <name>Industria</name>
        <description>6ª avenida y 6ª calle, zona 9.</description>
        <styleUrl>#icon-1899-DB4436</styleUrl>
        <Point>
          <coordinates>
            -90.519043,14.609398,0
          </coordinates>
        </Point>
      </Placemark>
      <Placemark>
        <name>Tívoli</name>
        <description>6ª avenida y 10ª calle, zona 9.</description>
        <styleUrl>#icon-1899-DB4436</styleUrl>
        <Point>
          <coordinates>
            -90.520057,14.604494,0
          </coordinates>
        </Point>
      </Placemark>
      <Placemark>
        <name>Montúfar</name>
        <description>6ª avenida y 13 calle, zona 9.</description>
        <styleUrl>#icon-1899-DB4436</styleUrl>
        <Point>
          <coordinates>
            -90.520772,14.600533,0
          </coordinates>
        </Point>
      </Placemark>
      <Placemark>
        <name>Acueducto</name>
        <description>Avenida Hincapié y 4ª calle, zona 13.</description>
        <styleUrl>#icon-1899-DB4436</styleUrl>
        <Point>
          <coordinates>
            -90.521723,14.5936,0
          </coordinates>
        </Point>
      </Placemark>
      <Placemark>
        <name>Fuerza Aérea</name>
        <description>Avenida Hincapié y 11 calle, zona 13.</description>
        <styleUrl>#icon-1899-DB4436</styleUrl>
        <Point>
          <coordinates>
            -90.523368,14.587586,0
          </coordinates>
        </Point>
      </Placemark>
      <Placemark>
        <name>Hangares</name>
        <description>15 avenida y 18 calle, zona 13.</description>
        <styleUrl>#icon-1899-DB4436</styleUrl>
        <Point>
          <coordinates>
            -90.524384,14.580073,0
          </coordinates>
        </Point>
      </Placemark>
      <Placemark>
        <name>Plaza Argentina</name>
        <description>15 avenida y 11 calle, zona 13.</description>
        <styleUrl>#icon-1899-DB4436</styleUrl>
        <Point>
          <coordinates>
            -90.522537,14.585852,0
          </coordinates>
        </Point>
      </Placemark>
      <Placemark>
        <name>Los Arcos</name>
        <description>15 avenida y 4ª calle, zona 13.</description>
        <styleUrl>#icon-1899-DB4436</styleUrl>
        <Point>
          <coordinates>
            -90.520798,14.592066,0
          </coordinates>
        </Point>
      </Placemark>
      <Placemark>
        <name>Plaza España</name>
        <description>7ª avenida y 13 calle, zona 9.</description>
        <styleUrl>#icon-1899-DB4436</styleUrl>
        <Point>
          <coordinates>
            -90.519137,14.599719,0
          </coordinates>
        </Point>
      </Placemark>
      <Placemark>
        <name>IGSS Zona 9</name>
        <description>7ª avenida y 10ª calle, zona 9.</description>
        <styleUrl>#icon-1899-DB4436</styleUrl>
        <Point>
          <coordinates>
            -90.518336,14.604091,0
          </coordinates>
        </Point>
      </Placemark>
      <Placemark>
        <name>Seis 26</name>
        <description>7ª avenida y 5ª calle, zona 9.</description>
        <styleUrl>#icon-1899-DB4436</styleUrl>
        <Point>
          <coordinates>
            -90.517372,14.6092,0
          </coordinates>
        </Point>
      </Placemark>
      <Placemark>
        <name>Torre del Reformador</name>
        <description>7ª avenida y 1ª calle, zona 9.</description>
        <styleUrl>#icon-1899-DB4436</styleUrl>
        <Point>
          <coordinates>
            -90.516414,14.614128,0
          </coordinates>
        </Point>
      </Placemark>
      <Placemark>
        <name>Plaza de la República</name>
        <description>7ª avenida y ruta 4, zona 4.</description>
        <styleUrl>#icon-1899-DB4436</styleUrl>
        <Point>
          <coordinates>
            -90.515494,14.619614,0
          </coordinates>
        </Point>
      </Placemark>
      <Placemark>
        <name>Cantón Exposición</name>
        <description>7ª avenida Ruta 2 y Vía 3, zona 4.</description>
        <styleUrl>#icon-1899-DB4436</styleUrl>
        <Point>
          <coordinates>
            -90.515147,14.62237,0
          </coordinates>
        </Point>
      </Placemark>
      <Placemark>
        <name>Banco de Guatemala</name>
        <description>7ª avenida y 22 calle, zona 1.</description>
        <styleUrl>#icon-1899-DB4436</styleUrl>
        <Point>
          <coordinates>
            -90.514641,14.626169,0
          </coordinates>
        </Point>
      </Placemark>
      <Placemark>
        <name>Tipografía</name>
        <description>18 calle y 7ª avenida, zona 1.</description>
        <styleUrl>#icon-1899-DB4436</styleUrl>
        <Point>
          <coordinates>
            -90.514372,14.630882,0
          </coordinates>
        </Point>
      </Placemark>
      <Placemark>
        <name>El Calvario</name>
        <description>6ª avenida y 21 calle, zona 1.</description>
        <styleUrl>#icon-1899-DB4436</styleUrl>
        <Point>
          <coordinates>
            -90.515568,14.630198,0
          </coordinates>
        </Point>
      </Placemark>
      <Placemark>
        <name>Línea 13</name>
        <styleUrl>#poly-7CB342-4000-0-nodesc</styleUrl>
        <Polygon>
          <outerBoundaryIs>
            <LinearRing>
              <tessellate>1</tessellate>
              <coordinates>
                -90.514381,14.630825,0
                -90.514961,14.630887,0
                -90.515507,14.630947,0
                -90.515552,14.63051,0
                -90.515586,14.630472,0
                -90.5156,14.630443,0
                -90.515609,14.630416,0
                -90.51563,14.630274,0
                -90.515691,14.629863,0
                -90.515732,14.629487,0
                -90.515816,14.628892,0
                -90.515846,14.628675,0
                -90.515871,14.628502,0
                -90.51594,14.628115,0
                -90.516155,14.626663,0
                -90.51625,14.625939,0
                -90.516298,14.625574,0
                -90.516321,14.625396,0
                -90.516334,14.6253,0
                -90.516346,14.62521,0
                -90.516429,14.624592,0
                -90.516493,14.624028,0
                -90.516509,14.623879,0
                -90.516532,14.623755,0
                -90.516642,14.623304,0
                -90.516712,14.622944,0
                -90.516767,14.622466,0
                -90.516881,14.621625,0
                -90.516904,14.621429,0
                -90.51693,14.621143,0
                -90.516968,14.620877,0
                -90.517052,14.62032,0
                -90.517139,14.619755,0
                -90.517247,14.619217,0
                -90.517362,14.618654,0
                -90.51747,14.618097,0
                -90.517694,14.616971,0
                -90.517815,14.616336,0
                -90.517975,14.615434,0
                -90.518141,14.614666,0
                -90.518193,14.6144,0
                -90.518246,14.614128,0
                -90.51831,14.613815,0
                -90.518411,14.613297,0
                -90.518462,14.613009,0
                -90.518496,14.612825,0
                -90.518517,14.612709,0
                -90.518701,14.611689,0
                -90.518825,14.611019,0
                -90.518924,14.610502,0
                -90.518986,14.610193,0
                -90.519009,14.610082,0
                -90.519022,14.610009,0
                -90.519032,14.609963,0
                -90.519442,14.607832,0
                -90.519848,14.605698,0
                -90.520039,14.604663,0
                -90.520084,14.60441,0
                -90.520128,14.604168,0
                -90.520179,14.603926,0
                -90.520206,14.603799,0
                -90.520231,14.603687,0
                -90.520404,14.602901,0
                -90.520558,14.602128,0
                -90.520648,14.60168,0
                -90.520721,14.60129,0
                -90.520802,14.600859,0
                -90.520873,14.600488,0
                -90.520927,14.60021,0
                -90.520958,14.600055,0
                -90.520982,14.599928,0
                -90.521012,14.599781,0
                -90.521036,14.599634,0
                -90.521082,14.599339,0
                -90.5212,14.598578,0
                -90.521203,14.598497,0
                -90.521202,14.59846,0
                -90.521218,14.598372,0
                -90.52127,14.598094,0
                -90.521322,14.597823,0
                -90.521334,14.597718,0
                -90.521336,14.597656,0
                -90.521358,14.59758,0
                -90.521447,14.597236,0
                -90.521495,14.597058,0
                -90.521526,14.596899,0
                -90.521554,14.596758,0
                -90.521585,14.596641,0
                -90.521662,14.596459,0
                -90.521707,14.596376,0
                -90.521822,14.596191,0
                -90.52192,14.59605,0
                -90.521951,14.59596,0
                -90.52196,14.595901,0
                -90.521955,14.595859,0
                -90.521948,14.595827,0
                -90.521939,14.595798,0
                -90.521917,14.595764,0
                -90.521899,14.59574,0
                -90.521862,14.595711,0
                -90.521826,14.595687,0
                -90.521798,14.595675,0
                -90.521705,14.595633,0
                -90.521612,14.595589,0
                -90.521522,14.595542,0
                -90.521431,14.595498,0
                -90.521346,14.595463,0
                -90.521312,14.595442,0
                -90.521274,14.595421,0
                -90.521243,14.595395,0
                -90.521219,14.595362,0
                -90.521209,14.595318,0
                -90.521205,14.595278,0
                -90.521208,14.595235,0
                -90.521217,14.595197,0
                -90.521229,14.595151,0
                -90.521244,14.595103,0
                -90.521262,14.595044,0
                -90.521326,14.594821,0
                -90.521357,14.594741,0
                -90.52139,14.594556,0
                -90.521456,14.594323,0
                -90.521496,14.594171,0
                -90.521535,14.594034,0
                -90.521565,14.593932,0
                -90.521655,14.593624,0
                -90.521718,14.593389,0
                -90.521847,14.592947,0
                -90.522466,14.590639,0
                -90.522893,14.589084,0
                -90.523311,14.58761,0
                -90.523472,14.58705,0
                -90.52367,14.586488,0
                -90.52356,14.58644,0
                -90.523488,14.586414,0
                -90.523385,14.586382,0
                -90.523149,14.586305,0
                -90.522918,14.586231,0
                -90.522644,14.586142,0
                -90.522572,14.58612,0
                -90.52255,14.586073,0
                -90.522695,14.585533,0
                -90.522766,14.585271,0
                -90.522813,14.585097,0
                -90.522836,14.585008,0
                -90.522932,14.584658,0
                -90.522992,14.584447,0
                -90.523036,14.584305,0
                -90.523104,14.584076,0
                -90.52317,14.583867,0
                -90.523306,14.583465,0
                -90.523467,14.582984,0
                -90.523547,14.582745,0
                -90.523628,14.582506,0
                -90.523751,14.582142,0
                -90.523864,14.581804,0
                -90.52413,14.580991,0
                -90.524248,14.58063,0
                -90.524311,14.58044,0
                -90.524365,14.580278,0
                -90.524418,14.580116,0
                -90.524471,14.579957,0
                -90.524478,14.579936,0
                -90.524498,14.579913,0
                -90.524538,14.5799,0
                -90.524564,14.579884,0
                -90.524583,14.579864,0
                -90.524602,14.579829,0
                -90.524612,14.579795,0
                -90.524612,14.579767,0
                -90.524606,14.579728,0
                -90.524594,14.579704,0
                -90.524573,14.579681,0
                -90.524542,14.57966,0
                -90.524509,14.579646,0
                -90.524474,14.579643,0
                -90.524451,14.579645,0
                -90.524415,14.579655,0
                -90.5244,14.579662,0
                -90.524391,14.579668,0
                -90.524376,14.579683,0
                -90.524367,14.579695,0
                -90.524352,14.579717,0
                -90.52434,14.579745,0
                -90.524337,14.579774,0
                -90.524339,14.579805,0
                -90.524351,14.579846,0
                -90.524346,14.579868,0
                -90.524331,14.579924,0
                -90.524302,14.580028,0
                -90.524274,14.580214,0
                -90.524165,14.580551,0
                -90.5241,14.580735,0
                -90.524066,14.580847,0
                -90.524031,14.58095,0
                -90.523974,14.581126,0
                -90.523916,14.581302,0
                -90.523814,14.581602,0
                -90.523686,14.581974,0
                -90.523559,14.582364,0
                -90.523505,14.582528,0
                -90.523456,14.582662,0
                -90.523248,14.583299,0
                -90.523116,14.583684,0
                -90.523047,14.583885,0
                -90.522994,14.584047,0
                -90.522942,14.584226,0
                -90.522924,14.584281,0
                -90.522901,14.584352,0
                -90.522874,14.584452,0
                -90.522817,14.584656,0
                -90.522764,14.584856,0
                -90.522738,14.584956,0
                -90.52269,14.585143,0
                -90.522628,14.585363,0
                -90.5226,14.585449,0
                -90.522552,14.585631,0
                -90.522522,14.585743,0
                -90.522492,14.585863,0
                -90.522468,14.585934,0
                -90.522455,14.585984,0
                -90.522442,14.586009,0
                -90.522408,14.586029,0
                -90.522395,14.586055,0
                -90.522374,14.586074,0
                -90.52235,14.586102,0
                -90.52232,14.586136,0
                -90.5223,14.586185,0
                -90.522281,14.586223,0
                -90.522273,14.586273,0
                -90.52227,14.586308,0
                -90.52227,14.586344,0
                -90.522278,14.586366,0
                -90.522297,14.586388,0
                -90.522285,14.586465,0
                -90.522248,14.586662,0
                -90.522187,14.586892,0
                -90.522123,14.587127,0
                -90.522063,14.587348,0
                -90.52202,14.587505,0
                -90.521989,14.587627,0
                -90.521932,14.587837,0
                -90.521756,14.588476,0
                -90.521727,14.588582,0
                -90.5217,14.588678,0
                -90.521644,14.58888,0
                -90.521605,14.589032,0
                -90.521572,14.589166,0
                -90.521548,14.589263,0
                -90.521473,14.589538,0
                -90.521419,14.589726,0
                -90.521395,14.589815,0
                -90.521373,14.589897,0
                -90.52128,14.590246,0
                -90.521233,14.590409,0
                -90.521186,14.590594,0
                -90.521111,14.590855,0
                -90.520994,14.591266,0
                -90.520792,14.591972,0
                -90.520694,14.592317,0
                -90.520608,14.592659,0
                -90.520435,14.593385,0
                -90.520394,14.593516,0
                -90.520353,14.593551,0
                -90.520331,14.593595,0
                -90.520211,14.594102,0
                -90.520081,14.594547,0
                -90.520062,14.594666,0
                -90.520048,14.594738,0
                -90.52,14.59486,0
                -90.519952,14.594949,0
                -90.519877,14.595051,0
                -90.519848,14.595122,0
                -90.519836,14.595198,0
                -90.51982,14.595256,0
                -90.519819,14.595277,0
                -90.519818,14.595308,0
                -90.519819,14.595342,0
                -90.519829,14.595375,0
                -90.51984,14.595399,0
                -90.519851,14.595417,0
                -90.519861,14.595445,0
                -90.519872,14.595467,0
                -90.519881,14.5955,0
                -90.519898,14.595534,0
                -90.519905,14.595561,0
                -90.519913,14.595586,0
                -90.519917,14.595621,0
                -90.519914,14.595664,0
                -90.519918,14.595708,0
                -90.519908,14.595736,0
                -90.519908,14.595784,0
                -90.519897,14.595849,0
                -90.519883,14.595927,0
                -90.519863,14.596024,0
                -90.519854,14.596084,0
                -90.519835,14.596163,0
                -90.519817,14.59624,0
                -90.519808,14.596297,0
                -90.519802,14.596354,0
                -90.519783,14.596434,0
                -90.519777,14.596475,0
                -90.519766,14.596519,0
                -90.519756,14.596559,0
                -90.519744,14.596614,0
                -90.519743,14.596657,0
                -90.519728,14.596718,0
                -90.519718,14.596779,0
                -90.519711,14.596832,0
                -90.519707,14.596867,0
                -90.519699,14.596909,0
                -90.519692,14.596962,0
                -90.519675,14.597037,0
                -90.519665,14.597085,0
                -90.519658,14.597121,0
                -90.519647,14.597169,0
                -90.519641,14.597209,0
                -90.519634,14.597253,0
                -90.519624,14.597302,0
                -90.519611,14.597358,0
                -90.519604,14.597411,0
                -90.519594,14.597472,0
                -90.519514,14.597936,0
                -90.519369,14.598728,0
                -90.519341,14.598864,0
                -90.519289,14.598955,0
                -90.519256,14.599014,0
                -90.519245,14.599049,0
                -90.519215,14.599161,0
                -90.519195,14.599262,0
                -90.519133,14.599546,0
                -90.519043,14.599983,0
                -90.518998,14.600253,0
                -90.518965,14.600471,0
                -90.518938,14.600642,0
                -90.518882,14.600635,0
                -90.51882,14.600632,0
                -90.518788,14.600631,0
                -90.518752,14.600634,0
                -90.518717,14.600638,0
                -90.518677,14.600647,0
                -90.518639,14.600657,0
                -90.518601,14.60067,0
                -90.518525,14.600706,0
                -90.518456,14.600748,0
                -90.518424,14.600773,0
                -90.51838,14.600813,0
                -90.518324,14.600879,0
                -90.518284,14.600931,0
                -90.518258,14.600968,0
                -90.518234,14.601005,0
                -90.518214,14.601034,0
                -90.518193,14.601067,0
                -90.51818,14.601095,0
                -90.51817,14.601138,0
                -90.518168,14.601178,0
                -90.518167,14.601207,0
                -90.518171,14.601239,0
                -90.518176,14.601274,0
                -90.518182,14.601315,0
                -90.518192,14.601357,0
                -90.518223,14.60144,0
                -90.518242,14.601482,0
                -90.518263,14.60152,0
                -90.51829,14.601562,0
                -90.518313,14.601594,0
                -90.518336,14.60162,0
                -90.518362,14.601649,0
                -90.518392,14.601676,0
                -90.518422,14.601704,0
                -90.518506,14.601764,0
                -90.518538,14.601782,0
                -90.518574,14.6018,0
                -90.518636,14.601826,0
                -90.518699,14.601988,0
                -90.51851,14.602765,0
                -90.518338,14.603588,0
                -90.518035,14.605254,0
                -90.517736,14.606834,0
                -90.517436,14.608415,0
                -90.517219,14.609673,0
                -90.516969,14.610925,0
                -90.516717,14.612219,0
                -90.516604,14.61284,0
                -90.516465,14.613616,0
                -90.516208,14.614886,0
                -90.516055,14.615679,0
                -90.515934,14.616446,0
                -90.515716,14.618092,0
                -90.515702,14.618234,0
                -90.515686,14.618315,0
                -90.515667,14.618367,0
                -90.51565,14.618406,0
                -90.515577,14.61847,0
                -90.515537,14.618517,0
                -90.515519,14.61855,0
                -90.515511,14.618574,0
                -90.515505,14.618612,0
                -90.5155,14.618636,0
                -90.515501,14.618675,0
                -90.515506,14.618696,0
                -90.515523,14.618736,0
                -90.515556,14.618794,0
                -90.515576,14.61884,0
                -90.515574,14.61887,0
                -90.515571,14.618966,0
                -90.515569,14.619014,0
                -90.515545,14.619168,0
                -90.515523,14.619312,0
                -90.515488,14.619532,0
                -90.515471,14.619645,0
                -90.515406,14.620059,0
                -90.51523,14.621395,0
                -90.515096,14.622385,0
                -90.515081,14.622513,0
                -90.515009,14.622927,0
                -90.514971,14.62324,0
                -90.514951,14.623395,0
                -90.514932,14.623558,0
                -90.514878,14.623956,0
                -90.514855,14.624163,0
                -90.514844,14.62427,0
                -90.514834,14.624383,0
                -90.514827,14.624513,0
                -90.51482,14.624629,0
                -90.514809,14.624744,0
                -90.514788,14.62497,0
                -90.514758,14.625174,0
                -90.514742,14.625285,0
                -90.514733,14.625359,0
                -90.514678,14.625725,0
                -90.514606,14.626134,0
                -90.514575,14.626306,0
                -90.514565,14.626376,0
                -90.514509,14.62671,0
                -90.514485,14.626866,0
                -90.514458,14.627034,0
                -90.514426,14.627108,0
                -90.514394,14.627162,0
                -90.514346,14.627234,0
                -90.514288,14.627317,0
                -90.514254,14.627344,0
                -90.514232,14.627359,0
                -90.514186,14.627385,0
                -90.514158,14.62741,0
                -90.514113,14.62744,0
                -90.514075,14.627467,0
                -90.51402,14.627497,0
                -90.513963,14.627518,0
                -90.513915,14.627531,0
                -90.513835,14.62753,0
                -90.513707,14.627518,0
                -90.513595,14.627513,0
                -90.512754,14.627402,0
                -90.51223,14.630619,0
                -90.514015,14.630792,0
                -90.514381,14.630825,0
              </coordinates>
            </LinearRing>
          </outerBoundaryIs>
        </Polygon>
      </Placemark>
    </Folder>
    <Folder>
      <name>Línea 13 - Plaza Argentina - Plaza Berlín</name>
      <Placemark>
        <name>Plaza Berlín</name>
        <description>Plaza Berlín y Avenida Las Américas, zona 13.</description>
        <styleUrl>#icon-1899-DB4436</styleUrl>
        <Point>
          <coordinates>
            -90.526851,14.569946,0
          </coordinates>
        </Point>
      </Placemark>
      <Placemark>
        <name>Juan Pablo II</name>
        <description>Avenida Las Américas y 21 calle, zona 13.</description>
        <styleUrl>#icon-1899-DB4436</styleUrl>
        <Point>
          <coordinates>
            -90.524253,14.574241,0
          </coordinates>
        </Point>
      </Placemark>
      <Placemark>
        <name>Plaza Argentina</name>
        <description>15 avenida y 11 calle, zona 13.</description>
        <styleUrl>#icon-1899-DB4436</styleUrl>
        <Point>
          <coordinates>
            -90.522537,14.585852,0
          </coordinates>
        </Point>
      </Placemark>
      <Placemark>
        <name>Línea 13 - Plaza Argentina - Plaza Berlín</name>
        <styleUrl>#poly-7CB342-3000-0-nodesc</styleUrl>
        <Polygon>
          <outerBoundaryIs>
            <LinearRing>
              <tessellate>1</tessellate>
              <coordinates>
                -90.522631,14.585849,0
                -90.523003,14.584463,0
                -90.523412,14.583191,0
                -90.524489,14.57996,0
                -90.524562,14.57993,0
                -90.524625,14.579873,0
                -90.524639,14.5798,0
                -90.524644,14.579728,0
                -90.524598,14.579655,0
                -90.524524,14.579621,0
                -90.524439,14.579612,0
                -90.524375,14.579618,0
                -90.522911,14.578798,0
                -90.523005,14.57841,0
                -90.523131,14.578012,0
                -90.523388,14.57722,0
                -90.523498,14.576913,0
                -90.523624,14.576622,0
                -90.523887,14.576023,0
                -90.524141,14.575461,0
                -90.524416,14.574902,0
                -90.52493,14.573796,0
                -90.525067,14.57358,0
                -90.525212,14.57342,0
                -90.525319,14.573423,0
                -90.525432,14.573364,0
                -90.525572,14.573229,0
                -90.525641,14.573209,0
                -90.527489,14.573191,0
                -90.527811,14.572498,0
                -90.527834,14.572219,0
                -90.527827,14.572014,0
                -90.527787,14.57182,0
                -90.527634,14.5712,0
                -90.527587,14.571035,0
                -90.527532,14.570864,0
                -90.527482,14.570726,0
                -90.527385,14.570525,0
                -90.527299,14.570358,0
                -90.527208,14.570209,0
                -90.527104,14.570094,0
                -90.527001,14.570016,0
                -90.526838,14.569922,0
                -90.526663,14.569858,0
                -90.526573,14.569833,0
                -90.526443,14.569834,0
                -90.526314,14.569855,0
                -90.526188,14.569911,0
                -90.526076,14.570014,0
                -90.525947,14.570123,0
                -90.525856,14.570276,0
                -90.525757,14.570529,0
                -90.5257,14.570759,0
                -90.525534,14.571737,0
                -90.52544,14.572231,0
                -90.525369,14.572329,0
                -90.525253,14.572412,0
                -90.525083,14.572506,0
                -90.525006,14.572603,0
                -90.524949,14.572747,0
                -90.524862,14.572841,0
                -90.524824,14.572912,0
                -90.524794,14.572987,0
                -90.524737,14.573092,0
                -90.524489,14.573592,0
                -90.52426,14.574074,0
                -90.524008,14.574624,0
                -90.523768,14.57513,0
                -90.523541,14.575613,0
                -90.523336,14.576236,0
                -90.523064,14.576903,0
                -90.522875,14.577489,0
                -90.522651,14.578136,0
                -90.522534,14.578478,0
                -90.522476,14.578648,0
                -90.522401,14.578936,0
                -90.522447,14.579003,0
                -90.522526,14.579059,0
                -90.52258,14.579087,0
                -90.52265,14.579095,0
                -90.52272,14.579087,0
                -90.52279,14.579053,0
                -90.522896,14.578933,0
                -90.522999,14.57898,0
                -90.524217,14.579643,0
                -90.524263,14.579714,0
                -90.524295,14.579789,0
                -90.524322,14.579856,0
                -90.52424,14.580229,0
                -90.524023,14.580904,0
                -90.523671,14.581955,0
                -90.523318,14.583006,0
                -90.522967,14.584052,0
                -90.522596,14.585388,0
                -90.522483,14.585814,0
                -90.522435,14.585982,0
                -90.522386,14.586016,0
                -90.522332,14.586083,0
                -90.5223,14.586128,0
                -90.522262,14.586188,0
                -90.522251,14.586283,0
                -90.522298,14.586353,0
                -90.522326,14.58639,0
                -90.522375,14.58641,0
                -90.52243,14.586413,0
                -90.522478,14.5864,0
                -90.522528,14.586366,0
                -90.522551,14.586319,0
                -90.522572,14.586247,0
                -90.522561,14.586186,0
                -90.522575,14.586039,0
                -90.522601,14.585942,0
                -90.522631,14.585849,0
              </coordinates>
            </LinearRing>
          </outerBoundaryIs>
        </Polygon>
      </Placemark>
    </Folder>
  </Document>
</kml>
