<?xml version="1.0" encoding="UTF-8"?>
<kml xmlns="http://www.opengis.net/kml/2.2">
  <Document>
    <name>Transmetro - Línea 18</name>
    <description>Atlántida Z.18 / FEGUA Z.1</description>
    <Style id="icon-1899-DB4436-normal">
      <IconStyle>
        <color>ff3644db</color>
        <scale>1</scale>
        <Icon>
          <href>https://www.gstatic.com/mapspro/images/stock/503-wht-blank_maps.png</href>
        </Icon>
        <hotSpot x="32" xunits="pixels" y="64" yunits="insetPixels"/>
      </IconStyle>
      <LabelStyle>
        <scale>0</scale>
      </LabelStyle>
    </Style>
    <Style id="icon-1899-DB4436-highlight">
      <IconStyle>
        <color>ff3644db</color>
        <scale>1</scale>
        <Icon>
          <href>https://www.gstatic.com/mapspro/images/stock/503-wht-blank_maps.png</href>
        </Icon>
        <hotSpot x="32" xunits="pixels" y="64" yunits="insetPixels"/>
      </IconStyle>
      <LabelStyle>
        <scale>1</scale>
      </LabelStyle>
    </Style>
    <StyleMap id="icon-1899-DB4436">
      <Pair>
        <key>normal</key>
        <styleUrl>#icon-1899-DB4436-normal</styleUrl>
      </Pair>
      <Pair>
        <key>highlight</key>
        <styleUrl>#icon-1899-DB4436-highlight</styleUrl>
      </Pair>
    </StyleMap>
    <Style id="poly-0288D1-3000-0-nodesc-normal">
      <LineStyle>
        <color>ffd18802</color>
        <width>3</width>
      </LineStyle>
      <PolyStyle>
        <color>00d18802</color>
        <fill>1</fill>
        <outline>1</outline>
      </PolyStyle>
      <BalloonStyle>
        <text><![CDATA[<h3>$[name]</h3>]]></text>
      </BalloonStyle>
    </Style>
    <Style id="poly-0288D1-3000-0-nodesc-highlight">
      <LineStyle>
        <color>ffd18802</color>
        <width>4.5</width>
      </LineStyle>
      <PolyStyle>
        <color>00d18802</color>
        <fill>1</fill>
        <outline>1</outline>
      </PolyStyle>
      <BalloonStyle>
        <text><![CDATA[<h3>$[name]</h3>]]></text>
      </BalloonStyle>
    </Style>
    <StyleMap id="poly-0288D1-3000-0-nodesc">
      <Pair>
        <key>normal</key>
        <styleUrl>#poly-0288D1-3000-0-nodesc-normal</styleUrl>
      </Pair>
      <Pair>
        <key>highlight</key>
        <styleUrl>#poly-0288D1-3000-0-nodesc-highlight</styleUrl>
      </Pair>
    </StyleMap>
    <Folder>
      <name>TRANSMETRO - Línea 18</name>
      <Placemark>
        <name>Atlántida</name>
        <description>11 avenida (Bulevar Álvaro Arzú), zona 18. En dirección a Plaza Barrios/FEGUA.</description>
        <styleUrl>#icon-1899-DB4436</styleUrl>
        <Point>
          <coordinates>
            -90.47799,14.651049,0
          </coordinates>
        </Point>
      </Placemark>
      <Placemark>
        <name>Portales</name>
        <description><![CDATA[KM. 4.5 Carretera al Atlántico 3-20<br>Ciudad de Guatemala.]]></description>
        <styleUrl>#icon-1899-DB4436</styleUrl>
        <Point>
          <coordinates>
            -90.481988,14.648731,0
          </coordinates>
        </Point>
      </Placemark>
      <Placemark>
        <name>Victorias</name>
        <description>Avenida Las Victorias y 3ª calle, zona 6. En dirección a Atlántida y Plaza Barrios/FEGUA.</description>
        <styleUrl>#icon-1899-DB4436</styleUrl>
        <Point>
          <coordinates>
            -90.493438,14.648428,0
          </coordinates>
        </Point>
      </Placemark>
      <Placemark>
        <name>San Martín - Dir. Atlántida</name>
        <description>1ª calle y 18 avenida, zona 1. En dirección a Atlántida.</description>
        <styleUrl>#icon-1899-DB4436</styleUrl>
        <Point>
          <coordinates>
            -90.496726,14.645272,0
          </coordinates>
        </Point>
      </Placemark>
      <Placemark>
        <name>Cerro del Carmen - Líneas 6 y 18</name>
        <description>1a calle y 13 avenida entre zona 1 y 2. Línea 18 en dirección hacia Atlántida.</description>
        <styleUrl>#icon-1899-DB4436</styleUrl>
        <Point>
          <coordinates>
            -90.504911,14.648124,0
          </coordinates>
        </Point>
      </Placemark>
      <Placemark>
        <name>Colón - Líneas 6 y 18</name>
        <description>11 avenida y 8ª calle, zona 1.</description>
        <styleUrl>#icon-1899-DB4436</styleUrl>
        <Point>
          <coordinates>
            -90.508369,14.639986,0
          </coordinates>
        </Point>
      </Placemark>
      <Placemark>
        <name>Francos Monroy - Líneas 6 y 18</name>
        <description>11 avenida y 15 calle, zona 1.</description>
        <styleUrl>#icon-1899-DB4436</styleUrl>
        <Point>
          <coordinates>
            -90.50937,14.632644,0
          </coordinates>
        </Point>
      </Placemark>
      <Placemark>
        <name>Plaza Barrios/FEGUA - Líneas 6 y 18</name>
        <description>18 calle y 9ª avenida, zona 1.</description>
        <styleUrl>#icon-1899-DB4436</styleUrl>
        <Point>
          <coordinates>
            -90.511633,14.630528,0
          </coordinates>
        </Point>
      </Placemark>
      <Placemark>
        <name>Capuchinas - Líneas 6 y 18</name>
        <description>10ª avenida y 10ª calle, zona 1.</description>
        <styleUrl>#icon-1899-DB4436</styleUrl>
        <Point>
          <coordinates>
            -90.509892,14.638555,0
          </coordinates>
        </Point>
      </Placemark>
      <Placemark>
        <name>San Martín - Dir. Plaza Barrios/FEGUA</name>
        <description>20 avenida y 1ª calle, zona 1. En dirección a Plaza Barrios/FEGUA.</description>
        <styleUrl>#icon-1899-DB4436</styleUrl>
        <Point>
          <coordinates>
            -90.496452,14.644935,0
          </coordinates>
        </Point>
      </Placemark>
      <Placemark>
        <name>LÍnea 18</name>
        <styleUrl>#poly-0288D1-3000-0-nodesc</styleUrl>
        <MultiGeometry>
          <Polygon>
            <outerBoundaryIs>
              <LinearRing>
                <tessellate>1</tessellate>
                <coordinates>
                  -90.508303,14.640419,0
                  -90.509563,14.640593,0
                  -90.509789,14.639032,0
                  -90.510004,14.637434,0
                  -90.510434,14.634207,0
                  -90.512624,14.634556,0
                  -90.513205,14.630725,0
                  -90.51225,14.630642,0
                  -90.511618,14.630538,0
                  -90.510654,14.630418,0
                  -90.509695,14.630287,0
                  -90.508303,14.640419,0
                </coordinates>
              </LinearRing>
            </outerBoundaryIs>
          </Polygon>
          <Polygon>
            <outerBoundaryIs>
              <LinearRing>
                <tessellate>1</tessellate>
                <coordinates>
                  -90.496257,14.645122,0
                  -90.496227,14.64511,0
                  -90.496175,14.645097,0
                  -90.495207,14.646248,0
                  -90.494217,14.647434,0
                  -90.493392,14.648418,0
                  -90.493211,14.64871,0
                  -90.493019,14.648989,0
                  -90.492628,14.649474,0
                  -90.491916,14.64972,0
                  -90.486461,14.649222,0
                  -90.484403,14.648996,0
                  -90.482574,14.648819,0
                  -90.48131,14.648628,0
                  -90.480333,14.64849,0
                  -90.47969,14.648427,0
                  -90.478258,14.64834,0
                  -90.478174,14.648647,0
                  -90.47809,14.648969,0
                  -90.477876,14.649325,0
                  -90.477856,14.649431,0
                  -90.477924,14.649651,0
                  -90.477994,14.649773,0
                  -90.478009,14.649861,0
                  -90.478035,14.650105,0
                  -90.477952,14.65168,0
                  -90.477929,14.651771,0
                  -90.477786,14.65207,0
                  -90.477826,14.652146,0
                  -90.477925,14.652199,0
                  -90.477994,14.652183,0
                  -90.478046,14.65214,0
                  -90.478181,14.649725,0
                  -90.478261,14.648434,0
                  -90.479653,14.648528,0
                  -90.480315,14.648586,0
                  -90.481491,14.648766,0
                  -90.482557,14.648923,0
                  -90.483398,14.648993,0
                  -90.484536,14.649102,0
                  -90.486476,14.649321,0
                  -90.491726,14.649853,0
                  -90.492668,14.649501,0
                  -90.492987,14.649103,0
                  -90.493262,14.648719,0
                  -90.493424,14.648494,0
                  -90.493684,14.64822,0
                  -90.494311,14.647484,0
                  -90.495575,14.645938,0
                  -90.496257,14.645122,0
                </coordinates>
              </LinearRing>
            </outerBoundaryIs>
          </Polygon>
          <Polygon>
            <outerBoundaryIs>
              <LinearRing>
                <tessellate>1</tessellate>
                <coordinates>
                  -90.508303,14.640419,0
                  -90.505044,14.639968,0
                  -90.504573,14.640704,0
                  -90.504024,14.640543,0
                  -90.503695,14.640382,0
                  -90.503249,14.640189,0
                  -90.502814,14.6403,0
                  -90.502546,14.640379,0
                  -90.502487,14.640401,0
                  -90.502434,14.640455,0
                  -90.502141,14.64104,0
                  -90.50205,14.64122,0
                  -90.501854,14.641625,0
                  -90.501782,14.641774,0
                  -90.50172,14.641911,0
                  -90.501656,14.642032,0
                  -90.50157,14.642184,0
                  -90.501519,14.642273,0
                  -90.501488,14.642316,0
                  -90.501325,14.642227,0
                  -90.501056,14.642079,0
                  -90.500854,14.641965,0
                  -90.500782,14.641927,0
                  -90.500366,14.641716,0
                  -90.49996,14.64153,0
                  -90.499868,14.641745,0
                  -90.499682,14.642186,0
                  -90.499467,14.642653,0
                  -90.499081,14.643609,0
                  -90.498598,14.643368,0
                  -90.498539,14.643342,0
                  -90.498456,14.643532,0
                  -90.498303,14.643799,0
                  -90.498134,14.64401,0
                  -90.497938,14.644132,0
                  -90.497626,14.644235,0
                  -90.497278,14.64434,0
                  -90.497053,14.644423,0
                  -90.49693,14.644491,0
                  -90.496806,14.64458,0
                  -90.496442,14.644902,0
                  -90.496257,14.645122,0
                  -90.497188,14.645479,0
                  -90.497573,14.645639,0
                  -90.497953,14.645805,0
                  -90.498724,14.64612,0
                  -90.499993,14.646627,0
                  -90.500716,14.646909,0
                  -90.501783,14.6474,0
                  -90.502294,14.647594,0
                  -90.502789,14.647763,0
                  -90.503256,14.647928,0
                  -90.503772,14.648056,0
                  -90.50407,14.648101,0
                  -90.504391,14.648133,0
                  -90.50465,14.648127,0
                  -90.504872,14.648114,0
                  -90.504927,14.648093,0
                  -90.504996,14.648061,0
                  -90.505166,14.647982,0
                  -90.505326,14.647905,0
                  -90.505605,14.647743,0
                  -90.505884,14.647595,0
                  -90.506842,14.647122,0
                  -90.507026,14.647072,0
                  -90.507148,14.647048,0
                  -90.507305,14.64704,0
                  -90.507392,14.647055,0
                  -90.508303,14.640419,0
                </coordinates>
              </LinearRing>
            </outerBoundaryIs>
          </Polygon>
        </MultiGeometry>
      </Placemark>
    </Folder>
    <Folder>
      <name>TRANSMETRO - Línea 18 Atlántida - Paraíso</name>
      <Placemark>
        <name>Atlántida - San Rafael - Paraíso</name>
        <description>11 avenida (Bulevar Álvaro Arzú), zona 18. En dirección a Paraíso.</description>
        <styleUrl>#icon-1899-DB4436</styleUrl>
        <Point>
          <coordinates>
            -90.477989,14.65102,0
          </coordinates>
        </Point>
      </Placemark>
      <Placemark>
        <name>Paraíso</name>
        <description>12 calle y 25 avenida, zona 18.</description>
        <styleUrl>#icon-1899-DB4436</styleUrl>
        <Point>
          <coordinates>
            -90.446671,14.65898,0
          </coordinates>
        </Point>
      </Placemark>
      <Placemark>
        <name>San Rafael</name>
        <description>12 calle y 4ª avenida Colonia San Rafael, zona 18.</description>
        <styleUrl>#icon-1899-DB4436</styleUrl>
        <Point>
          <coordinates>
            -90.452061,14.654982,0
          </coordinates>
        </Point>
      </Placemark>
      <Placemark>
        <name>Línea 18 - Atlántida - Paraíso</name>
        <styleUrl>#poly-0288D1-3000-0-nodesc</styleUrl>
        <MultiGeometry>
          <Polygon>
            <outerBoundaryIs>
              <LinearRing>
                <tessellate>1</tessellate>
                <coordinates>
                  -90.472396,14.649936,0
                  -90.472436,14.650018,0
                  -90.472484,14.650091,0
                  -90.472606,14.650213,0
                  -90.472686,14.65029,0
                  -90.472779,14.650363,0
                  -90.472909,14.65046,0
                  -90.473116,14.65058,0
                  -90.473326,14.65066,0
                  -90.473488,14.650721,0
                  -90.473618,14.650781,0
                  -90.473704,14.650849,0
                  -90.47377,14.65092,0
                  -90.473818,14.65097,0
                  -90.473893,14.651087,0
                  -90.473941,14.651203,0
                  -90.473997,14.651467,0
                  -90.474085,14.651923,0
                  -90.474183,14.652245,0
                  -90.474319,14.652612,0
                  -90.474446,14.652953,0
                  -90.474638,14.653439,0
                  -90.474756,14.653759,0
                  -90.474875,14.65408,0
                  -90.474941,14.654258,0
                  -90.475026,14.65434,0
                  -90.475124,14.65439,0
                  -90.4752,14.654413,0
                  -90.475344,14.654389,0
                  -90.475495,14.654407,0
                  -90.476178,14.654488,0
                  -90.476545,14.654555,0
                  -90.476781,14.654566,0
                  -90.476934,14.654538,0
                  -90.477163,14.65447,0
                  -90.477406,14.65435,0
                  -90.47754,14.654252,0
                  -90.477616,14.654174,0
                  -90.477683,14.654127,0
                  -90.477693,14.654079,0
                  -90.477725,14.654019,0
                  -90.477769,14.653968,0
                  -90.477802,14.653934,0
                  -90.477849,14.653806,0
                  -90.477864,14.653736,0
                  -90.477871,14.653684,0
                  -90.477868,14.65355,0
                  -90.47788,14.653107,0
                  -90.477899,14.652796,0
                  -90.47791,14.65263,0
                  -90.477907,14.652528,0
                  -90.477879,14.652451,0
                  -90.477756,14.652193,0
                  -90.477748,14.652127,0
                  -90.477754,14.652078,0
                  -90.477907,14.651771,0
                  -90.477942,14.651672,0
                  -90.477977,14.651059,0
                  -90.478004,14.650524,0
                  -90.478027,14.650106,0
                  -90.47797,14.649785,0
                  -90.477901,14.649655,0
                  -90.477838,14.649428,0
                  -90.477859,14.649318,0
                  -90.478067,14.648957,0
                  -90.47821,14.648423,0
                  -90.4778,14.648372,0
                  -90.4774,14.648329,0
                  -90.476947,14.648285,0
                  -90.476488,14.648238,0
                  -90.476126,14.648223,0
                  -90.475747,14.64822,0
                  -90.475394,14.648251,0
                  -90.475051,14.648315,0
                  -90.474474,14.648474,0
                  -90.474112,14.648615,0
                  -90.473887,14.64873,0
                  -90.473559,14.648964,0
                  -90.473109,14.649279,0
                  -90.472827,14.649519,0
                  -90.472532,14.649814,0
                  -90.472396,14.649936,0
                </coordinates>
              </LinearRing>
            </outerBoundaryIs>
          </Polygon>
          <Polygon>
            <outerBoundaryIs>
              <LinearRing>
                <tessellate>1</tessellate>
                <coordinates>
                  -90.472396,14.649936,0
                  -90.472378,14.649896,0
                  -90.472338,14.649851,0
                  -90.472273,14.649839,0
                  -90.472205,14.649859,0
                  -90.472157,14.649938,0
                  -90.47204,14.6501,0
                  -90.471786,14.650514,0
                  -90.471619,14.650819,0
                  -90.471495,14.651127,0
                  -90.471398,14.651468,0
                  -90.471253,14.652011,0
                  -90.47118,14.652528,0
                  -90.471123,14.652947,0
                  -90.471086,14.65334,0
                  -90.471036,14.653893,0
                  -90.47099,14.654161,0
                  -90.470896,14.654397,0
                  -90.470785,14.654588,0
                  -90.470627,14.654794,0
                  -90.47035,14.655038,0
                  -90.469948,14.655263,0
                  -90.469418,14.655567,0
                  -90.468855,14.655855,0
                  -90.468485,14.656002,0
                  -90.468158,14.656083,0
                  -90.467876,14.656131,0
                  -90.467574,14.656142,0
                  -90.467139,14.656114,0
                  -90.466548,14.656028,0
                  -90.46565,14.655896,0
                  -90.464818,14.655795,0
                  -90.464361,14.655722,0
                  -90.463998,14.655629,0
                  -90.463597,14.655528,0
                  -90.463091,14.65533,0
                  -90.462443,14.655018,0
                  -90.461811,14.654721,0
                  -90.460798,14.654228,0
                  -90.460232,14.653945,0
                  -90.459727,14.65369,0
                  -90.459192,14.653445,0
                  -90.45842,14.653081,0
                  -90.457901,14.652857,0
                  -90.457544,14.65273,0
                  -90.457089,14.652581,0
                  -90.456565,14.652411,0
                  -90.45583,14.652227,0
                  -90.455473,14.65215,0
                  -90.455334,14.652144,0
                  -90.455204,14.652179,0
                  -90.455061,14.652256,0
                  -90.454996,14.652357,0
                  -90.454926,14.652562,0
                  -90.454799,14.65299,0
                  -90.45462,14.653475,0
                  -90.454474,14.653776,0
                  -90.454374,14.65388,0
                  -90.454322,14.653947,0
                  -90.454226,14.65401,0
                  -90.454105,14.654082,0
                  -90.453584,14.654269,0
                  -90.453204,14.654427,0
                  -90.452658,14.654652,0
                  -90.452271,14.654798,0
                  -90.451805,14.655009,0
                  -90.45134,14.655258,0
                  -90.451139,14.655378,0
                  -90.450928,14.655537,0
                  -90.450767,14.655687,0
                  -90.450377,14.656112,0
                  -90.450051,14.656483,0
                  -90.449532,14.657082,0
                  -90.449197,14.65744,0
                  -90.449002,14.657642,0
                  -90.448801,14.657835,0
                  -90.448561,14.65805,0
                  -90.448304,14.658204,0
                  -90.448036,14.658344,0
                  -90.447767,14.658465,0
                  -90.447483,14.658576,0
                  -90.447113,14.658762,0
                  -90.446679,14.658942,0
                  -90.446413,14.659057,0
                  -90.44514,14.659616,0
                  -90.445166,14.659653,0
                  -90.445976,14.659303,0
                  -90.446733,14.658975,0
                  -90.447376,14.658705,0
                  -90.44777,14.658533,0
                  -90.448092,14.658397,0
                  -90.448233,14.65833,0
                  -90.44846,14.658211,0
                  -90.4486,14.658132,0
                  -90.448751,14.658002,0
                  -90.449035,14.657722,0
                  -90.449592,14.657119,0
                  -90.450054,14.656656,0
                  -90.450451,14.656222,0
                  -90.450842,14.655777,0
                  -90.451104,14.655529,0
                  -90.451272,14.655414,0
                  -90.451646,14.655214,0
                  -90.452094,14.655006,0
                  -90.452702,14.654758,0
                  -90.453093,14.654585,0
                  -90.453586,14.654379,0
                  -90.454064,14.654193,0
                  -90.454213,14.654136,0
                  -90.454351,14.65405,0
                  -90.454456,14.653957,0
                  -90.454566,14.65385,0
                  -90.45463,14.653766,0
                  -90.45466,14.653706,0
                  -90.454774,14.65337,0
                  -90.454884,14.653033,0
                  -90.454981,14.652733,0
                  -90.455045,14.652558,0
                  -90.455098,14.652469,0
                  -90.455156,14.652419,0
                  -90.455221,14.652386,0
                  -90.455382,14.652358,0
                  -90.456071,14.652481,0
                  -90.456782,14.652614,0
                  -90.457388,14.65278,0
                  -90.457701,14.652891,0
                  -90.458021,14.653026,0
                  -90.458748,14.653345,0
                  -90.459142,14.653537,0
                  -90.459577,14.653745,0
                  -90.460181,14.65403,0
                  -90.460791,14.65434,0
                  -90.461142,14.654538,0
                  -90.461576,14.654746,0
                  -90.461775,14.654849,0
                  -90.462064,14.654988,0
                  -90.462393,14.655158,0
                  -90.462777,14.655322,0
                  -90.463014,14.655442,0
                  -90.463181,14.655515,0
                  -90.463466,14.65562,0
                  -90.463695,14.655702,0
                  -90.46397,14.655776,0
                  -90.46429,14.655844,0
                  -90.464592,14.6559,0
                  -90.464899,14.65594,0
                  -90.465136,14.65597,0
                  -90.465442,14.656012,0
                  -90.465901,14.656066,0
                  -90.466374,14.656127,0
                  -90.466965,14.656214,0
                  -90.467291,14.656261,0
                  -90.467498,14.656273,0
                  -90.467781,14.656284,0
                  -90.468025,14.656271,0
                  -90.468274,14.6562,0
                  -90.468562,14.656127,0
                  -90.468842,14.656023,0
                  -90.469012,14.655926,0
                  -90.469412,14.655723,0
                  -90.469741,14.655534,0
                  -90.470006,14.65538,0
                  -90.470239,14.655254,0
                  -90.470356,14.65519,0
                  -90.470527,14.655066,0
                  -90.470726,14.654894,0
                  -90.470824,14.654747,0
                  -90.470923,14.654595,0
                  -90.470999,14.654425,0
                  -90.47108,14.654245,0
                  -90.471123,14.6541,0
                  -90.47118,14.65377,0
                  -90.471223,14.653415,0
                  -90.471259,14.653013,0
                  -90.471302,14.652626,0
                  -90.471342,14.652264,0
                  -90.471365,14.65208,0
                  -90.471466,14.651645,0
                  -90.471532,14.65143,0
                  -90.471638,14.651242,0
                  -90.471771,14.65086,0
                  -90.47192,14.650556,0
                  -90.472043,14.650342,0
                  -90.472141,14.650187,0
                  -90.47224,14.650076,0
                  -90.472396,14.649936,0
                </coordinates>
              </LinearRing>
            </outerBoundaryIs>
          </Polygon>
        </MultiGeometry>
      </Placemark>
    </Folder>
  </Document>
</kml>
