<?xml version="1.0" encoding="UTF-8"?>
<kml xmlns="http://www.opengis.net/kml/2.2">
  <Document>
    <name>Transmetro - Línea 6</name>
    <description>Proyectos Z.6 / FEGUA Z.1</description>
    <Style id="icon-1899-DB4436-normal">
      <IconStyle>
        <color>ff3644db</color>
        <scale>1</scale>
        <Icon>
          <href>https://www.gstatic.com/mapspro/images/stock/503-wht-blank_maps.png</href>
        </Icon>
        <hotSpot x="32" xunits="pixels" y="64" yunits="insetPixels"/>
      </IconStyle>
      <LabelStyle>
        <scale>0</scale>
      </LabelStyle>
    </Style>
    <Style id="icon-1899-DB4436-highlight">
      <IconStyle>
        <color>ff3644db</color>
        <scale>1</scale>
        <Icon>
          <href>https://www.gstatic.com/mapspro/images/stock/503-wht-blank_maps.png</href>
        </Icon>
        <hotSpot x="32" xunits="pixels" y="64" yunits="insetPixels"/>
      </IconStyle>
      <LabelStyle>
        <scale>1</scale>
      </LabelStyle>
    </Style>
    <StyleMap id="icon-1899-DB4436">
      <Pair>
        <key>normal</key>
        <styleUrl>#icon-1899-DB4436-normal</styleUrl>
      </Pair>
      <Pair>
        <key>highlight</key>
        <styleUrl>#icon-1899-DB4436-highlight</styleUrl>
      </Pair>
    </StyleMap>
    <Style id="poly-FFD600-4000-0-nodesc-normal">
      <LineStyle>
        <color>ff00d6ff</color>
        <width>4</width>
      </LineStyle>
      <PolyStyle>
        <color>0000d6ff</color>
        <fill>1</fill>
        <outline>1</outline>
      </PolyStyle>
      <BalloonStyle>
        <text><![CDATA[<h3>$[name]</h3>]]></text>
      </BalloonStyle>
    </Style>
    <Style id="poly-FFD600-4000-0-nodesc-highlight">
      <LineStyle>
        <color>ff00d6ff</color>
        <width>6</width>
      </LineStyle>
      <PolyStyle>
        <color>0000d6ff</color>
        <fill>1</fill>
        <outline>1</outline>
      </PolyStyle>
      <BalloonStyle>
        <text><![CDATA[<h3>$[name]</h3>]]></text>
      </BalloonStyle>
    </Style>
    <StyleMap id="poly-FFD600-4000-0-nodesc">
      <Pair>
        <key>normal</key>
        <styleUrl>#poly-FFD600-4000-0-nodesc-normal</styleUrl>
      </Pair>
      <Pair>
        <key>highlight</key>
        <styleUrl>#poly-FFD600-4000-0-nodesc-highlight</styleUrl>
      </Pair>
    </StyleMap>
    <Folder>
      <name>TRANSMETRO - Línea 6</name>
      <Placemark>
        <name>Plaza Barrios/FEGUA - Líneas 6 y 18</name>
        <description>18 calle y 10ª avenida, zona 1.</description>
        <styleUrl>#icon-1899-DB4436</styleUrl>
        <Point>
          <coordinates>
            -90.511633,14.630528,0
          </coordinates>
        </Point>
      </Placemark>
      <Placemark>
        <name>Francos Monroy  - Líneas 6 y 18</name>
        <description>11 avenida y 15 calle, zona 1.</description>
        <styleUrl>#icon-1899-DB4436</styleUrl>
        <Point>
          <coordinates>
            -90.50937,14.632644,0
          </coordinates>
        </Point>
      </Placemark>
      <Placemark>
        <name>Colón - Líneas 6 y 18</name>
        <description>11 avenida y 8ª calle, zona 1.</description>
        <styleUrl>#icon-1899-DB4436</styleUrl>
        <Point>
          <coordinates>
            -90.508372,14.639986,0
          </coordinates>
        </Point>
      </Placemark>
      <Placemark>
        <name>Cerro del Carmen - Líneas 6 y 18</name>
        <description>1a calle y 13 avenida entre zona 1 y 2. Línea 6 en dirección a FEGUA-Plaza Barrios y Proyectos.</description>
        <styleUrl>#icon-1899-DB4436</styleUrl>
        <Point>
          <coordinates>
            -90.504911,14.648125,0
          </coordinates>
        </Point>
      </Placemark>
      <Placemark>
        <name>Parroquia</name>
        <description>15 avenida y 3ª calle, zona 6.</description>
        <styleUrl>#icon-1899-DB4436</styleUrl>
        <Point>
          <coordinates>
            -90.499793,14.649987,0
          </coordinates>
        </Point>
      </Placemark>
      <Placemark>
        <name>IGSS Zona 6</name>
        <description>16 avenida y 6ª calle, zona 6.</description>
        <styleUrl>#icon-1899-DB4436</styleUrl>
        <Point>
          <coordinates>
            -90.497468,14.651569,0
          </coordinates>
        </Point>
      </Placemark>
      <Placemark>
        <name>Centro Zona 6</name>
        <description>16 avenida y 10ª calle, zona 6.</description>
        <styleUrl>#icon-1899-DB4436</styleUrl>
        <Point>
          <coordinates>
            -90.496075,14.654944,0
          </coordinates>
        </Point>
      </Placemark>
      <Placemark>
        <name>Academia</name>
        <description>16 avenida y 15 calle, zona 6.</description>
        <styleUrl>#icon-1899-DB4436</styleUrl>
        <Point>
          <coordinates>
            -90.494055,14.659034,0
          </coordinates>
        </Point>
      </Placemark>
      <Placemark>
        <name>Cipresales</name>
        <description>Avenida La Pedrera y 18 calle, zona 6. En dirección a Proyectos y Plaza Barrios/FEGUA.</description>
        <styleUrl>#icon-1899-DB4436</styleUrl>
        <Point>
          <coordinates>
            -90.493794,14.66532,0
          </coordinates>
        </Point>
      </Placemark>
      <Placemark>
        <name>Proyectos 4-4</name>
        <description>Avenida La Pedrera y 20 calle, zona 6. En dirección a Proyectos y Plaza Barrios/FEGUA.</description>
        <styleUrl>#icon-1899-DB4436</styleUrl>
        <Point>
          <coordinates>
            -90.491939,14.667559,0
          </coordinates>
        </Point>
      </Placemark>
      <Placemark>
        <name>Proyectos</name>
        <description>Avenida La Pedrera y 25 calle, zona 6.</description>
        <styleUrl>#icon-1899-DB4436</styleUrl>
        <Point>
          <coordinates>
            -90.487462,14.673329,0
          </coordinates>
        </Point>
      </Placemark>
      <Placemark>
        <name>Quintanal</name>
        <description>15 avenida y 13 calle, zona 6.</description>
        <styleUrl>#icon-1899-DB4436</styleUrl>
        <Point>
          <coordinates>
            -90.4959916,14.6585464,0
          </coordinates>
        </Point>
      </Placemark>
      <Placemark>
        <name>Corpus Christi</name>
        <description>15 avenida y 10ª calle, zona 6.</description>
        <styleUrl>#icon-1899-DB4436</styleUrl>
        <Point>
          <coordinates>
            -90.496848,14.656832,0
          </coordinates>
        </Point>
      </Placemark>
      <Placemark>
        <name>José Martí</name>
        <description>14 avenida y 7ª calle, zona 6.</description>
        <styleUrl>#icon-1899-DB4436</styleUrl>
        <Point>
          <coordinates>
            -90.499984,14.652949,0
          </coordinates>
        </Point>
      </Placemark>
      <Placemark>
        <name>Santa Teresa</name>
        <description>10ª avenida y 4ª calle, zona 1.</description>
        <styleUrl>#icon-1899-DB4436</styleUrl>
        <Point>
          <coordinates>
            -90.509165,14.644051,0
          </coordinates>
        </Point>
      </Placemark>
      <Placemark>
        <name>Capuchinas - Líneas 6 y 18</name>
        <description>10a avenida y 10a calle zona 1.</description>
        <styleUrl>#icon-1899-DB4436</styleUrl>
        <Point>
          <coordinates>
            -90.509892,14.638554,0
          </coordinates>
        </Point>
      </Placemark>
      <Placemark>
        <name>Línea 6</name>
        <styleUrl>#poly-FFD600-4000-0-nodesc</styleUrl>
        <Polygon>
          <outerBoundaryIs>
            <LinearRing>
              <tessellate>1</tessellate>
              <coordinates>
                -90.511631,14.630532,0
                -90.509726,14.630267,0
                -90.509545,14.631512,0
                -90.509387,14.632778,0
                -90.509303,14.633336,0
                -90.509223,14.633976,0
                -90.509118,14.634739,0
                -90.509024,14.635426,0
                -90.50872,14.637544,0
                -90.508563,14.638748,0
                -90.50854,14.638904,0
                -90.508518,14.639062,0
                -90.508473,14.639377,0
                -90.508429,14.639693,0
                -90.508382,14.640009,0
                -90.508355,14.640206,0
                -90.508325,14.640408,0
                -90.508251,14.640977,0
                -90.508233,14.641128,0
                -90.50823,14.641233,0
                -90.508198,14.641471,0
                -90.508168,14.641718,0
                -90.508106,14.642153,0
                -90.508034,14.642646,0
                -90.507917,14.643474,0
                -90.507854,14.643934,0
                -90.507782,14.644457,0
                -90.50768,14.645214,0
                -90.507648,14.645456,0
                -90.507614,14.645714,0
                -90.50758,14.645968,0
                -90.507555,14.646144,0
                -90.507518,14.646404,0
                -90.507491,14.646583,0
                -90.507456,14.646825,0
                -90.507424,14.64705,0
                -90.507389,14.647045,0
                -90.507339,14.647037,0
                -90.507302,14.64703,0
                -90.507248,14.647028,0
                -90.507188,14.64703,0
                -90.507145,14.647038,0
                -90.507023,14.647063,0
                -90.506908,14.647101,0
                -90.506799,14.647146,0
                -90.506229,14.647424,0
                -90.506077,14.647501,0
                -90.505954,14.647566,0
                -90.50568,14.647706,0
                -90.505543,14.647778,0
                -90.50533,14.647904,0
                -90.505067,14.648021,0
                -90.504882,14.648112,0
                -90.504633,14.648139,0
                -90.504485,14.648145,0
                -90.504356,14.64814,0
                -90.504169,14.648124,0
                -90.503962,14.648101,0
                -90.503781,14.64807,0
                -90.503607,14.64803,0
                -90.503337,14.647962,0
                -90.503186,14.647918,0
                -90.503039,14.647868,0
                -90.502723,14.647757,0
                -90.502614,14.647716,0
                -90.502498,14.647671,0
                -90.502135,14.647538,0
                -90.501915,14.647453,0
                -90.501704,14.647372,0
                -90.501006,14.647067,0
                -90.500634,14.647865,0
                -90.500475,14.648277,0
                -90.500328,14.648699,0
                -90.500266,14.648789,0
                -90.500215,14.648889,0
                -90.500143,14.649098,0
                -90.499944,14.649634,0
                -90.499783,14.650109,0
                -90.499637,14.650586,0
                -90.498204,14.650426,0
                -90.498055,14.650418,0
                -90.49802,14.650417,0
                -90.497986,14.650419,0
                -90.497925,14.650439,0
                -90.497875,14.650463,0
                -90.497846,14.65049,0
                -90.497796,14.650619,0
                -90.497607,14.651201,0
                -90.497432,14.651793,0
                -90.497265,14.652397,0
                -90.497187,14.65269,0
                -90.497129,14.652838,0
                -90.497069,14.65298,0
                -90.496906,14.653299,0
                -90.496884,14.653355,0
                -90.49687,14.653403,0
                -90.496851,14.653487,0
                -90.496842,14.653582,0
                -90.49684,14.653678,0
                -90.496812,14.653791,0
                -90.496769,14.653902,0
                -90.496715,14.654008,0
                -90.496653,14.654108,0
                -90.496395,14.654455,0
                -90.495927,14.655128,0
                -90.495353,14.655986,0
                -90.49433,14.65753,0
                -90.494254,14.657678,0
                -90.494142,14.657968,0
                -90.494119,14.658509,0
                -90.494113,14.65905,0
                -90.494108,14.660141,0
                -90.494104,14.662319,0
                -90.494077,14.662834,0
                -90.494025,14.663434,0
                -90.493931,14.664577,0
                -90.493789,14.665166,0
                -90.493561,14.665692,0
                -90.49327,14.666097,0
                -90.492952,14.666495,0
                -90.492739,14.666761,0
                -90.492515,14.666976,0
                -90.49185,14.667607,0
                -90.49066,14.66873,0
                -90.489824,14.669586,0
                -90.489432,14.67004,0
                -90.489068,14.670511,0
                -90.488473,14.67134,0
                -90.488327,14.671605,0
                -90.488021,14.672217,0
                -90.487394,14.67344,0
                -90.487507,14.673494,0
                -90.488128,14.672286,0
                -90.488442,14.671679,0
                -90.488676,14.671285,0
                -90.489191,14.670532,0
                -90.489911,14.669638,0
                -90.49044,14.669096,0
                -90.490732,14.668817,0
                -90.492769,14.66691,0
                -90.493668,14.665753,0
                -90.493802,14.665521,0
                -90.493909,14.665247,0
                -90.494007,14.664877,0
                -90.494044,14.664608,0
                -90.494065,14.664328,0
                -90.494124,14.663477,0
                -90.494196,14.66252,0
                -90.49429,14.662138,0
                -90.49436,14.661905,0
                -90.494463,14.661677,0
                -90.49495,14.660664,0
                -90.495171,14.660197,0
                -90.495366,14.65977,0
                -90.495717,14.65912,0
                -90.497463,14.655571,0
                -90.497786,14.654914,0
                -90.498072,14.654226,0
                -90.49914,14.654688,0
                -90.499537,14.654819,0
                -90.499718,14.654863,0
                -90.499808,14.654876,0
                -90.499846,14.654879,0
                -90.499882,14.654874,0
                -90.499927,14.654857,0
                -90.499959,14.654833,0
                -90.499984,14.654792,0
                -90.499992,14.654763,0
                -90.499995,14.654734,0
                -90.499979,14.653893,0
                -90.499995,14.6531,0
                -90.500003,14.652822,0
                -90.500076,14.65246,0
                -90.500164,14.6521,0
                -90.500357,14.651313,0
                -90.500438,14.650942,0
                -90.500533,14.650578,0
                -90.500738,14.649833,0
                -90.501736,14.64982,0
                -90.501774,14.64971,0
                -90.50182,14.64962,0
                -90.502006,14.649586,0
                -90.502186,14.649515,0
                -90.502534,14.649362,0
                -90.502846,14.649206,0
                -90.502974,14.649112,0
                -90.503128,14.648995,0
                -90.503402,14.648783,0
                -90.503618,14.648621,0
                -90.503726,14.648565,0
                -90.503915,14.648491,0
                -90.504069,14.648446,0
                -90.504231,14.648389,0
                -90.50476,14.648183,0
                -90.504883,14.648138,0
                -90.505022,14.648075,0
                -90.505347,14.647919,0
                -90.505522,14.647815,0
                -90.505696,14.64772,0
                -90.506151,14.647484,0
                -90.506646,14.647248,0
                -90.50682,14.647154,0
                -90.506912,14.647118,0
                -90.507009,14.64709,0
                -90.507097,14.647065,0
                -90.507205,14.64705,0
                -90.50731,14.647051,0
                -90.507382,14.647064,0
                -90.50741,14.647064,0
                -90.508683,14.647238,0
                -90.509883,14.638516,0
                -90.510468,14.634174,0
                -90.510858,14.63424,0
                -90.511101,14.634281,0
                -90.5114,14.634331,0
                -90.511668,14.634372,0
                -90.511833,14.634399,0
                -90.512115,14.634443,0
                -90.512358,14.634483,0
                -90.512608,14.634522,0
                -90.512641,14.63429,0
                -90.512657,14.634176,0
                -90.512673,14.634069,0
                -90.512708,14.633817,0
                -90.51273,14.633677,0
                -90.512744,14.633567,0
                -90.512815,14.633068,0
                -90.512852,14.632815,0
                -90.512888,14.632554,0
                -90.513046,14.631464,0
                -90.513189,14.630701,0
                -90.512559,14.630647,0
                -90.51225,14.63062,0
                -90.512014,14.630587,0
                -90.511631,14.630532,0
              </coordinates>
            </LinearRing>
          </outerBoundaryIs>
        </Polygon>
      </Placemark>
    </Folder>
  </Document>
</kml>
