<?xml version="1.0" encoding="UTF-8"?>
<kml xmlns="http://www.opengis.net/kml/2.2">
  <Document>
    <name>Transmetro - Línea 7</name>
    <description>USAC Periférico Z.12 / La Merced Z.1</description>
    <Style id="icon-1899-DB4436-normal">
      <IconStyle>
        <color>ff3644db</color>
        <scale>1</scale>
        <Icon>
          <href>https://www.gstatic.com/mapspro/images/stock/503-wht-blank_maps.png</href>
        </Icon>
        <hotSpot x="32" xunits="pixels" y="64" yunits="insetPixels"/>
      </IconStyle>
      <LabelStyle>
        <scale>0</scale>
      </LabelStyle>
    </Style>
    <Style id="icon-1899-DB4436-highlight">
      <IconStyle>
        <color>ff3644db</color>
        <scale>1</scale>
        <Icon>
          <href>https://www.gstatic.com/mapspro/images/stock/503-wht-blank_maps.png</href>
        </Icon>
        <hotSpot x="32" xunits="pixels" y="64" yunits="insetPixels"/>
      </IconStyle>
      <LabelStyle>
        <scale>1</scale>
      </LabelStyle>
    </Style>
    <StyleMap id="icon-1899-DB4436">
      <Pair>
        <key>normal</key>
        <styleUrl>#icon-1899-DB4436-normal</styleUrl>
      </Pair>
      <Pair>
        <key>highlight</key>
        <styleUrl>#icon-1899-DB4436-highlight</styleUrl>
      </Pair>
    </StyleMap>
    <Style id="line-BDBDBD-4000-nodesc-normal">
      <LineStyle>
        <color>ffbdbdbd</color>
        <width>4</width>
      </LineStyle>
      <BalloonStyle>
        <text><![CDATA[<h3>$[name]</h3>]]></text>
      </BalloonStyle>
    </Style>
    <Style id="line-BDBDBD-4000-nodesc-highlight">
      <LineStyle>
        <color>ffbdbdbd</color>
        <width>6</width>
      </LineStyle>
      <BalloonStyle>
        <text><![CDATA[<h3>$[name]</h3>]]></text>
      </BalloonStyle>
    </Style>
    <StyleMap id="line-BDBDBD-4000-nodesc">
      <Pair>
        <key>normal</key>
        <styleUrl>#line-BDBDBD-4000-nodesc-normal</styleUrl>
      </Pair>
      <Pair>
        <key>highlight</key>
        <styleUrl>#line-BDBDBD-4000-nodesc-highlight</styleUrl>
      </Pair>
    </StyleMap>
    <Folder>
      <name>TRANSMETRO - Línea 7</name>
      <Placemark>
        <name>USAC Periférico</name>
        <description>Anillo Periférico y 11 avenida, zona 12.</description>
        <styleUrl>#icon-1899-DB4436</styleUrl>
        <Point>
          <coordinates>
            -90.550515,14.593119,0
          </coordinates>
        </Point>
      </Placemark>
      <Placemark>
        <name>Granai - Dir. La Merced</name>
        <description>Anillo Periférico 12 avenida, zona 11. En dirección a La Merced.</description>
        <styleUrl>#icon-1899-DB4436</styleUrl>
        <Point>
          <coordinates>
            -90.559135,14.599635,0
          </coordinates>
        </Point>
      </Placemark>
      <Placemark>
        <name>Granai - Dir. USAC Periférico</name>
        <description>Anillo Periférico 9ª avenida A, zona 11. En dirección a USAC Periférico.</description>
        <styleUrl>#icon-1899-DB4436</styleUrl>
        <Point>
          <coordinates>
            -90.55953,14.599572,0
          </coordinates>
        </Point>
      </Placemark>
      <Placemark>
        <name>Rodolfo Robles - Dir. La Merced</name>
        <description>Anillo Periférico 20 calle, zona 11. En dirección a La Merced.</description>
        <styleUrl>#icon-1899-DB4436</styleUrl>
        <Point>
          <coordinates>
            -90.558211,14.607072,0
          </coordinates>
        </Point>
      </Placemark>
      <Placemark>
        <name>Rodolfo Robles - Dir. USAC Periférico</name>
        <description>Anillo Periférico Diagonal 21 y calle Mariscal, zona 11. En dirección a USAC Periférico.</description>
        <styleUrl>#icon-1899-DB4436</styleUrl>
        <Point>
          <coordinates>
            -90.558094,14.607673,0
          </coordinates>
        </Point>
      </Placemark>
      <Placemark>
        <name>CEJUSA - Dir. La Merced</name>
        <description>Anillo Periférico y 18 calle, zona 11. En dirección a La Merced.</description>
        <styleUrl>#icon-1899-DB4436</styleUrl>
        <Point>
          <coordinates>
            -90.556525,14.609437,0
          </coordinates>
        </Point>
      </Placemark>
      <Placemark>
        <name>CEJUSA - Dir. USAC Periférico</name>
        <description>Anillo Periférico y 17 calle, zona 11. En dirección a USAC Periférico.</description>
        <styleUrl>#icon-1899-DB4436</styleUrl>
        <Point>
          <coordinates>
            -90.556431,14.610095,0
          </coordinates>
        </Point>
      </Placemark>
      <Placemark>
        <name>San Jorge - Dir. La Merced</name>
        <description>Anillo Periférico y 21 avenida, zona 11. En dirección a La Merced.</description>
        <styleUrl>#icon-1899-DB4436</styleUrl>
        <Point>
          <coordinates>
            -90.555686,14.618358,0
          </coordinates>
        </Point>
      </Placemark>
      <Placemark>
        <name>San Jorge - Dir. USAC Periférico</name>
        <description>Anillo Periférico y 22 avenida, zona 11. En dirección a USAC Periférico.</description>
        <styleUrl>#icon-1899-DB4436</styleUrl>
        <Point>
          <coordinates>
            -90.556556,14.619297,0
          </coordinates>
        </Point>
      </Placemark>
      <Placemark>
        <name>Roosevelt - Dir. La Merced</name>
        <description>Anillo Periférico y Calzada Roosevelt, zona 11. En dirección a La Merced.</description>
        <styleUrl>#icon-1899-DB4436</styleUrl>
        <Point>
          <coordinates>
            -90.5582726,14.626294,0
          </coordinates>
        </Point>
      </Placemark>
      <Placemark>
        <name>Roosevelt - Dir. USAC Periférico</name>
        <description>Anillo Periférico y Calzada Roosevelt, zona 11. En dirección a USAC Periférico.</description>
        <styleUrl>#icon-1899-DB4436</styleUrl>
        <Point>
          <coordinates>
            -90.559009,14.626041,0
          </coordinates>
        </Point>
      </Placemark>
      <Placemark>
        <name>San Juan - Dir. La Merced</name>
        <description>Anillo Periférico entre 4ª y 6ª calles, zona 7. En dirección a La Merced.</description>
        <styleUrl>#icon-1899-DB4436</styleUrl>
        <Point>
          <coordinates>
            -90.554744,14.63024,0
          </coordinates>
        </Point>
      </Placemark>
      <Placemark>
        <name>San Juan - Dir. USAC Periférico</name>
        <description>Anillo Periférico 6ª calle, zona 7. En dirección a USAC Periférico.</description>
        <styleUrl>#icon-1899-DB4436</styleUrl>
        <Point>
          <coordinates>
            -90.554974,14.63042,0
          </coordinates>
        </Point>
      </Placemark>
      <Placemark>
        <name>Ciudad de Plata II - Dir. La Merced</name>
        <description>Anillo Periférico y 14 calle, zona 7. En dirección a La Merced.</description>
        <styleUrl>#icon-1899-DB4436</styleUrl>
        <Point>
          <coordinates>
            -90.550556,14.638306,0
          </coordinates>
        </Point>
      </Placemark>
      <Placemark>
        <name>Ciudad de Plata II - Dir. USAC Periférico</name>
        <description><![CDATA[Anillo Periférico y 13 calle "B", zona 7. En dirección a USAC Periférico.]]></description>
        <styleUrl>#icon-1899-DB4436</styleUrl>
        <Point>
          <coordinates>
            -90.550753,14.63849,0
          </coordinates>
        </Point>
      </Placemark>
      <Placemark>
        <name>Villa Linda - Dir. La Merced</name>
        <description>Anillo Periférico y 16 calle, zona 7. En dirección a La Merced.</description>
        <styleUrl>#icon-1899-DB4436</styleUrl>
        <Point>
          <coordinates>
            -90.546255,14.64133,0
          </coordinates>
        </Point>
      </Placemark>
      <Placemark>
        <name>Villa Linda - Dir. USAC Periférico</name>
        <description>Anillo Periférico y 16 calle, zona 7. En dirección a USAC Periférico.</description>
        <styleUrl>#icon-1899-DB4436</styleUrl>
        <Point>
          <coordinates>
            -90.545503,14.64223,0
          </coordinates>
        </Point>
      </Placemark>
      <Placemark>
        <name>4 de febrero - Dir. La Merced</name>
        <description>Anillo Periférico 6ª calle, zona 7. En dirección a La Merced.</description>
        <styleUrl>#icon-1899-DB4436</styleUrl>
        <Point>
          <coordinates>
            -90.5396772,14.6449081,0
          </coordinates>
        </Point>
      </Placemark>
      <Placemark>
        <name>4 de febrero - Dir. USAC Periférico</name>
        <description>Anillo Periférico y 22 calle, zona 7. En dirección a USAC Periférico.</description>
        <styleUrl>#icon-1899-DB4436</styleUrl>
        <Point>
          <coordinates>
            -90.540825,14.644507,0
          </coordinates>
        </Point>
      </Placemark>
      <Placemark>
        <name>Bethania - Dir. USAC Periférico</name>
        <description>Anillo Periférico y 13 avenida, zona 7. En dirección a USAC Periférico.</description>
        <styleUrl>#icon-1899-DB4436</styleUrl>
        <Point>
          <coordinates>
            -90.536813,14.645891,0
          </coordinates>
        </Point>
      </Placemark>
      <Placemark>
        <name>Incienso - Dir. La Merced</name>
        <description>Anillo Periférico y Puente El Incienso, zona 7. En dirección a La Merced.</description>
        <styleUrl>#icon-1899-DB4436</styleUrl>
        <Point>
          <coordinates>
            -90.530966,14.648711,0
          </coordinates>
        </Point>
      </Placemark>
      <Placemark>
        <name>Incienso - Dir. USAC Periférico</name>
        <description>Anillo Periférico y Puente El Incienso, zona 7. En dirección a USAC Periférico.</description>
        <styleUrl>#icon-1899-DB4436</styleUrl>
        <Point>
          <coordinates>
            -90.531398,14.648794,0
          </coordinates>
        </Point>
      </Placemark>
      <Placemark>
        <name>San Juan de Dios</name>
        <description>9ª calle y 2ª avenida, zona 1.</description>
        <styleUrl>#icon-1899-DB4436</styleUrl>
        <Point>
          <coordinates>
            -90.51889,14.64123,0
          </coordinates>
        </Point>
      </Placemark>
      <Placemark>
        <name>Pasaje Aycinena</name>
        <description>9ª calle y 7ª avenida, zona 1.</description>
        <styleUrl>#icon-1899-DB4436</styleUrl>
        <Point>
          <coordinates>
            -90.513068,14.640319,0
          </coordinates>
        </Point>
      </Placemark>
      <Placemark>
        <name>La Merced</name>
        <description>11 avenida y 4ª calle, zona 1.</description>
        <styleUrl>#icon-1899-DB4436</styleUrl>
        <Point>
          <coordinates>
            -90.507925,14.64347,0
          </coordinates>
        </Point>
      </Placemark>
      <Placemark>
        <name>Cruz Roja</name>
        <description>4ª calle y 8ª avenida, zona 1.</description>
        <styleUrl>#icon-1899-DB4436</styleUrl>
        <Point>
          <coordinates>
            -90.510945,14.64424,0
          </coordinates>
        </Point>
      </Placemark>
      <Placemark>
        <name>Archivo General</name>
        <description>4ª avenida y 7ª calle, zona 1.</description>
        <styleUrl>#icon-1899-DB4436</styleUrl>
        <Point>
          <coordinates>
            -90.515695,14.642434,0
          </coordinates>
        </Point>
      </Placemark>
      <Placemark>
        <name>Santuario de Guadalupe</name>
        <description>8ª calle y 1ª avenida, zona 1.</description>
        <styleUrl>#icon-1899-DB4436</styleUrl>
        <Point>
          <coordinates>
            -90.519303,14.642088,0
          </coordinates>
        </Point>
      </Placemark>
      <Placemark>
        <name>Bethania - Dir. Colón</name>
        <description>Anillo Periférico y 25 calle, zona 7. En dirección a Colón.</description>
        <styleUrl>#icon-1899-DB4436</styleUrl>
        <Point>
          <coordinates>
            -90.536595,14.645551,0
          </coordinates>
        </Point>
      </Placemark>
      <Placemark>
        <name>Línea 7</name>
        <styleUrl>#line-BDBDBD-4000-nodesc</styleUrl>
        <LineString>
          <tessellate>1</tessellate>
          <coordinates>
            -90.507915,14.643535,0
            -90.507886,14.643772,0
            -90.508247,14.643818,0
            -90.508801,14.643892,0
            -90.509689,14.644021,0
            -90.511487,14.644287,0
            -90.512246,14.644408,0
            -90.512795,14.644514,0
            -90.512889,14.644523,0
            -90.513318,14.644585,0
            -90.515334,14.644898,0
            -90.515563,14.643128,0
            -90.515672,14.642287,0
            -90.515776,14.64157,0
            -90.516086,14.641612,0
            -90.516432,14.64167,0
            -90.516796,14.641742,0
            -90.517142,14.641797,0
            -90.51849,14.642008,0
            -90.518859,14.642063,0
            -90.519238,14.64212,0
            -90.519999,14.642237,0
            -90.521388,14.642459,0
            -90.522005,14.642552,0
            -90.522299,14.642598,0
            -90.522365,14.642623,0
            -90.522425,14.642653,0
            -90.522536,14.642721,0
            -90.522664,14.642864,0
            -90.52279,14.643046,0
            -90.523572,14.644277,0
            -90.523738,14.644473,0
            -90.523924,14.644653,0
            -90.524196,14.644865,0
            -90.524689,14.64522,0
            -90.525208,14.645625,0
            -90.525534,14.645894,0
            -90.525934,14.64625,0
            -90.526226,14.64649,0
            -90.526582,14.646751,0
            -90.52685,14.646973,0
            -90.52719,14.647254,0
            -90.527428,14.647446,0
            -90.527683,14.647636,0
            -90.528011,14.647882,0
            -90.528473,14.64825,0
            -90.528758,14.648482,0
            -90.529039,14.648705,0
            -90.529313,14.648906,0
            -90.529553,14.649032,0
            -90.529708,14.649089,0
            -90.529885,14.649132,0
            -90.530006,14.649155,0
            -90.530111,14.64916,0
            -90.530297,14.649146,0
            -90.530442,14.649119,0
            -90.530572,14.649087,0
            -90.530708,14.649048,0
            -90.530841,14.648993,0
            -90.531308,14.648776,0
            -90.531602,14.64863,0
            -90.531896,14.648498,0
            -90.532139,14.648342,0
            -90.532372,14.648105,0
            -90.532507,14.647869,0
            -90.532595,14.647601,0
            -90.532643,14.647185,0
            -90.532662,14.646936,0
            -90.532716,14.646628,0
            -90.532774,14.646419,0
            -90.532896,14.64618,0
            -90.533086,14.64595,0
            -90.533297,14.645748,0
            -90.533412,14.645679,0
            -90.533564,14.645605,0
            -90.533799,14.645528,0
            -90.534058,14.645521,0
            -90.534916,14.645622,0
            -90.535782,14.645721,0
            -90.535995,14.645745,0
            -90.536235,14.645759,0
            -90.536547,14.645757,0
            -90.537112,14.645862,0
            -90.537595,14.645922,0
            -90.53784,14.645921,0
            -90.538069,14.645894,0
            -90.538351,14.645818,0
            -90.538654,14.645685,0
            -90.539769,14.645052,0
            -90.540498,14.644628,0
            -90.541171,14.644269,0
            -90.542336,14.643673,0
            -90.542922,14.643379,0
            -90.543448,14.64313,0
            -90.543681,14.643037,0
            -90.543957,14.642932,0
            -90.544358,14.642792,0
            -90.544633,14.642699,0
            -90.54482,14.642595,0
            -90.545226,14.64237,0
            -90.545516,14.642121,0
            -90.545822,14.64184,0
            -90.546016,14.641687,0
            -90.546225,14.641547,0
            -90.546443,14.641417,0
            -90.547106,14.641053,0
            -90.54748,14.640854,0
            -90.547842,14.640656,0
            -90.548441,14.640355,0
            -90.549059,14.640034,0
            -90.549637,14.63972,0
            -90.54988,14.639542,0
            -90.550074,14.639371,0
            -90.550229,14.639202,0
            -90.550367,14.639026,0
            -90.550623,14.6386,0
            -90.551395,14.637098,0
            -90.551622,14.636665,0
            -90.551782,14.636375,0
            -90.552259,14.635505,0
            -90.552465,14.635113,0
            -90.552667,14.634719,0
            -90.553119,14.633854,0
            -90.553259,14.633598,0
            -90.553337,14.633464,0
            -90.553413,14.63331,0
            -90.55368,14.632755,0
            -90.554217,14.631724,0
            -90.55475,14.630702,0
            -90.554964,14.630246,0
            -90.555275,14.629631,0
            -90.555444,14.629305,0
            -90.555483,14.629152,0
            -90.555541,14.629002,0
            -90.555817,14.628354,0
            -90.555955,14.62808,0
            -90.556103,14.627881,0
            -90.556256,14.627757,0
            -90.556509,14.627594,0
            -90.556783,14.627413,0
            -90.55709,14.627229,0
            -90.557449,14.627014,0
            -90.557696,14.626856,0
            -90.557917,14.626704,0
            -90.55842,14.626387,0
            -90.558958,14.625998,0
            -90.559144,14.625848,0
            -90.559277,14.625672,0
            -90.559412,14.625396,0
            -90.559477,14.625252,0
            -90.559505,14.625095,0
            -90.559516,14.624954,0
            -90.559458,14.624727,0
            -90.559333,14.624455,0
            -90.558527,14.623157,0
            -90.557728,14.621673,0
            -90.557446,14.621116,0
            -90.557151,14.620562,0
            -90.556552,14.619456,0
            -90.555357,14.61715,0
            -90.555032,14.616571,0
            -90.55479,14.616137,0
            -90.554583,14.615548,0
            -90.554406,14.614973,0
            -90.554366,14.614859,0
            -90.554352,14.614788,0
            -90.554352,14.614717,0
            -90.554342,14.614441,0
            -90.554334,14.614033,0
            -90.554499,14.613221,0
            -90.554631,14.612738,0
            -90.554779,14.612392,0
            -90.555168,14.611721,0
            -90.555582,14.611099,0
            -90.555895,14.610682,0
            -90.556139,14.610332,0
            -90.556938,14.609182,0
            -90.557748,14.60809,0
            -90.558038,14.60769,0
            -90.558286,14.607308,0
            -90.55873,14.606675,0
            -90.559555,14.605501,0
            -90.560293,14.604428,0
            -90.560833,14.603696,0
            -90.561033,14.603403,0
            -90.561514,14.602717,0
            -90.561631,14.602513,0
            -90.561729,14.60229,0
            -90.56176,14.602202,0
            -90.561787,14.60207,0
            -90.561806,14.601842,0
            -90.561807,14.601752,0
            -90.561798,14.601661,0
            -90.561788,14.60157,0
            -90.561769,14.601481,0
            -90.561748,14.601398,0
            -90.561719,14.601321,0
            -90.561651,14.601165,0
            -90.56153,14.600984,0
            -90.561461,14.600901,0
            -90.561388,14.60082,0
            -90.561331,14.600765,0
            -90.561196,14.600661,0
            -90.56105,14.600572,0
            -90.560078,14.599971,0
            -90.559577,14.59968,0
            -90.559345,14.599545,0
            -90.559099,14.599387,0
            -90.55876,14.599174,0
            -90.558419,14.598973,0
            -90.557737,14.598565,0
            -90.556946,14.598087,0
            -90.556393,14.597737,0
            -90.555876,14.597422,0
            -90.555353,14.597113,0
            -90.555232,14.597038,0
            -90.555116,14.596949,0
            -90.554858,14.596751,0
            -90.554445,14.596439,0
            -90.554151,14.596221,0
            -90.554112,14.596193,0
            -90.554064,14.596144,0
            -90.553941,14.596004,0
            -90.553803,14.595859,0
            -90.553711,14.595777,0
            -90.553191,14.595363,0
            -90.55285,14.595021,0
            -90.552552,14.594733,0
            -90.552326,14.594512,0
            -90.552247,14.594446,0
            -90.552028,14.594272,0
            -90.551881,14.594196,0
            -90.551743,14.594111,0
            -90.551609,14.59401,0
            -90.551532,14.593949,0
            -90.551404,14.593833,0
            -90.551196,14.59364,0
            -90.550919,14.593402,0
            -90.55067,14.593221,0
            -90.550538,14.593143,0
            -90.550433,14.593111,0
            -90.550293,14.593102,0
            -90.550265,14.593107,0
            -90.550199,14.593181,0
            -90.550217,14.593191,0
            -90.550315,14.593194,0
            -90.550398,14.593224,0
            -90.550744,14.59347,0
            -90.55112,14.593727,0
            -90.551238,14.593823,0
            -90.551353,14.593916,0
            -90.551583,14.5941,0
            -90.551804,14.594249,0
            -90.552022,14.5944,0
            -90.552225,14.59457,0
            -90.552424,14.594745,0
            -90.552819,14.595101,0
            -90.552956,14.595218,0
            -90.553086,14.595343,0
            -90.553221,14.595463,0
            -90.553287,14.595529,0
            -90.553353,14.595592,0
            -90.553859,14.5961,0
            -90.553987,14.596215,0
            -90.554129,14.596328,0
            -90.554277,14.596437,0
            -90.554419,14.596548,0
            -90.555118,14.597066,0
            -90.555804,14.59747,0
            -90.55659,14.59796,0
            -90.557046,14.598242,0
            -90.557238,14.598362,0
            -90.557494,14.598529,0
            -90.557936,14.598824,0
            -90.558164,14.598976,0
            -90.55828,14.599044,0
            -90.558393,14.599111,0
            -90.559349,14.599687,0
            -90.559758,14.599885,0
            -90.560227,14.60016,0
            -90.560809,14.600497,0
            -90.561112,14.600716,0
            -90.561246,14.600815,0
            -90.56134,14.600913,0
            -90.561413,14.600991,0
            -90.561482,14.601076,0
            -90.561543,14.601166,0
            -90.561585,14.601231,0
            -90.561598,14.601261,0
            -90.561639,14.601353,0
            -90.561673,14.601449,0
            -90.561691,14.601531,0
            -90.561707,14.601646,0
            -90.561716,14.601772,0
            -90.561716,14.601899,0
            -90.561703,14.602025,0
            -90.561675,14.602148,0
            -90.561656,14.60222,0
            -90.561617,14.602312,0
            -90.561542,14.602444,0
            -90.561417,14.602629,0
            -90.561274,14.602805,0
            -90.56116,14.602968,0
            -90.561048,14.603138,0
            -90.560848,14.603454,0
            -90.560357,14.604157,0
            -90.55941,14.605491,0
            -90.558849,14.606259,0
            -90.5583,14.607038,0
            -90.55771,14.607875,0
            -90.55735,14.608376,0
            -90.55698,14.608872,0
            -90.556573,14.609487,0
            -90.556334,14.609831,0
            -90.556089,14.610159,0
            -90.555722,14.610654,0
            -90.555559,14.610896,0
            -90.555359,14.611193,0
            -90.555061,14.61165,0
            -90.554774,14.612115,0
            -90.554657,14.612323,0
            -90.554583,14.612488,0
            -90.554413,14.61294,0
            -90.554299,14.613444,0
            -90.554206,14.61401,0
            -90.55424,14.614539,0
            -90.554283,14.61514,0
            -90.554483,14.615824,0
            -90.554707,14.616254,0
            -90.554841,14.616516,0
            -90.554976,14.616765,0
            -90.555102,14.617015,0
            -90.555239,14.617281,0
            -90.556455,14.619611,0
            -90.557084,14.62078,0
            -90.557408,14.621366,0
            -90.557686,14.621928,0
            -90.55783,14.622223,0
            -90.558369,14.623195,0
            -90.558761,14.62381,0
            -90.559248,14.624548,0
            -90.559324,14.6247,0
            -90.559394,14.624906,0
            -90.559387,14.625157,0
            -90.55936,14.625278,0
            -90.559319,14.625379,0
            -90.559171,14.625625,0
            -90.55903,14.625799,0
            -90.558938,14.625881,0
            -90.55848,14.626172,0
            -90.55814,14.626405,0
            -90.557467,14.626865,0
            -90.557234,14.627013,0
            -90.557016,14.627172,0
            -90.556777,14.627343,0
            -90.556533,14.627446,0
            -90.556266,14.627612,0
            -90.556106,14.627726,0
            -90.555983,14.627866,0
            -90.555833,14.628043,0
            -90.555752,14.628244,0
            -90.555649,14.628427,0
            -90.55546,14.628921,0
            -90.55528,14.629312,0
            -90.554677,14.630476,0
            -90.55439,14.631032,0
            -90.554221,14.631384,0
            -90.554151,14.631532,0
            -90.55388,14.632114,0
            -90.553751,14.63239,0
            -90.553622,14.632645,0
            -90.553049,14.633763,0
            -90.55218,14.635378,0
            -90.55171,14.636236,0
            -90.551456,14.636691,0
            -90.551254,14.637087,0
            -90.55049,14.638599,0
            -90.55023,14.638995,0
            -90.550066,14.639206,0
            -90.549874,14.639396,0
            -90.549698,14.63953,0
            -90.549358,14.639736,0
            -90.548686,14.640099,0
            -90.547062,14.640982,0
            -90.546654,14.6412,0
            -90.546232,14.641409,0
            -90.545891,14.641636,0
            -90.545144,14.642236,0
            -90.544885,14.64242,0
            -90.544719,14.642505,0
            -90.544527,14.642583,0
            -90.544358,14.642646,0
            -90.544215,14.642701,0
            -90.544054,14.642749,0
            -90.543804,14.64282,0
            -90.543607,14.642886,0
            -90.543323,14.642996,0
            -90.541778,14.643763,0
            -90.54081,14.644268,0
            -90.540212,14.644639,0
            -90.539386,14.645129,0
            -90.53882,14.645469,0
            -90.538391,14.645603,0
            -90.537932,14.645729,0
            -90.537715,14.64573,0
            -90.537514,14.64569,0
            -90.536961,14.645661,0
            -90.535341,14.645503,0
            -90.534916,14.645438,0
            -90.534477,14.645415,0
            -90.534047,14.645407,0
            -90.533799,14.645425,0
            -90.533581,14.645474,0
            -90.533379,14.64556,0
            -90.533191,14.645664,0
            -90.533059,14.645765,0
            -90.532954,14.645861,0
            -90.532754,14.646109,0
            -90.532673,14.646285,0
            -90.532613,14.646471,0
            -90.532521,14.646974,0
            -90.532471,14.647525,0
            -90.532356,14.647868,0
            -90.532232,14.648075,0
            -90.532012,14.648252,0
            -90.531728,14.64843,0
            -90.531378,14.648615,0
            -90.531087,14.648743,0
            -90.530559,14.648974,0
            -90.530456,14.649006,0
            -90.530339,14.649023,0
            -90.530166,14.649035,0
            -90.529864,14.649012,0
            -90.529724,14.648971,0
            -90.529598,14.648923,0
            -90.529491,14.648857,0
            -90.529317,14.648766,0
            -90.529077,14.648583,0
            -90.528224,14.647916,0
            -90.527808,14.647585,0
            -90.527361,14.647235,0
            -90.526093,14.646236,0
            -90.525788,14.646023,0
            -90.52539,14.645679,0
            -90.525002,14.645373,0
            -90.524738,14.64517,0
            -90.52432,14.644835,0
            -90.523962,14.644549,0
            -90.523806,14.6444,0
            -90.523604,14.644165,0
            -90.523282,14.643664,0
            -90.522946,14.643141,0
            -90.52271,14.642753,0
            -90.522645,14.642537,0
            -90.52259,14.642221,0
            -90.522526,14.641954,0
            -90.522471,14.641848,0
            -90.522435,14.64179,0
            -90.522386,14.641754,0
            -90.522282,14.641701,0
            -90.522178,14.641659,0
            -90.521728,14.641589,0
            -90.519543,14.641278,0
            -90.517235,14.640926,0
            -90.512843,14.640251,0
            -90.510642,14.639908,0
            -90.509541,14.639732,0
            -90.508446,14.639532,0
            -90.508248,14.640939,0
            -90.508232,14.641244,0
            -90.508063,14.64239,0
            -90.507915,14.643535,0
          </coordinates>
        </LineString>
      </Placemark>
    </Folder>
  </Document>
</kml>
