<?xml version="1.0" encoding="UTF-8"?>
<kml xmlns="http://www.opengis.net/kml/2.2">
  <Document>
    <name>TuBus operado por Transmetro - Ruta 5</name>
    <description>Parque Colón Z.1 / Puente de la Penitenciaría Z.4</description>
    <Style id="icon-1899-DB4436-nodesc-normal">
      <IconStyle>
        <color>ff3644db</color>
        <scale>1</scale>
        <Icon>
          <href>https://www.gstatic.com/mapspro/images/stock/503-wht-blank_maps.png</href>
        </Icon>
        <hotSpot x="32" xunits="pixels" y="64" yunits="insetPixels"/>
      </IconStyle>
      <LabelStyle>
        <scale>0</scale>
      </LabelStyle>
      <BalloonStyle>
        <text><![CDATA[<h3>$[name]</h3>]]></text>
      </BalloonStyle>
    </Style>
    <Style id="icon-1899-DB4436-nodesc-highlight">
      <IconStyle>
        <color>ff3644db</color>
        <scale>1</scale>
        <Icon>
          <href>https://www.gstatic.com/mapspro/images/stock/503-wht-blank_maps.png</href>
        </Icon>
        <hotSpot x="32" xunits="pixels" y="64" yunits="insetPixels"/>
      </IconStyle>
      <LabelStyle>
        <scale>1</scale>
      </LabelStyle>
      <BalloonStyle>
        <text><![CDATA[<h3>$[name]</h3>]]></text>
      </BalloonStyle>
    </Style>
    <StyleMap id="icon-1899-DB4436-nodesc">
      <Pair>
        <key>normal</key>
        <styleUrl>#icon-1899-DB4436-nodesc-normal</styleUrl>
      </Pair>
      <Pair>
        <key>highlight</key>
        <styleUrl>#icon-1899-DB4436-nodesc-highlight</styleUrl>
      </Pair>
    </StyleMap>
    <Style id="line-002E8C-2744-nodesc-normal">
      <LineStyle>
        <color>ff8c2e00</color>
        <width>2.744</width>
      </LineStyle>
      <BalloonStyle>
        <text><![CDATA[<h3>$[name]</h3>]]></text>
      </BalloonStyle>
    </Style>
    <Style id="line-002E8C-2744-nodesc-highlight">
      <LineStyle>
        <color>ff8c2e00</color>
        <width>4.116</width>
      </LineStyle>
      <BalloonStyle>
        <text><![CDATA[<h3>$[name]</h3>]]></text>
      </BalloonStyle>
    </Style>
    <StyleMap id="line-002E8C-2744-nodesc">
      <Pair>
        <key>normal</key>
        <styleUrl>#line-002E8C-2744-nodesc-normal</styleUrl>
      </Pair>
      <Pair>
        <key>highlight</key>
        <styleUrl>#line-002E8C-2744-nodesc-highlight</styleUrl>
      </Pair>
    </StyleMap>
    <Folder>
      <name>RUTA 5</name>
      <Placemark>
        <name>Estación Palacio de los Deportes Norte</name>
        <styleUrl>#icon-1899-DB4436-nodesc</styleUrl>
        <Point>
          <coordinates>
            -90.512888,14.622884,0
          </coordinates>
        </Point>
      </Placemark>
      <Placemark>
        <name>Estación La Palmita </name>
        <styleUrl>#icon-1899-DB4436-nodesc</styleUrl>
        <Point>
          <coordinates>
            -90.505708,14.621709,0
          </coordinates>
        </Point>
      </Placemark>
      <Placemark>
        <name>Estacion Parque Navidad</name>
        <styleUrl>#icon-1899-DB4436-nodesc</styleUrl>
        <Point>
          <coordinates>
            -90.501337,14.624694,0
          </coordinates>
        </Point>
      </Placemark>
      <Placemark>
        <name>Estación Arrivillaga</name>
        <styleUrl>#icon-1899-DB4436-nodesc</styleUrl>
        <Point>
          <coordinates>
            -90.495695,14.626814,0
          </coordinates>
        </Point>
      </Placemark>
      <Placemark>
        <name>Estacion Cipreses Norte</name>
        <styleUrl>#icon-1899-DB4436-nodesc</styleUrl>
        <Point>
          <coordinates>
            -90.4932092,14.6361734,0
          </coordinates>
        </Point>
      </Placemark>
      <Placemark>
        <name>Estacion Mercado La Palmita </name>
        <styleUrl>#icon-1899-DB4436-nodesc</styleUrl>
        <Point>
          <coordinates>
            -90.506793,14.622502,0
          </coordinates>
        </Point>
      </Placemark>
      <Placemark>
        <name>Estación Palacio de los Deportes Sur</name>
        <styleUrl>#icon-1899-DB4436-nodesc</styleUrl>
        <Point>
          <coordinates>
            -90.512408,14.622983,0
          </coordinates>
        </Point>
      </Placemark>
      <Placemark>
        <name>Estacion Parque Colon</name>
        <styleUrl>#icon-1899-DB4436-nodesc</styleUrl>
        <Point>
          <coordinates>
            -90.507199,14.639506,0
          </coordinates>
        </Point>
      </Placemark>
      <Placemark>
        <name>Estación Vivibien</name>
        <styleUrl>#icon-1899-DB4436-nodesc</styleUrl>
        <Point>
          <coordinates>
            -90.499584,14.624372,0
          </coordinates>
        </Point>
      </Placemark>
      <Placemark>
        <name>Estación Matamoros </name>
        <styleUrl>#icon-1899-DB4436-nodesc</styleUrl>
        <Point>
          <coordinates>
            -90.5037943,14.6404764,0
          </coordinates>
        </Point>
      </Placemark>
      <Placemark>
        <name>Estación Jardines de la Asunción Sur</name>
        <styleUrl>#icon-1899-DB4436-nodesc</styleUrl>
        <Point>
          <coordinates>
            -90.494629,14.632392,0
          </coordinates>
        </Point>
      </Placemark>
      <Placemark>
        <name>Estación Jardines de la Asunción Norte</name>
        <styleUrl>#icon-1899-DB4436-nodesc</styleUrl>
        <Point>
          <coordinates>
            -90.4942283,14.633008,0
          </coordinates>
        </Point>
      </Placemark>
      <Placemark>
        <name>Estación Puente de la Penitenciaría</name>
        <styleUrl>#icon-1899-DB4436-nodesc</styleUrl>
        <Point>
          <coordinates>
            -90.51506,14.624905,0
          </coordinates>
        </Point>
      </Placemark>
      <Placemark>
        <name>Estacion Cipreses Sur</name>
        <styleUrl>#icon-1899-DB4436-nodesc</styleUrl>
        <Point>
          <coordinates>
            -90.493313,14.6354168,0
          </coordinates>
        </Point>
      </Placemark>
      <Placemark>
        <name>Ruta 5</name>
        <styleUrl>#line-002E8C-2744-nodesc</styleUrl>
        <LineString>
          <tessellate>1</tessellate>
          <coordinates>
            -90.5072321,14.6393547,0
            -90.505949,14.639136,0
            -90.505734,14.640857,0
            -90.505481,14.640838,0
            -90.504658,14.640693,0
            -90.504488,14.640653,0
            -90.504162,14.640542,0
            -90.503753,14.640358,0
            -90.503265,14.640108,0
            -90.502553,14.639791,0
            -90.502032,14.639666,0
            -90.501562,14.639657,0
            -90.50118,14.639694,0
            -90.500592,14.639737,0
            -90.500234,14.639763,0
            -90.500004,14.639714,0
            -90.49986,14.639638,0
            -90.499674,14.639488,0
            -90.499308,14.639199,0
            -90.49897,14.638941,0
            -90.49867,14.638732,0
            -90.498498,14.638638,0
            -90.498332,14.638597,0
            -90.498084,14.638565,0
            -90.49761,14.638559,0
            -90.497296,14.63855,0
            -90.49703,14.638539,0
            -90.496781,14.638482,0
            -90.496581,14.638409,0
            -90.496244,14.638203,0
            -90.495843,14.637987,0
            -90.495531,14.637802,0
            -90.494708,14.63736,0
            -90.494059,14.636972,0
            -90.493802,14.636805,0
            -90.49352,14.63655,0
            -90.493311,14.636014,0
            -90.493229,14.635721,0
            -90.493199,14.635421,0
            -90.493301,14.635023,0
            -90.493446,14.634684,0
            -90.494227,14.633226,0
            -90.494833,14.63222,0
            -90.495007,14.631731,0
            -90.495062,14.631377,0
            -90.495049,14.631033,0
            -90.494906,14.630723,0
            -90.494705,14.630357,0
            -90.494016,14.629206,0
            -90.493887,14.628888,0
            -90.493849,14.628694,0
            -90.493875,14.628501,0
            -90.493945,14.628296,0
            -90.494032,14.628112,0
            -90.494114,14.627992,0
            -90.495017,14.627283,0
            -90.495435,14.626974,0
            -90.496137,14.626631,0
            -90.496562,14.626409,0
            -90.498021,14.625306,0
            -90.498996,14.624605,0
            -90.49926,14.624432,0
            -90.499666,14.62424,0
            -90.499849,14.624156,0
            -90.500066,14.624041,0
            -90.500528,14.623757,0
            -90.501543,14.623062,0
            -90.501711,14.622866,0
            -90.502258,14.621871,0
            -90.502308,14.621849,0
            -90.5025,14.62184,0
            -90.502815,14.621854,0
            -90.503192,14.62197,0
            -90.503413,14.622018,0
            -90.503654,14.62205,0
            -90.504064,14.622118,0
            -90.505559,14.622308,0
            -90.506818,14.62248,0
            -90.507967,14.62262,0
            -90.509084,14.622796,0
            -90.509383,14.622838,0
            -90.510104,14.622803,0
            -90.51061,14.622764,0
            -90.511248,14.622788,0
            -90.512052,14.622882,0
            -90.513112,14.623021,0
            -90.514038,14.623153,0
            -90.514559,14.623216,0
            -90.514837,14.623247,0
            -90.51521,14.623315,0
            -90.515742,14.623582,0
            -90.516184,14.623833,0
            -90.516227,14.623879,0
            -90.516198,14.623927,0
            -90.514878,14.624896,0
            -90.514666,14.62632,0
            -90.516038,14.626482,0
            -90.516233,14.624969,0
            -90.516369,14.623914,0
            -90.516299,14.623792,0
            -90.515803,14.623491,0
            -90.515489,14.62334,0
            -90.515153,14.62322,0
            -90.514722,14.623166,0
            -90.514236,14.62311,0
            -90.513624,14.623028,0
            -90.512761,14.62291,0
            -90.511936,14.622809,0
            -90.511241,14.622691,0
            -90.511138,14.622566,0
            -90.511001,14.622354,0
            -90.510869,14.622231,0
            -90.510694,14.622133,0
            -90.510085,14.621932,0
            -90.509648,14.621797,0
            -90.509171,14.621738,0
            -90.508678,14.621687,0
            -90.507846,14.621639,0
            -90.50602,14.621681,0
            -90.504845,14.621701,0
            -90.503562,14.62177,0
            -90.503469,14.621784,0
            -90.503403,14.621825,0
            -90.503364,14.62196,0
            -90.503326,14.622091,0
            -90.503208,14.622948,0
            -90.503055,14.624048,0
            -90.502945,14.624819,0
            -90.502917,14.62492,0
            -90.502748,14.624891,0
            -90.50194,14.624775,0
            -90.49993,14.624497,0
            -90.499387,14.624434,0
            -90.499161,14.624382,0
            -90.498991,14.624432,0
            -90.49866,14.624644,0
            -90.498217,14.624977,0
            -90.497368,14.625626,0
            -90.496557,14.626272,0
            -90.496359,14.626385,0
            -90.495767,14.626672,0
            -90.495253,14.626923,0
            -90.494622,14.627372,0
            -90.494038,14.627842,0
            -90.49384,14.628021,0
            -90.493736,14.628228,0
            -90.493686,14.628472,0
            -90.49365,14.628717,0
            -90.493671,14.628924,0
            -90.493774,14.629156,0
            -90.493987,14.629534,0
            -90.494528,14.630421,0
            -90.494775,14.63092,0
            -90.494866,14.631231,0
            -90.49488,14.631548,0
            -90.494786,14.63182,0
            -90.494654,14.632119,0
            -90.49329,14.634558,0
            -90.493139,14.63486,0
            -90.493051,14.635209,0
            -90.493026,14.635496,0
            -90.493042,14.635789,0
            -90.493106,14.636011,0
            -90.49328,14.636367,0
            -90.493458,14.636606,0
            -90.493765,14.636859,0
            -90.494141,14.637107,0
            -90.494468,14.637283,0
            -90.494822,14.637479,0
            -90.495469,14.637851,0
            -90.495821,14.638064,0
            -90.496205,14.638295,0
            -90.496557,14.638493,0
            -90.496778,14.63858,0
            -90.497055,14.638616,0
            -90.497324,14.638637,0
            -90.497622,14.638655,0
            -90.498096,14.63866,0
            -90.498341,14.638716,0
            -90.498524,14.638778,0
            -90.4987,14.638878,0
            -90.499014,14.639092,0
            -90.499483,14.63947,0
            -90.4998,14.639713,0
            -90.499966,14.639799,0
            -90.500213,14.639854,0
            -90.500474,14.639843,0
            -90.500788,14.639805,0
            -90.501165,14.639768,0
            -90.501633,14.639732,0
            -90.502028,14.639752,0
            -90.502525,14.63985,0
            -90.503231,14.640182,0
            -90.503692,14.640413,0
            -90.503952,14.640548,0
            -90.504286,14.640664,0
            -90.504558,14.640755,0
            -90.504851,14.6408,0
            -90.50514,14.640832,0
            -90.50524,14.640002,0
            -90.505437,14.640027,0
            -90.505843,14.640085,0
            -90.507131,14.640257,0
            -90.507227,14.639359,0
          </coordinates>
        </LineString>
      </Placemark>
    </Folder>
  </Document>
</kml>
