<?xml version="1.0" encoding="UTF-8"?>
<kml xmlns="http://www.opengis.net/kml/2.2">
  <Document>
    <name>RUTA 802 - Sistema TuBus</name>
    <description>Parque Los Pinos, Z. 7 / 4a avenida y 19 calle, Z. 1</description>
    <Style id="icon-1899-DB4436-normal">
      <IconStyle>
        <color>ff3644db</color>
        <scale>1</scale>
        <Icon>
          <href>https://www.gstatic.com/mapspro/images/stock/503-wht-blank_maps.png</href>
        </Icon>
        <hotSpot x="32" xunits="pixels" y="64" yunits="insetPixels"/>
      </IconStyle>
      <LabelStyle>
        <scale>0</scale>
      </LabelStyle>
    </Style>
    <Style id="icon-1899-DB4436-highlight">
      <IconStyle>
        <color>ff3644db</color>
        <scale>1</scale>
        <Icon>
          <href>https://www.gstatic.com/mapspro/images/stock/503-wht-blank_maps.png</href>
        </Icon>
        <hotSpot x="32" xunits="pixels" y="64" yunits="insetPixels"/>
      </IconStyle>
      <LabelStyle>
        <scale>1</scale>
      </LabelStyle>
    </Style>
    <StyleMap id="icon-1899-DB4436">
      <Pair>
        <key>normal</key>
        <styleUrl>#icon-1899-DB4436-normal</styleUrl>
      </Pair>
      <Pair>
        <key>highlight</key>
        <styleUrl>#icon-1899-DB4436-highlight</styleUrl>
      </Pair>
    </StyleMap>
    <Style id="icon-1899-DB4436-nodesc-normal">
      <IconStyle>
        <color>ff3644db</color>
        <scale>1</scale>
        <Icon>
          <href>https://www.gstatic.com/mapspro/images/stock/503-wht-blank_maps.png</href>
        </Icon>
        <hotSpot x="32" xunits="pixels" y="64" yunits="insetPixels"/>
      </IconStyle>
      <LabelStyle>
        <scale>0</scale>
      </LabelStyle>
      <BalloonStyle>
        <text><![CDATA[<h3>$[name]</h3>]]></text>
      </BalloonStyle>
    </Style>
    <Style id="icon-1899-DB4436-nodesc-highlight">
      <IconStyle>
        <color>ff3644db</color>
        <scale>1</scale>
        <Icon>
          <href>https://www.gstatic.com/mapspro/images/stock/503-wht-blank_maps.png</href>
        </Icon>
        <hotSpot x="32" xunits="pixels" y="64" yunits="insetPixels"/>
      </IconStyle>
      <LabelStyle>
        <scale>1</scale>
      </LabelStyle>
      <BalloonStyle>
        <text><![CDATA[<h3>$[name]</h3>]]></text>
      </BalloonStyle>
    </Style>
    <StyleMap id="icon-1899-DB4436-nodesc">
      <Pair>
        <key>normal</key>
        <styleUrl>#icon-1899-DB4436-nodesc-normal</styleUrl>
      </Pair>
      <Pair>
        <key>highlight</key>
        <styleUrl>#icon-1899-DB4436-nodesc-highlight</styleUrl>
      </Pair>
    </StyleMap>
    <Style id="line-0F9D58-2000-nodesc-normal">
      <LineStyle>
        <color>ff589d0f</color>
        <width>2</width>
      </LineStyle>
      <BalloonStyle>
        <text><![CDATA[<h3>$[name]</h3>]]></text>
      </BalloonStyle>
    </Style>
    <Style id="line-0F9D58-2000-nodesc-highlight">
      <LineStyle>
        <color>ff589d0f</color>
        <width>3</width>
      </LineStyle>
      <BalloonStyle>
        <text><![CDATA[<h3>$[name]</h3>]]></text>
      </BalloonStyle>
    </Style>
    <StyleMap id="line-0F9D58-2000-nodesc">
      <Pair>
        <key>normal</key>
        <styleUrl>#line-0F9D58-2000-nodesc-normal</styleUrl>
      </Pair>
      <Pair>
        <key>highlight</key>
        <styleUrl>#line-0F9D58-2000-nodesc-highlight</styleUrl>
      </Pair>
    </StyleMap>
    <Style id="line-0F9D58-3000-nodesc-normal">
      <LineStyle>
        <color>ff589d0f</color>
        <width>3</width>
      </LineStyle>
      <BalloonStyle>
        <text><![CDATA[<h3>$[name]</h3>]]></text>
      </BalloonStyle>
    </Style>
    <Style id="line-0F9D58-3000-nodesc-highlight">
      <LineStyle>
        <color>ff589d0f</color>
        <width>4.5</width>
      </LineStyle>
      <BalloonStyle>
        <text><![CDATA[<h3>$[name]</h3>]]></text>
      </BalloonStyle>
    </Style>
    <StyleMap id="line-0F9D58-3000-nodesc">
      <Pair>
        <key>normal</key>
        <styleUrl>#line-0F9D58-3000-nodesc-normal</styleUrl>
      </Pair>
      <Pair>
        <key>highlight</key>
        <styleUrl>#line-0F9D58-3000-nodesc-highlight</styleUrl>
      </Pair>
    </StyleMap>
    <Style id="line-1A237E-3000-nodesc-normal">
      <LineStyle>
        <color>ff7e231a</color>
        <width>3</width>
      </LineStyle>
      <BalloonStyle>
        <text><![CDATA[<h3>$[name]</h3>]]></text>
      </BalloonStyle>
    </Style>
    <Style id="line-1A237E-3000-nodesc-highlight">
      <LineStyle>
        <color>ff7e231a</color>
        <width>4.5</width>
      </LineStyle>
      <BalloonStyle>
        <text><![CDATA[<h3>$[name]</h3>]]></text>
      </BalloonStyle>
    </Style>
    <StyleMap id="line-1A237E-3000-nodesc">
      <Pair>
        <key>normal</key>
        <styleUrl>#line-1A237E-3000-nodesc-normal</styleUrl>
      </Pair>
      <Pair>
        <key>highlight</key>
        <styleUrl>#line-1A237E-3000-nodesc-highlight</styleUrl>
      </Pair>
    </StyleMap>
    <Style id="line-1A237E-3713-normal">
      <LineStyle>
        <color>ff7e231a</color>
        <width>3.713</width>
      </LineStyle>
    </Style>
    <Style id="line-1A237E-3713-highlight">
      <LineStyle>
        <color>ff7e231a</color>
        <width>5.5695</width>
      </LineStyle>
    </Style>
    <StyleMap id="line-1A237E-3713">
      <Pair>
        <key>normal</key>
        <styleUrl>#line-1A237E-3713-normal</styleUrl>
      </Pair>
      <Pair>
        <key>highlight</key>
        <styleUrl>#line-1A237E-3713-highlight</styleUrl>
      </Pair>
    </StyleMap>
    <Style id="line-1A237E-4000-normal">
      <LineStyle>
        <color>ff7e231a</color>
        <width>4</width>
      </LineStyle>
    </Style>
    <Style id="line-1A237E-4000-highlight">
      <LineStyle>
        <color>ff7e231a</color>
        <width>6</width>
      </LineStyle>
    </Style>
    <StyleMap id="line-1A237E-4000">
      <Pair>
        <key>normal</key>
        <styleUrl>#line-1A237E-4000-normal</styleUrl>
      </Pair>
      <Pair>
        <key>highlight</key>
        <styleUrl>#line-1A237E-4000-highlight</styleUrl>
      </Pair>
    </StyleMap>
    <Folder>
      <name>Paradas Ruta 802</name>
      <Placemark>
        <name>Parada #063 / Parque Los Pinos</name>
        <description>33 avenida y 39 calle, Colonia El Amparo I, zona 7. Parada con dos o más rutas: 801 y 802.</description>
        <styleUrl>#icon-1899-DB4436</styleUrl>
        <Point>
          <coordinates>
            -90.528477,14.659797,0
          </coordinates>
        </Point>
      </Placemark>
      <Placemark>
        <name>Parada #064 / Col. Sakerty I</name>
        <description>33 avenida y 36 calle, Colonia Sakerty I, zona 7. Parada con dos o más rutas: 801 y 802.</description>
        <styleUrl>#icon-1899-DB4436</styleUrl>
        <Point>
          <coordinates>
            -90.529952,14.657044,0
          </coordinates>
        </Point>
      </Placemark>
      <Placemark>
        <name>Parada #065 / Col. Sakerty II</name>
        <description><![CDATA[33 avenida y 35 calle "A", zona 7. Parada con dos o más rutas: 801 y 802.]]></description>
        <styleUrl>#icon-1899-DB4436</styleUrl>
        <Point>
          <coordinates>
            -90.531066,14.654922,0
          </coordinates>
        </Point>
      </Placemark>
      <Placemark>
        <name>Parada #066 / Col. Banvi I</name>
        <description><![CDATA[33 avenida y 33 calle "A", Colonia Banvi I, frente al Parque Tecún Umán, zona 7. Parada con dos o más rutas: 801 y 802.]]></description>
        <styleUrl>#icon-1899-DB4436</styleUrl>
        <Point>
          <coordinates>
            -90.533101,14.651214,0
          </coordinates>
        </Point>
      </Placemark>
      <Placemark>
        <name>Parada #067 / Col. Bethania</name>
        <description>33 avenida y 31 calle, Colonia Bethania, zona 7. Parada con dos o más rutas: 801 y 802.</description>
        <styleUrl>#icon-1899-DB4436</styleUrl>
        <Point>
          <coordinates>
            -90.534145,14.649813,0
          </coordinates>
        </Point>
      </Placemark>
      <Placemark>
        <name>Parada #068 / Col. Bethania</name>
        <description>33 avenida y 26 calle, Colonia Bethania, zona 7. Parada con dos o más rutas: 801 y 802.</description>
        <styleUrl>#icon-1899-DB4436</styleUrl>
        <Point>
          <coordinates>
            -90.535628,14.64777,0
          </coordinates>
        </Point>
      </Placemark>
      <Placemark>
        <name>Parada #110 / Anillo Periférico norte</name>
        <description><![CDATA[Anillo Periférico norte y 29 avenida "D", zona 7. Cercanía con Transmetro a ±1 minutos caminando: Estación Bethania en dirección a La Merced de Línea 7.]]></description>
        <styleUrl>#icon-1899-DB4436</styleUrl>
        <Point>
          <coordinates>
            -90.536389,14.645513,0
          </coordinates>
        </Point>
      </Placemark>
      <Placemark>
        <name>Parada #111 / Anillo Periférico norte</name>
        <description>Anillo Periférico norte, pasarela Subestación Eléctrica Incienso, zona 7. Cercanía con Transmetro a ±0 minutos caminando: Estación Incienso en dirección a La Merced de Línea 7.</description>
        <styleUrl>#icon-1899-DB4436</styleUrl>
        <Point>
          <coordinates>
            -90.53079,14.648802,0
          </coordinates>
        </Point>
      </Placemark>
      <Placemark>
        <name>Parada #112 / Anillo Periférico norte</name>
        <description>Anillo Periférico norte, puente El Incienso, zona 7.</description>
        <styleUrl>#icon-1899-DB4436</styleUrl>
        <Point>
          <coordinates>
            -90.529282,14.648647,0
          </coordinates>
        </Point>
      </Placemark>
      <Placemark>
        <name>Parada #113 / Anillo Periférico norte</name>
        <description>Anillo Periférico norte y 5ª calle, zona 3.</description>
        <styleUrl>#icon-1899-DB4436</styleUrl>
        <Point>
          <coordinates>
            -90.525071,14.64489,0
          </coordinates>
        </Point>
      </Placemark>
      <Placemark>
        <name>Parada #114 / Barrio Recolección</name>
        <description><![CDATA[1ª calle y Avenida Elena "B", Barrio Recolección, zona 1.]]></description>
        <styleUrl>#icon-1899-DB4436</styleUrl>
        <Point>
          <coordinates>
            -90.519209,14.649127,0
          </coordinates>
        </Point>
      </Placemark>
      <Placemark>
        <name>Parada #115 / Barrio Recolección</name>
        <description>1ª calle y 3ª avenida, Barrio Recolección, zona 1.</description>
        <styleUrl>#icon-1899-DB4436</styleUrl>
        <Point>
          <coordinates>
            -90.516348,14.648726,0
          </coordinates>
        </Point>
      </Placemark>
      <Placemark>
        <name>Parada #116 / Barrio Recolección</name>
        <description>4ª avenida y 2ª calle, Barrio Recolección, zona 1. Cercanía con Transmetro a ±4 minutos caminando: Estación San Sebastián de Línea 1.</description>
        <styleUrl>#icon-1899-DB4436</styleUrl>
        <Point>
          <coordinates>
            -90.51502,14.647346,0
          </coordinates>
        </Point>
      </Placemark>
      <Placemark>
        <name>Parada #117 / Barrio Recolección</name>
        <description>4ª avenida y 5ª calle, Barrio Recolección, zona 1. Cercanía con Transmetro a ±4 minutos caminando: Estación Parque Centenario de Línea 1.</description>
        <styleUrl>#icon-1899-DB4436</styleUrl>
        <Point>
          <coordinates>
            -90.515504,14.643776,0
          </coordinates>
        </Point>
      </Placemark>
      <Placemark>
        <name>Parada #118 / 4ª Avenida</name>
        <description><![CDATA[4ª avenida y 9ª calle "A", zona 1. Cercanía con Transmetro a ±2 minutos caminando: Estación Archivo General de Línea 7.]]></description>
        <styleUrl>#icon-1899-DB4436</styleUrl>
        <Point>
          <coordinates>
            -90.515928,14.64083,0
          </coordinates>
        </Point>
      </Placemark>
      <Placemark>
        <name>Parada #119 / 4ª Avenida</name>
        <description>4ª avenida y 11 calle, zona 1. Cercanía con Transmetro a ±2 minutos caminando: Estación San Agustín de Línea 1.</description>
        <styleUrl>#icon-1899-DB4436</styleUrl>
        <Point>
          <coordinates>
            -90.516224,14.638553,0
          </coordinates>
        </Point>
      </Placemark>
      <Placemark>
        <name>Parada #120 / 4ª Avenida</name>
        <description>4ª avenida y 15 calle, zona 1. Cercanía con Transmetro a ±2 minutos caminando: Estación Gómez Carrillo de Línea 1.</description>
        <styleUrl>#icon-1899-DB4436</styleUrl>
        <Point>
          <coordinates>
            -90.516864,14.634046,0
          </coordinates>
        </Point>
      </Placemark>
      <Placemark>
        <name>Parada #121 / 4ª Avenida</name>
        <description>4ª avenida y 19 calle, zona 1. Cercanía con Transmetro a ±1 minutos caminando: Estación Plaza El Amate de Línea 12.</description>
        <styleUrl>#icon-1899-DB4436</styleUrl>
        <Point>
          <coordinates>
            -90.517283,14.630678,0
          </coordinates>
        </Point>
      </Placemark>
      <Placemark>
        <name>Parada #122 / El Pueblito</name>
        <description>3ª avenida y 19 calle, Barrio San Gaspar, zona 1.</description>
        <styleUrl>#icon-1899-DB4436</styleUrl>
        <Point>
          <coordinates>
            -90.518585,14.630432,0
          </coordinates>
        </Point>
      </Placemark>
      <Placemark>
        <name>Parada #123 / 3ª Avenida</name>
        <description><![CDATA[3ª avenida y 15 calle "A", zona 1.]]></description>
        <styleUrl>#icon-1899-DB4436</styleUrl>
        <Point>
          <coordinates>
            -90.518203,14.6334165,0
          </coordinates>
        </Point>
      </Placemark>
      <Placemark>
        <name>Parada #124 / 3ª Avenida</name>
        <description><![CDATA[3ª avenida y 12 calle "A", zona 1.]]></description>
        <styleUrl>#icon-1899-DB4436</styleUrl>
        <Point>
          <coordinates>
            -90.5176494,14.6371046,0
          </coordinates>
        </Point>
      </Placemark>
      <Placemark>
        <name>Parada #125 / 3ª Avenida</name>
        <description>3ª avenida y 9ª calle, zona 1. Cercanía con Transmetro a ±3 y 4 minutos caminando: Estaciones San Juan de Dios y Santuario de Guadalupe de Línea 7.</description>
        <styleUrl>#icon-1899-DB4436</styleUrl>
        <Point>
          <coordinates>
            -90.51715,14.640794,0
          </coordinates>
        </Point>
      </Placemark>
      <Placemark>
        <name>Parada #126 / 3ª Avenida</name>
        <description>3ª avenida y 6ª calle, zona 1.</description>
        <styleUrl>#icon-1899-DB4436</styleUrl>
        <Point>
          <coordinates>
            -90.516845,14.6428917,0
          </coordinates>
        </Point>
      </Placemark>
      <Placemark>
        <name>Parada #127 / Barrio Recolección</name>
        <description>4ª calle y 2ª avenida, Barrio Recolección, zona 1.</description>
        <styleUrl>#icon-1899-DB4436</styleUrl>
        <Point>
          <coordinates>
            -90.51767,14.645277,0
          </coordinates>
        </Point>
      </Placemark>
      <Placemark>
        <name>Parada #128 / Barrio Recolección</name>
        <description>4ª calle y Avenida Elena, Barrio Recolección, zona 1. Parada con dos o más rutas: 105 y 802.</description>
        <styleUrl>#icon-1899-DB4436</styleUrl>
        <Point>
          <coordinates>
            -90.5206923,14.6457363,0
          </coordinates>
        </Point>
      </Placemark>
      <Placemark>
        <name>Parada #129 / Avenida Elena</name>
        <description>Avenida Elena y 7ª calle, zona 3.</description>
        <styleUrl>#icon-1899-DB4436</styleUrl>
        <Point>
          <coordinates>
            -90.5216373,14.6428625,0
          </coordinates>
        </Point>
      </Placemark>
      <Placemark>
        <name>Parada #130 / Anillo Periférico sur</name>
        <description>Anillo Periférico sur y puente El incienso, zona 7.</description>
        <styleUrl>#icon-1899-DB4436</styleUrl>
        <Point>
          <coordinates>
            -90.529255,14.64894,0
          </coordinates>
        </Point>
      </Placemark>
      <Placemark>
        <name>Parada #131 / Col. Madre Dormida</name>
        <description><![CDATA[Anillo Periférico sur y 31 avenida "A", Colonia Madre Dormida, zona 7. Cercanía con Transmetro a ±0 minutos caminando: Estación Incienso en dirección a USAC Periférico de Línea 7.]]></description>
        <styleUrl>#icon-1899-DB4436</styleUrl>
        <Point>
          <coordinates>
            -90.531015,14.648999,0
          </coordinates>
        </Point>
      </Placemark>
      <Placemark>
        <name>Parada #132 / Anillo Periférico sur</name>
        <description>Anillo Periférico sur y 25 calle, zona 7. Cercanía con Transmetro a ±3 minutos caminando: Estación Bethania en dirección a USAC Periférico de Línea 7.</description>
        <styleUrl>#icon-1899-DB4436</styleUrl>
        <Point>
          <coordinates>
            -90.535319,14.645743,0
          </coordinates>
        </Point>
      </Placemark>
      <Placemark>
        <name>Parada #105 / Alcaldía Auxiliar Z.7</name>
        <description>Alcaldía Auxiliar Z.7, 33 avenida y 26 calle, Colonia Bethania, zona 7. Parada con dos o más rutas: 801 y 802.</description>
        <styleUrl>#icon-1899-DB4436</styleUrl>
        <Point>
          <coordinates>
            -90.535849,14.647358,0
          </coordinates>
        </Point>
      </Placemark>
      <Placemark>
        <name>Parada #106 / Col. Bethania</name>
        <description>33 avenida y 30 calle, Colonia Bethania, zona 7. Parada con dos o más rutas: 801 y 802.</description>
        <styleUrl>#icon-1899-DB4436</styleUrl>
        <Point>
          <coordinates>
            -90.534113,14.649547,0
          </coordinates>
        </Point>
      </Placemark>
      <Placemark>
        <name>Parada #107 / Parque Tecún Umán</name>
        <description><![CDATA[Parque Tecún Umán, 33 avenida y 33 calle "A", zona 7. Parada con dos o más rutas: 801 y 802.]]></description>
        <styleUrl>#icon-1899-DB4436</styleUrl>
        <Point>
          <coordinates>
            -90.532673,14.65149,0
          </coordinates>
        </Point>
      </Placemark>
      <Placemark>
        <name>Parada #108 / Col. Sakerty II</name>
        <description><![CDATA[33 avenida y 35 calle "B", Colonia Sakerty II, zona 7. Parada con dos o más rutas: 801 y 802.]]></description>
        <styleUrl>#icon-1899-DB4436</styleUrl>
        <Point>
          <coordinates>
            -90.530748,14.655043,0
          </coordinates>
        </Point>
      </Placemark>
      <Placemark>
        <name>Parada #109 / Col. Sakerty I</name>
        <description><![CDATA[33 avenida y 36 calle "A", Colonia Sakerty I, zona 7. Parada con dos o más rutas: 801 y 802.]]></description>
        <styleUrl>#icon-1899-DB4436</styleUrl>
        <Point>
          <coordinates>
            -90.529628,14.657174,0
          </coordinates>
        </Point>
      </Placemark>
      <Placemark>
        <name>RUTA 802</name>
        <styleUrl>#line-1A237E-3000-nodesc</styleUrl>
        <LineString>
          <tessellate>1</tessellate>
          <coordinates>
            -90.528418,14.659871,0
            -90.528484,14.65974,0
            -90.529133,14.65852,0
            -90.529996,14.656868,0
            -90.530712,14.655493,0
            -90.531217,14.654549,0
            -90.531239,14.654507,0
            -90.531259,14.654465,0
            -90.531278,14.654422,0
            -90.531296,14.654378,0
            -90.531312,14.654334,0
            -90.531327,14.654289,0
            -90.531341,14.654244,0
            -90.531352,14.654199,0
            -90.531363,14.654153,0
            -90.531372,14.654107,0
            -90.531382,14.654053,0
            -90.531394,14.654,0
            -90.531409,14.653947,0
            -90.531425,14.653894,0
            -90.531443,14.653842,0
            -90.531462,14.653791,0
            -90.531484,14.653741,0
            -90.531507,14.653691,0
            -90.531532,14.653642,0
            -90.531559,14.653594,0
            -90.532057,14.65274,0
            -90.532479,14.652026,0
            -90.532756,14.651582,0
            -90.532769,14.651562,0
            -90.532783,14.651542,0
            -90.532797,14.651522,0
            -90.533069,14.651157,0
            -90.533172,14.651017,0
            -90.533564,14.650494,0
            -90.533713,14.650293,0
            -90.535089,14.64845,0
            -90.535524,14.647866,0
            -90.535559,14.647823,0
            -90.535596,14.647781,0
            -90.535633,14.64774,0
            -90.535672,14.6477,0
            -90.535713,14.647662,0
            -90.535754,14.647625,0
            -90.535797,14.64759,0
            -90.535841,14.647555,0
            -90.535887,14.647523,0
            -90.535933,14.647491,0
            -90.536397,14.647189,0
            -90.536417,14.647169,0
            -90.536436,14.647148,0
            -90.536455,14.647127,0
            -90.536473,14.647105,0
            -90.53649,14.647083,0
            -90.536506,14.64706,0
            -90.536521,14.647037,0
            -90.536536,14.647013,0
            -90.53655,14.646988,0
            -90.536562,14.646963,0
            -90.536574,14.646938,0
            -90.536585,14.646912,0
            -90.536595,14.646886,0
            -90.536604,14.64686,0
            -90.536612,14.646833,0
            -90.536619,14.646806,0
            -90.536626,14.646779,0
            -90.536631,14.646751,0
            -90.536635,14.646724,0
            -90.536638,14.646696,0
            -90.5367,14.64627,0
            -90.536712,14.646189,0
            -90.536727,14.646108,0
            -90.536744,14.646028,0
            -90.536764,14.645948,0
            -90.536787,14.645869,0
            -90.536812,14.64579,0
            -90.53684,14.645713,0
            -90.53687,14.645636,0
            -90.536885,14.6456,0
            -90.536901,14.645565,0
            -90.536919,14.645531,0
            -90.536938,14.645497,0
            -90.536958,14.645464,0
            -90.536979,14.645431,0
            -90.537002,14.645399,0
            -90.537025,14.645368,0
            -90.537035,14.645356,0
            -90.537045,14.645345,0
            -90.537056,14.645334,0
            -90.537067,14.645324,0
            -90.537079,14.645314,0
            -90.537091,14.645304,0
            -90.537103,14.645295,0
            -90.537115,14.645286,0
            -90.537128,14.645277,0
            -90.537141,14.645269,0
            -90.537155,14.645261,0
            -90.537168,14.645254,0
            -90.537182,14.645247,0
            -90.537196,14.645241,0
            -90.537449,14.645172,0
            -90.537455,14.64517,0
            -90.537461,14.645168,0
            -90.537468,14.645166,0
            -90.537474,14.645165,0
            -90.537481,14.645164,0
            -90.537487,14.645163,0
            -90.537494,14.645163,0
            -90.5375,14.645162,0
            -90.537507,14.645162,0
            -90.537514,14.645162,0
            -90.53752,14.645162,0
            -90.537527,14.645163,0
            -90.537533,14.645163,0
            -90.53754,14.645164,0
            -90.537546,14.645165,0
            -90.537553,14.645167,0
            -90.537559,14.645168,0
            -90.537566,14.64517,0
            -90.537572,14.645172,0
            -90.537578,14.645174,0
            -90.537584,14.645177,0
            -90.53759,14.645179,0
            -90.537596,14.645182,0
            -90.537602,14.645185,0
            -90.537608,14.645188,0
            -90.537613,14.645192,0
            -90.537619,14.645195,0
            -90.537624,14.645199,0
            -90.537629,14.645203,0
            -90.537634,14.645207,0
            -90.537639,14.645211,0
            -90.537644,14.645216,0
            -90.537649,14.645221,0
            -90.537653,14.645225,0
            -90.537657,14.64523,0
            -90.537661,14.645235,0
            -90.537665,14.64524,0
            -90.537669,14.645246,0
            -90.537672,14.645251,0
            -90.537676,14.645257,0
            -90.537679,14.645262,0
            -90.537682,14.645268,0
            -90.537685,14.645274,0
            -90.537687,14.64528,0
            -90.537689,14.645286,0
            -90.537691,14.645292,0
            -90.537693,14.645298,0
            -90.537695,14.645305,0
            -90.537696,14.645311,0
            -90.537697,14.645317,0
            -90.537698,14.645324,0
            -90.537699,14.64533,0
            -90.5377,14.645336,0
            -90.5377,14.645343,0
            -90.5377,14.645349,0
            -90.5377,14.645356,0
            -90.537699,14.645362,0
            -90.537699,14.645368,0
            -90.537698,14.645375,0
            -90.537697,14.645381,0
            -90.537695,14.645387,0
            -90.537694,14.645394,0
            -90.537692,14.6454,0
            -90.53769,14.645406,0
            -90.537688,14.645412,0
            -90.537685,14.645418,0
            -90.537683,14.645424,0
            -90.53768,14.64543,0
            -90.537677,14.645435,0
            -90.537674,14.645441,0
            -90.53767,14.645447,0
            -90.537667,14.645452,0
            -90.537663,14.645457,0
            -90.537659,14.645462,0
            -90.537655,14.645467,0
            -90.53765,14.645472,0
            -90.537646,14.645477,0
            -90.537641,14.645481,0
            -90.537631,14.645489,0
            -90.537621,14.645496,0
            -90.537611,14.645504,0
            -90.537601,14.64551,0
            -90.53759,14.645517,0
            -90.537579,14.645523,0
            -90.537568,14.645528,0
            -90.537556,14.645534,0
            -90.537545,14.645539,0
            -90.537533,14.645543,0
            -90.537521,14.645547,0
            -90.537509,14.645551,0
            -90.537497,14.645554,0
            -90.537485,14.645557,0
            -90.537473,14.64556,0
            -90.53746,14.645562,0
            -90.537448,14.645563,0
            -90.537435,14.645565,0
            -90.537423,14.645566,0
            -90.53741,14.645566,0
            -90.537398,14.645566,0
            -90.537233,14.645577,0
            -90.537009,14.645589,0
            -90.536874,14.645594,0
            -90.53674,14.645595,0
            -90.536605,14.645592,0
            -90.53647,14.645586,0
            -90.536336,14.645576,0
            -90.535399,14.645492,0
            -90.53465,14.645424,0
            -90.534526,14.645415,0
            -90.534402,14.645409,0
            -90.534278,14.645406,0
            -90.534224,14.645401,0
            -90.53417,14.645398,0
            -90.534115,14.645397,0
            -90.53406,14.645398,0
            -90.534006,14.6454,0
            -90.533951,14.645405,0
            -90.533897,14.645411,0
            -90.533843,14.645419,0
            -90.533789,14.645429,0
            -90.533736,14.645441,0
            -90.533683,14.645454,0
            -90.533631,14.645469,0
            -90.533579,14.645486,0
            -90.533528,14.645505,0
            -90.533478,14.645525,0
            -90.533428,14.645547,0
            -90.533379,14.645571,0
            -90.533331,14.645597,0
            -90.533284,14.645624,0
            -90.533238,14.645652,0
            -90.533193,14.645682,0
            -90.533149,14.645714,0
            -90.533106,14.645747,0
            -90.533065,14.645781,0
            -90.533024,14.645817,0
            -90.532985,14.645854,0
            -90.532947,14.645893,0
            -90.532911,14.645933,0
            -90.532876,14.645974,0
            -90.532843,14.646016,0
            -90.532811,14.646059,0
            -90.532781,14.646103,0
            -90.532752,14.646148,0
            -90.532725,14.646194,0
            -90.532699,14.646241,0
            -90.532675,14.646289,0
            -90.532653,14.646338,0
            -90.532633,14.646387,0
            -90.532614,14.646437,0
            -90.532597,14.646488,0
            -90.532582,14.646539,0
            -90.532569,14.646591,0
            -90.532558,14.646643,0
            -90.532549,14.646695,0
            -90.532541,14.646748,0
            -90.532535,14.646801,0
            -90.532531,14.646854,0
            -90.532529,14.646907,0
            -90.532481,14.647396,0
            -90.532477,14.647437,0
            -90.532471,14.647477,0
            -90.532464,14.647518,0
            -90.532456,14.647558,0
            -90.532446,14.647598,0
            -90.532435,14.647638,0
            -90.532422,14.647677,0
            -90.532408,14.647715,0
            -90.532393,14.647754,0
            -90.532376,14.647791,0
            -90.532358,14.647829,0
            -90.532339,14.647865,0
            -90.532319,14.647901,0
            -90.532297,14.647936,0
            -90.532274,14.64797,0
            -90.532249,14.648004,0
            -90.532224,14.648037,0
            -90.532197,14.648069,0
            -90.53217,14.6481,0
            -90.532141,14.64813,0
            -90.532111,14.648159,0
            -90.53208,14.648187,0
            -90.532049,14.648214,0
            -90.532016,14.64824,0
            -90.531982,14.648264,0
            -90.531948,14.648288,0
            -90.531913,14.64831,0
            -90.5308,14.648882,0
            -90.530756,14.648904,0
            -90.530712,14.648924,0
            -90.530666,14.648942,0
            -90.530621,14.648959,0
            -90.530574,14.648975,0
            -90.530527,14.648988,0
            -90.53048,14.649001,0
            -90.530432,14.649011,0
            -90.530384,14.64902,0
            -90.530335,14.649028,0
            -90.530287,14.649033,0
            -90.530238,14.649037,0
            -90.530189,14.64904,0
            -90.53014,14.64904,0
            -90.530091,14.649039,0
            -90.530042,14.649037,0
            -90.529993,14.649033,0
            -90.529944,14.649027,0
            -90.529896,14.649019,0
            -90.529848,14.64901,0
            -90.5298,14.648999,0
            -90.529753,14.648986,0
            -90.529706,14.648972,0
            -90.529659,14.648957,0
            -90.529614,14.648939,0
            -90.529568,14.648921,0
            -90.529524,14.6489,0
            -90.52948,14.648879,0
            -90.529438,14.648855,0
            -90.529396,14.648831,0
            -90.529354,14.648805,0
            -90.529314,14.648777,0
            -90.529275,14.648748,0
            -90.529237,14.648718,0
            -90.5292,14.648687,0
            -90.529164,14.648654,0
            -90.526034,14.64619,0
            -90.525665,14.645864,0
            -90.525635,14.645837,0
            -90.525607,14.645809,0
            -90.52558,14.64578,0
            -90.525553,14.64575,0
            -90.525528,14.64572,0
            -90.525504,14.645688,0
            -90.525481,14.645656,0
            -90.525459,14.645623,0
            -90.525439,14.645589,0
            -90.525419,14.645555,0
            -90.525401,14.64552,0
            -90.525237,14.645168,0
            -90.525224,14.645141,0
            -90.52521,14.645115,0
            -90.525196,14.645089,0
            -90.52518,14.645064,0
            -90.525164,14.645039,0
            -90.525146,14.645015,0
            -90.525128,14.644991,0
            -90.52511,14.644968,0
            -90.52509,14.644945,0
            -90.52507,14.644924,0
            -90.525049,14.644902,0
            -90.525027,14.644882,0
            -90.525004,14.644861,0
            -90.52498,14.644841,0
            -90.524955,14.644822,0
            -90.52493,14.644804,0
            -90.524903,14.644787,0
            -90.524877,14.64477,0
            -90.52485,14.644755,0
            -90.524822,14.64474,0
            -90.524794,14.644727,0
            -90.524765,14.644714,0
            -90.524736,14.644702,0
            -90.524706,14.644692,0
            -90.524676,14.644682,0
            -90.524646,14.644673,0
            -90.524615,14.644666,0
            -90.524585,14.644659,0
            -90.524554,14.644654,0
            -90.524522,14.644649,0
            -90.524491,14.644646,0
            -90.52446,14.644644,0
            -90.524428,14.644642,0
            -90.524397,14.644642,0
            -90.524365,14.644643,0
            -90.524334,14.644645,0
            -90.524302,14.644648,0
            -90.524271,14.644652,0
            -90.52424,14.644658,0
            -90.524209,14.644664,0
            -90.524178,14.644671,0
            -90.524148,14.644679,0
            -90.524118,14.644689,0
            -90.524088,14.644699,0
            -90.524059,14.64471,0
            -90.52403,14.644723,0
            -90.524002,14.644736,0
            -90.523974,14.64475,0
            -90.523946,14.644765,0
            -90.52392,14.644782,0
            -90.523893,14.644799,0
            -90.523868,14.644817,0
            -90.523843,14.644835,0
            -90.523818,14.644855,0
            -90.523795,14.644875,0
            -90.523772,14.644897,0
            -90.52375,14.644919,0
            -90.523729,14.644941,0
            -90.523708,14.644965,0
            -90.523689,14.644989,0
            -90.52367,14.645013,0
            -90.523653,14.645039,0
            -90.523636,14.645065,0
            -90.52362,14.645091,0
            -90.523605,14.645118,0
            -90.522924,14.64666,0
            -90.522907,14.646696,0
            -90.522889,14.646731,0
            -90.52287,14.646766,0
            -90.52285,14.6468,0
            -90.522829,14.646834,0
            -90.522806,14.646866,0
            -90.522782,14.646898,0
            -90.522757,14.646929,0
            -90.522732,14.646959,0
            -90.522705,14.646989,0
            -90.522677,14.647017,0
            -90.522648,14.647045,0
            -90.522618,14.647071,0
            -90.522587,14.647097,0
            -90.522556,14.647121,0
            -90.522523,14.647145,0
            -90.52249,14.647167,0
            -90.522456,14.647188,0
            -90.522421,14.647209,0
            -90.522386,14.647228,0
            -90.52235,14.647245,0
            -90.522313,14.647262,0
            -90.522276,14.647277,0
            -90.521338,14.647724,0
            -90.521305,14.647746,0
            -90.521273,14.647769,0
            -90.521242,14.647792,0
            -90.521211,14.647817,0
            -90.521182,14.647843,0
            -90.521153,14.64787,0
            -90.521126,14.647898,0
            -90.520753,14.648452,0
            -90.520707,14.648519,0
            -90.520659,14.648584,0
            -90.520608,14.648648,0
            -90.520556,14.64871,0
            -90.520501,14.64877,0
            -90.520444,14.648829,0
            -90.520385,14.648885,0
            -90.520325,14.64894,0
            -90.519998,14.649289,0
            -90.519997,14.649291,0
            -90.519996,14.649292,0
            -90.519995,14.649293,0
            -90.519994,14.649294,0
            -90.519993,14.649295,0
            -90.519991,14.649296,0
            -90.51999,14.649296,0
            -90.519989,14.649297,0
            -90.519987,14.649298,0
            -90.519986,14.649299,0
            -90.519985,14.6493,0
            -90.519983,14.6493,0
            -90.519982,14.649301,0
            -90.51998,14.649301,0
            -90.519979,14.649302,0
            -90.519977,14.649302,0
            -90.519976,14.649303,0
            -90.519974,14.649303,0
            -90.519973,14.649303,0
            -90.519971,14.649304,0
            -90.51997,14.649304,0
            -90.519968,14.649304,0
            -90.519966,14.649304,0
            -90.519965,14.649304,0
            -90.519963,14.649304,0
            -90.519962,14.649304,0
            -90.51996,14.649304,0
            -90.519958,14.649304,0
            -90.519957,14.649304,0
            -90.517526,14.648933,0
            -90.516242,14.648757,0
            -90.515947,14.648722,0
            -90.51487,14.648538,0
            -90.514869,14.648537,0
            -90.514867,14.648537,0
            -90.514866,14.648537,0
            -90.514864,14.648536,0
            -90.514863,14.648536,0
            -90.514861,14.648535,0
            -90.51486,14.648535,0
            -90.514858,14.648534,0
            -90.514857,14.648533,0
            -90.514855,14.648532,0
            -90.514854,14.648532,0
            -90.514853,14.648531,0
            -90.514851,14.64853,0
            -90.51485,14.648529,0
            -90.514849,14.648528,0
            -90.514847,14.648527,0
            -90.514846,14.648526,0
            -90.514845,14.648525,0
            -90.514844,14.648524,0
            -90.514843,14.648522,0
            -90.514842,14.648521,0
            -90.514841,14.64852,0
            -90.51484,14.648519,0
            -90.514839,14.648517,0
            -90.514838,14.648516,0
            -90.514838,14.648515,0
            -90.514837,14.648513,0
            -90.514836,14.648512,0
            -90.514836,14.64851,0
            -90.514835,14.648509,0
            -90.514834,14.648507,0
            -90.514834,14.648506,0
            -90.514833,14.648504,0
            -90.514833,14.648503,0
            -90.514833,14.648501,0
            -90.514833,14.6485,0
            -90.514832,14.648498,0
            -90.514832,14.648497,0
            -90.514832,14.648495,0
            -90.514832,14.648494,0
            -90.514832,14.648492,0
            -90.514832,14.64849,0
            -90.514832,14.648489,0
            -90.514832,14.648487,0
            -90.515028,14.647037,0
            -90.515322,14.644828,0
            -90.51559,14.642887,0
            -90.515775,14.641482,0
            -90.51609,14.63923,0
            -90.516301,14.637678,0
            -90.516503,14.636308,0
            -90.516653,14.635233,0
            -90.516828,14.633996,0
            -90.517032,14.632618,0
            -90.517194,14.631507,0
            -90.517214,14.631368,0
            -90.517216,14.631351,0
            -90.517217,14.631333,0
            -90.517218,14.631316,0
            -90.517219,14.631299,0
            -90.517219,14.631282,0
            -90.517218,14.631265,0
            -90.517217,14.631247,0
            -90.517215,14.63123,0
            -90.517206,14.631144,0
            -90.517201,14.631057,0
            -90.517198,14.63097,0
            -90.517199,14.630883,0
            -90.517203,14.630796,0
            -90.517209,14.630709,0
            -90.517219,14.630622,0
            -90.517233,14.630536,0
            -90.517249,14.630451,0
            -90.517268,14.630366,0
            -90.51729,14.630282,0
            -90.517316,14.630198,0
            -90.517326,14.630168,0
            -90.517337,14.630139,0
            -90.517349,14.63011,0
            -90.517363,14.630081,0
            -90.517377,14.630053,0
            -90.517392,14.630025,0
            -90.517408,14.629998,0
            -90.517425,14.629971,0
            -90.517442,14.629945,0
            -90.517461,14.62992,0
            -90.517481,14.629895,0
            -90.517501,14.62987,0
            -90.517522,14.629847,0
            -90.517675,14.629721,0
            -90.517682,14.629716,0
            -90.517688,14.629711,0
            -90.517694,14.629707,0
            -90.517701,14.629703,0
            -90.517708,14.629699,0
            -90.517715,14.629695,0
            -90.517722,14.629691,0
            -90.517729,14.629688,0
            -90.517736,14.629685,0
            -90.517743,14.629682,0
            -90.517751,14.629679,0
            -90.517758,14.629677,0
            -90.517766,14.629675,0
            -90.517774,14.629673,0
            -90.517781,14.629672,0
            -90.517789,14.62967,0
            -90.517797,14.629669,0
            -90.517805,14.629668,0
            -90.517813,14.629668,0
            -90.517821,14.629668,0
            -90.517829,14.629668,0
            -90.517836,14.629668,0
            -90.517844,14.629668,0
            -90.517852,14.629669,0
            -90.51864,14.629759,0
            -90.518643,14.62976,0
            -90.518646,14.62976,0
            -90.518649,14.629761,0
            -90.518653,14.629762,0
            -90.518656,14.629763,0
            -90.518659,14.629764,0
            -90.518662,14.629765,0
            -90.518665,14.629766,0
            -90.518668,14.629767,0
            -90.518671,14.629768,0
            -90.518673,14.62977,0
            -90.518676,14.629771,0
            -90.518679,14.629773,0
            -90.518682,14.629775,0
            -90.518684,14.629776,0
            -90.518687,14.629778,0
            -90.518689,14.62978,0
            -90.518692,14.629782,0
            -90.518694,14.629785,0
            -90.518696,14.629787,0
            -90.518698,14.629789,0
            -90.518701,14.629792,0
            -90.518703,14.629794,0
            -90.518704,14.629796,0
            -90.518706,14.629799,0
            -90.518708,14.629802,0
            -90.51871,14.629804,0
            -90.518711,14.629807,0
            -90.518713,14.62981,0
            -90.518714,14.629813,0
            -90.518715,14.629816,0
            -90.518716,14.629819,0
            -90.518717,14.629822,0
            -90.518718,14.629825,0
            -90.518719,14.629828,0
            -90.51872,14.629831,0
            -90.518721,14.629834,0
            -90.518721,14.629837,0
            -90.518721,14.62984,0
            -90.518722,14.629843,0
            -90.518722,14.629846,0
            -90.518722,14.629849,0
            -90.518722,14.629852,0
            -90.518722,14.629855,0
            -90.518721,14.629859,0
            -90.518721,14.629862,0
            -90.518272,14.632968,0
            -90.518126,14.634017,0
            -90.517574,14.637898,0
            -90.517478,14.638579,0
            -90.517011,14.641854,0
            -90.516943,14.642325,0
            -90.516718,14.643938,0
            -90.516558,14.64505,0
            -90.516558,14.645052,0
            -90.516558,14.645053,0
            -90.516558,14.645055,0
            -90.516558,14.645056,0
            -90.516558,14.645058,0
            -90.516558,14.645059,0
            -90.516558,14.645061,0
            -90.516558,14.645062,0
            -90.516559,14.645064,0
            -90.516559,14.645066,0
            -90.516559,14.645067,0
            -90.51656,14.645069,0
            -90.51656,14.64507,0
            -90.516561,14.645072,0
            -90.516561,14.645073,0
            -90.516562,14.645074,0
            -90.516563,14.645076,0
            -90.516563,14.645077,0
            -90.516564,14.645079,0
            -90.516565,14.64508,0
            -90.516566,14.645081,0
            -90.516567,14.645083,0
            -90.516568,14.645084,0
            -90.516569,14.645085,0
            -90.51657,14.645086,0
            -90.516571,14.645087,0
            -90.516572,14.645088,0
            -90.516573,14.64509,0
            -90.516574,14.645091,0
            -90.516575,14.645092,0
            -90.516577,14.645093,0
            -90.516578,14.645093,0
            -90.516579,14.645094,0
            -90.516581,14.645095,0
            -90.516582,14.645096,0
            -90.516584,14.645097,0
            -90.516585,14.645097,0
            -90.516586,14.645098,0
            -90.516588,14.645098,0
            -90.516589,14.645099,0
            -90.516591,14.645099,0
            -90.516592,14.6451,0
            -90.516594,14.6451,0
            -90.516596,14.645101,0
            -90.516597,14.645101,0
            -90.520938,14.645759,0
            -90.521038,14.645769,0
            -90.521058,14.645633,0
            -90.521092,14.645427,0
            -90.521124,14.645239,0
            -90.521261,14.644415,0
            -90.521374,14.643658,0
            -90.521433,14.643615,0
            -90.521548,14.642919,0
            -90.52161,14.642489,0
            -90.522046,14.642575,0
            -90.522305,14.642628,0
            -90.522397,14.642658,0
            -90.522513,14.642726,0
            -90.522636,14.642832,0
            -90.522706,14.64292,0
            -90.522859,14.643177,0
            -90.523157,14.643657,0
            -90.523337,14.643959,0
            -90.523475,14.64418,0
            -90.523538,14.644282,0
            -90.523623,14.644393,0
            -90.523751,14.644518,0
            -90.52596,14.646284,0
            -90.529099,14.648735,0
            -90.529394,14.648962,0
            -90.529434,14.648987,0
            -90.529474,14.64901,0
            -90.529516,14.649031,0
            -90.529559,14.649051,0
            -90.529602,14.64907,0
            -90.529645,14.649087,0
            -90.52969,14.649103,0
            -90.529735,14.649117,0
            -90.52978,14.64913,0
            -90.529826,14.649141,0
            -90.529872,14.649151,0
            -90.529918,14.649159,0
            -90.529965,14.649166,0
            -90.530012,14.649171,0
            -90.530059,14.649174,0
            -90.530106,14.649176,0
            -90.530153,14.649176,0
            -90.5302,14.649175,0
            -90.530248,14.649172,0
            -90.530295,14.649167,0
            -90.530341,14.649161,0
            -90.530388,14.649153,0
            -90.530434,14.649144,0
            -90.53048,14.649133,0
            -90.530525,14.649121,0
            -90.53057,14.649107,0
            -90.530615,14.649092,0
            -90.530659,14.649075,0
            -90.530793,14.649003,0
            -90.530929,14.648935,0
            -90.531066,14.648871,0
            -90.531475,14.648681,0
            -90.531877,14.648479,0
            -90.531918,14.648458,0
            -90.531957,14.648434,0
            -90.531996,14.64841,0
            -90.532034,14.648384,0
            -90.532071,14.648357,0
            -90.532106,14.648329,0
            -90.532141,14.6483,0
            -90.532175,14.648269,0
            -90.532208,14.648237,0
            -90.532239,14.648204,0
            -90.532269,14.648171,0
            -90.532299,14.648136,0
            -90.532326,14.6481,0
            -90.532353,14.648063,0
            -90.532378,14.648026,0
            -90.532402,14.647987,0
            -90.532424,14.647948,0
            -90.532445,14.647908,0
            -90.532465,14.647867,0
            -90.53249,14.647812,0
            -90.532512,14.647755,0
            -90.532533,14.647698,0
            -90.532552,14.64764,0
            -90.532569,14.647582,0
            -90.532583,14.647523,0
            -90.532596,14.647464,0
            -90.532607,14.647404,0
            -90.532616,14.647344,0
            -90.532623,14.647284,0
            -90.532674,14.64675,0
            -90.53268,14.646703,0
            -90.532687,14.646657,0
            -90.532696,14.646611,0
            -90.532707,14.646566,0
            -90.532719,14.646521,0
            -90.532733,14.646476,0
            -90.532749,14.646432,0
            -90.532766,14.646388,0
            -90.532784,14.646345,0
            -90.532804,14.646302,0
            -90.532826,14.646261,0
            -90.532849,14.64622,0
            -90.532873,14.646179,0
            -90.532899,14.64614,0
            -90.532926,14.646102,0
            -90.532955,14.646064,0
            -90.532985,14.646027,0
            -90.533016,14.645992,0
            -90.533048,14.645957,0
            -90.533082,14.645924,0
            -90.533117,14.645892,0
            -90.533153,14.645861,0
            -90.53319,14.645831,0
            -90.533228,14.645803,0
            -90.533267,14.645775,0
            -90.533306,14.645749,0
            -90.533347,14.645725,0
            -90.533389,14.645702,0
            -90.533432,14.645679,0
            -90.533477,14.645658,0
            -90.533522,14.645639,0
            -90.533567,14.645621,0
            -90.533613,14.645604,0
            -90.53366,14.645589,0
            -90.533707,14.645576,0
            -90.533755,14.645564,0
            -90.533803,14.645554,0
            -90.533851,14.645545,0
            -90.5339,14.645538,0
            -90.533948,14.645532,0
            -90.533997,14.645528,0
            -90.534046,14.645526,0
            -90.534096,14.645525,0
            -90.534145,14.645526,0
            -90.534194,14.645528,0
            -90.534243,14.645532,0
            -90.534292,14.645538,0
            -90.534462,14.645562,0
            -90.534632,14.645592,0
            -90.534793,14.64562,0
            -90.534955,14.645642,0
            -90.535118,14.64566,0
            -90.535281,14.645672,0
            -90.535444,14.645679,0
            -90.535565,14.645685,0
            -90.535685,14.645693,0
            -90.535805,14.645704,0
            -90.53642,14.645771,0
            -90.536427,14.645772,0
            -90.536435,14.645773,0
            -90.536443,14.645774,0
            -90.536451,14.645776,0
            -90.536459,14.645778,0
            -90.536466,14.645781,0
            -90.536474,14.645783,0
            -90.536481,14.645786,0
            -90.536488,14.645789,0
            -90.536496,14.645792,0
            -90.536503,14.645796,0
            -90.53651,14.645799,0
            -90.536516,14.645803,0
            -90.536523,14.645808,0
            -90.53653,14.645812,0
            -90.536536,14.645817,0
            -90.536542,14.645821,0
            -90.536548,14.645827,0
            -90.536554,14.645832,0
            -90.53656,14.645837,0
            -90.536565,14.645843,0
            -90.536571,14.645849,0
            -90.536576,14.645855,0
            -90.53658,14.645861,0
            -90.536585,14.645867,0
            -90.536589,14.645874,0
            -90.536594,14.64588,0
            -90.536598,14.645887,0
            -90.536601,14.645894,0
            -90.536605,14.645901,0
            -90.536608,14.645908,0
            -90.536611,14.645915,0
            -90.536614,14.645922,0
            -90.536616,14.64593,0
            -90.536618,14.645937,0
            -90.53662,14.645945,0
            -90.536622,14.645952,0
            -90.536623,14.64596,0
            -90.536624,14.645967,0
            -90.536625,14.645975,0
            -90.536626,14.645983,0
            -90.536626,14.645991,0
            -90.536626,14.645998,0
            -90.536626,14.646006,0
            -90.536625,14.646014,0
            -90.536624,14.646022,0
            -90.536542,14.646706,0
            -90.536539,14.646726,0
            -90.536535,14.646745,0
            -90.536531,14.646764,0
            -90.536527,14.646783,0
            -90.536521,14.646802,0
            -90.536515,14.646821,0
            -90.536509,14.646839,0
            -90.536501,14.646857,0
            -90.536493,14.646875,0
            -90.536485,14.646893,0
            -90.536475,14.64691,0
            -90.536466,14.646927,0
            -90.536455,14.646944,0
            -90.536444,14.64696,0
            -90.536432,14.646976,0
            -90.53642,14.646992,0
            -90.536408,14.647007,0
            -90.536394,14.647022,0
            -90.536381,14.647036,0
            -90.536367,14.64705,0
            -90.536352,14.647063,0
            -90.536337,14.647076,0
            -90.536321,14.647088,0
            -90.536305,14.6471,0
            -90.53583,14.647412,0
            -90.535705,14.647498,0
            -90.535689,14.647509,0
            -90.535673,14.647521,0
            -90.535657,14.647534,0
            -90.535642,14.647547,0
            -90.535628,14.647561,0
            -90.535614,14.647575,0
            -90.5356,14.647589,0
            -90.535587,14.647604,0
            -90.535574,14.64762,0
            -90.535562,14.647635,0
            -90.535551,14.647651,0
            -90.535007,14.648392,0
            -90.534646,14.648878,0
            -90.534522,14.649042,0
            -90.534135,14.649562,0
            -90.534007,14.649735,0
            -90.533632,14.650236,0
            -90.533484,14.650436,0
            -90.533091,14.650961,0
            -90.532987,14.651099,0
            -90.532715,14.651463,0
            -90.5327,14.651483,0
            -90.532686,14.651504,0
            -90.532672,14.651525,0
            -90.532211,14.652264,0
            -90.531452,14.653548,0
            -90.531426,14.653595,0
            -90.531401,14.653643,0
            -90.531378,14.653692,0
            -90.531356,14.653741,0
            -90.531336,14.653791,0
            -90.531318,14.653842,0
            -90.531296,14.653913,0
            -90.531275,14.653985,0
            -90.531257,14.654058,0
            -90.531242,14.654131,0
            -90.531228,14.654204,0
            -90.531222,14.654238,0
            -90.531215,14.654271,0
            -90.531206,14.654304,0
            -90.531196,14.654337,0
            -90.531186,14.654369,0
            -90.531174,14.654401,0
            -90.53116,14.654433,0
            -90.531146,14.654464,0
            -90.531131,14.654495,0
            -90.531114,14.654525,0
            -90.531096,14.654554,0
            -90.530833,14.654988,0
            -90.530585,14.65543,0
            -90.529861,14.656801,0
            -90.528998,14.658452,0
            -90.528359,14.659678,0
            -90.528291,14.65981,0
            -90.52829,14.659813,0
            -90.528289,14.659815,0
            -90.528288,14.659817,0
            -90.528287,14.659819,0
            -90.528287,14.659822,0
            -90.528286,14.659824,0
            -90.528285,14.659826,0
            -90.528285,14.659829,0
            -90.528285,14.659831,0
            -90.528284,14.659833,0
            -90.528284,14.659836,0
            -90.528284,14.659838,0
            -90.528284,14.65984,0
            -90.528284,14.659843,0
            -90.528284,14.659845,0
            -90.528284,14.659848,0
            -90.528285,14.65985,0
            -90.528285,14.659852,0
            -90.528286,14.659855,0
            -90.528286,14.659857,0
            -90.528287,14.659859,0
            -90.528287,14.659862,0
            -90.528288,14.659864,0
            -90.528289,14.659866,0
            -90.52829,14.659868,0
            -90.528291,14.65987,0
            -90.528292,14.659873,0
            -90.528293,14.659875,0
            -90.528295,14.659877,0
            -90.528296,14.659879,0
            -90.528297,14.659881,0
            -90.528299,14.659883,0
            -90.5283,14.659884,0
            -90.528302,14.659886,0
            -90.528304,14.659888,0
            -90.528305,14.65989,0
            -90.528307,14.659891,0
            -90.528309,14.659893,0
            -90.528311,14.659894,0
            -90.528313,14.659896,0
            -90.528315,14.659897,0
            -90.528317,14.659898,0
            -90.528319,14.6599,0
            -90.528321,14.659901,0
            -90.528323,14.659902,0
            -90.528326,14.659903,0
            -90.528328,14.659904,0
            -90.52833,14.659905,0
            -90.528333,14.659906,0
            -90.528335,14.659906,0
            -90.528337,14.659907,0
            -90.52834,14.659907,0
            -90.528342,14.659908,0
            -90.528344,14.659908,0
            -90.528347,14.659909,0
            -90.528349,14.659909,0
            -90.528352,14.659909,0
            -90.528354,14.659909,0
            -90.528357,14.659909,0
            -90.528359,14.659909,0
            -90.528362,14.659909,0
            -90.528364,14.659908,0
            -90.528366,14.659908,0
            -90.528369,14.659908,0
            -90.528371,14.659907,0
            -90.528374,14.659906,0
            -90.528376,14.659906,0
            -90.528378,14.659905,0
            -90.528381,14.659904,0
            -90.528383,14.659903,0
            -90.528385,14.659902,0
            -90.528387,14.659901,0
            -90.528389,14.6599,0
            -90.528391,14.659899,0
            -90.528394,14.659898,0
            -90.528396,14.659896,0
            -90.528398,14.659895,0
            -90.528399,14.659893,0
            -90.528401,14.659892,0
            -90.528403,14.65989,0
            -90.528405,14.659889,0
            -90.528407,14.659887,0
            -90.528408,14.659885,0
            -90.52841,14.659883,0
            -90.528411,14.659881,0
            -90.528413,14.659879,0
            -90.528414,14.659877,0
            -90.528415,14.659875,0
            -90.528417,14.659873,0
            -90.528418,14.659871,0
          </coordinates>
        </LineString>
      </Placemark>
    </Folder>
    <Folder>
      <name>Cercanía con Transmetro a minutos caminando_802</name>
      <Placemark>
        <name>Hacia Estación Bethania en dirección a La Merced de Línea 7</name>
        <styleUrl>#line-0F9D58-2000-nodesc</styleUrl>
        <LineString>
          <tessellate>1</tessellate>
          <coordinates>
            -90.536404,14.645508,0
            -90.536502,14.645507,0
          </coordinates>
        </LineString>
      </Placemark>
      <Placemark>
        <name>Estación Bethania en dirección a La Merced de Línea 7</name>
        <styleUrl>#icon-1899-DB4436-nodesc</styleUrl>
        <Point>
          <coordinates>
            -90.536512,14.64551,0
          </coordinates>
        </Point>
      </Placemark>
      <Placemark>
        <name>Hacia Estación Bethania en dirección a USAC Periférico de Línea 7</name>
        <styleUrl>#line-0F9D58-3000-nodesc</styleUrl>
        <LineString>
          <tessellate>1</tessellate>
          <coordinates>
            -90.535335,14.645742,0
            -90.535984,14.645801,0
            -90.536536,14.645817,0
            -90.536706,14.645858,0
          </coordinates>
        </LineString>
      </Placemark>
      <Placemark>
        <name>Estación Bethania en dirección a USAC Periférico de Línea 7</name>
        <styleUrl>#icon-1899-DB4436-nodesc</styleUrl>
        <Point>
          <coordinates>
            -90.536723,14.645875,0
          </coordinates>
        </Point>
      </Placemark>
      <Placemark>
        <name>Hacia Estación Incienso en dirección a USAC Periférico de Línea 7</name>
        <styleUrl>#line-0F9D58-3000-nodesc</styleUrl>
        <LineString>
          <tessellate>1</tessellate>
          <coordinates>
            -90.531028,14.649,0
            -90.531388,14.648813,0
          </coordinates>
        </LineString>
      </Placemark>
      <Placemark>
        <name>Estación Incienso en dirección a USAC Periférico de Línea 7</name>
        <styleUrl>#icon-1899-DB4436-nodesc</styleUrl>
        <Point>
          <coordinates>
            -90.531404,14.64881,0
          </coordinates>
        </Point>
      </Placemark>
      <Placemark>
        <name>Hacia Estación Incienso en dirección a La Merced de Línea 7</name>
        <styleUrl>#line-0F9D58-3000-nodesc</styleUrl>
        <LineString>
          <tessellate>1</tessellate>
          <coordinates>
            -90.530804,14.648797,0
            -90.530979,14.648709,0
          </coordinates>
        </LineString>
      </Placemark>
      <Placemark>
        <name>Estación Incienso en dirección a La Merced de Línea 7</name>
        <styleUrl>#icon-1899-DB4436-nodesc</styleUrl>
        <Point>
          <coordinates>
            -90.530991,14.648714,0
          </coordinates>
        </Point>
      </Placemark>
      <Placemark>
        <name>Hacia Estación San Sebastián de Línea 1</name>
        <styleUrl>#line-0F9D58-3000-nodesc</styleUrl>
        <LineString>
          <tessellate>1</tessellate>
          <coordinates>
            -90.515011,14.647296,0
            -90.515185,14.646194,0
            -90.513088,14.645851,0
          </coordinates>
        </LineString>
      </Placemark>
      <Placemark>
        <name>Estación San Sebastián de Línea 1</name>
        <styleUrl>#icon-1899-DB4436-nodesc</styleUrl>
        <Point>
          <coordinates>
            -90.513075,14.645877,0
          </coordinates>
        </Point>
      </Placemark>
      <Placemark>
        <name>Hacia Estación Archivo General de Línea 7</name>
        <styleUrl>#line-0F9D58-3000-nodesc</styleUrl>
        <LineString>
          <tessellate>1</tessellate>
          <coordinates>
            -90.515504,14.643776,0
            -90.51569,14.642506,0
          </coordinates>
        </LineString>
      </Placemark>
      <Placemark>
        <name>Hacia Estación Archivo General de Línea 7</name>
        <styleUrl>#line-0F9D58-3000-nodesc</styleUrl>
        <LineString>
          <tessellate>1</tessellate>
          <coordinates>
            -90.515928,14.640837,0
            -90.51569,14.642506,0
          </coordinates>
        </LineString>
      </Placemark>
      <Placemark>
        <name>Estación Archivo General de Línea 7</name>
        <styleUrl>#icon-1899-DB4436-nodesc</styleUrl>
        <Point>
          <coordinates>
            -90.51569,14.642506,0
          </coordinates>
        </Point>
      </Placemark>
      <Placemark>
        <name>Hacia Estación Parque Centenario de Línea 1</name>
        <styleUrl>#line-0F9D58-3000-nodesc</styleUrl>
        <LineString>
          <tessellate>1</tessellate>
          <coordinates>
            -90.51551,14.643723,0
            -90.514643,14.643588,0
            -90.514847,14.642051,0
          </coordinates>
        </LineString>
      </Placemark>
      <Placemark>
        <name>Estación Parque Centenario de Línea 1</name>
        <styleUrl>#icon-1899-DB4436-nodesc</styleUrl>
        <Point>
          <coordinates>
            -90.514828,14.642044,0
          </coordinates>
        </Point>
      </Placemark>
      <Placemark>
        <name>Hacia Estación San Agustín de Línea 1</name>
        <styleUrl>#line-0F9D58-3000-nodesc</styleUrl>
        <LineString>
          <tessellate>1</tessellate>
          <coordinates>
            -90.516216,14.638512,0
            -90.515267,14.638359,0
            -90.515248,14.638468,0
          </coordinates>
        </LineString>
      </Placemark>
      <Placemark>
        <name>Estación San Agustín de Línea 1</name>
        <styleUrl>#icon-1899-DB4436-nodesc</styleUrl>
        <Point>
          <coordinates>
            -90.515235,14.638492,0
          </coordinates>
        </Point>
      </Placemark>
      <Placemark>
        <name>Hacia Estación Gómez Carrillo de Línea 1</name>
        <styleUrl>#line-0F9D58-3000-nodesc</styleUrl>
        <LineString>
          <tessellate>1</tessellate>
          <coordinates>
            -90.516857,14.633976,0
            -90.515875,14.63381,0
            -90.515778,14.634503,0
          </coordinates>
        </LineString>
      </Placemark>
      <Placemark>
        <name>Estación Gómez Carrillo de Línea 1</name>
        <styleUrl>#icon-1899-DB4436-nodesc</styleUrl>
        <Point>
          <coordinates>
            -90.515773,14.634534,0
          </coordinates>
        </Point>
      </Placemark>
      <Placemark>
        <name>Hacia Estación Plaza El Amate de Línea 12</name>
        <styleUrl>#line-0F9D58-3000-nodesc</styleUrl>
        <LineString>
          <tessellate>1</tessellate>
          <coordinates>
            -90.517286,14.630733,0
            -90.517277,14.631057,0
            -90.517226,14.631408,0
            -90.516926,14.631345,0
          </coordinates>
        </LineString>
      </Placemark>
      <Placemark>
        <name>Estación Plaza El Amate de Línea 12</name>
        <styleUrl>#icon-1899-DB4436-nodesc</styleUrl>
        <Point>
          <coordinates>
            -90.516891,14.63134,0
          </coordinates>
        </Point>
      </Placemark>
      <Placemark>
        <name>Hacia Estación San Juan de Dios de Línea 7</name>
        <styleUrl>#line-0F9D58-3000-nodesc</styleUrl>
        <LineString>
          <tessellate>1</tessellate>
          <coordinates>
            -90.517171,14.640823,0
            -90.517157,14.640953,0
            -90.518954,14.641226,0
          </coordinates>
        </LineString>
      </Placemark>
      <Placemark>
        <name>Estación San Juan de Dios de Línea 7</name>
        <styleUrl>#icon-1899-DB4436-nodesc</styleUrl>
        <Point>
          <coordinates>
            -90.518989,14.641246,0
          </coordinates>
        </Point>
      </Placemark>
      <Placemark>
        <name>Hacia Estación Santuario de Guadalupe de Línea 7</name>
        <styleUrl>#line-0F9D58-3000-nodesc</styleUrl>
        <LineString>
          <tessellate>1</tessellate>
          <coordinates>
            -90.517143,14.640822,0
            -90.517017,14.641728,0
            -90.51898,14.642034,0
          </coordinates>
        </LineString>
      </Placemark>
      <Placemark>
        <name>Estación Santuario de Guadalupe de Línea 7</name>
        <styleUrl>#icon-1899-DB4436-nodesc</styleUrl>
        <Point>
          <coordinates>
            -90.51898,14.642034,0
          </coordinates>
        </Point>
      </Placemark>
    </Folder>
    <Folder>
      <name>Flechitas_802</name>
      <Placemark>
        <name/>
        <description><![CDATA[descripción: <br>fid: 13]]></description>
        <styleUrl>#line-1A237E-4000</styleUrl>
        <ExtendedData>
          <Data name="descripción">
            <value/>
          </Data>
          <Data name="fid">
            <value>13</value>
          </Data>
        </ExtendedData>
        <LineString>
          <tessellate>1</tessellate>
          <coordinates>
            -90.534512,14.648895,0
            -90.534792,14.648847,0
            -90.534811,14.649122,0
          </coordinates>
        </LineString>
      </Placemark>
      <Placemark>
        <name/>
        <description><![CDATA[descripción: <br>fid: 13]]></description>
        <styleUrl>#line-1A237E-4000</styleUrl>
        <ExtendedData>
          <Data name="descripción">
            <value/>
          </Data>
          <Data name="fid">
            <value>13</value>
          </Data>
        </ExtendedData>
        <LineString>
          <tessellate>1</tessellate>
          <coordinates>
            -90.535183,14.648476,0
            -90.534904,14.648531,0
            -90.534878,14.648257,0
          </coordinates>
        </LineString>
      </Placemark>
      <Placemark>
        <name/>
        <description><![CDATA[descripción: <br>fid: 13]]></description>
        <styleUrl>#line-1A237E-4000</styleUrl>
        <ExtendedData>
          <Data name="descripción">
            <value/>
          </Data>
          <Data name="fid">
            <value>13</value>
          </Data>
        </ExtendedData>
        <LineString>
          <tessellate>1</tessellate>
          <coordinates>
            -90.531571,14.653179,0
            -90.531845,14.653104,0
            -90.531891,14.653376,0
          </coordinates>
        </LineString>
      </Placemark>
      <Placemark>
        <name/>
        <description><![CDATA[descripción: <br>fid: 13]]></description>
        <styleUrl>#line-1A237E-4000</styleUrl>
        <ExtendedData>
          <Data name="descripción">
            <value/>
          </Data>
          <Data name="fid">
            <value>13</value>
          </Data>
        </ExtendedData>
        <LineString>
          <tessellate>1</tessellate>
          <coordinates>
            -90.532214,14.65265,0
            -90.531939,14.652724,0
            -90.531894,14.652452,0
          </coordinates>
        </LineString>
      </Placemark>
      <Placemark>
        <name/>
        <description><![CDATA[descripción: <br>fid: 13]]></description>
        <styleUrl>#line-1A237E-4000</styleUrl>
        <ExtendedData>
          <Data name="descripción">
            <value/>
          </Data>
          <Data name="fid">
            <value>13</value>
          </Data>
        </ExtendedData>
        <LineString>
          <tessellate>1</tessellate>
          <coordinates>
            -90.529043,14.658262,0
            -90.529313,14.658175,0
            -90.529372,14.658445,0
          </coordinates>
        </LineString>
      </Placemark>
      <Placemark>
        <name/>
        <description><![CDATA[descripción: <br>fid: 13]]></description>
        <styleUrl>#line-1A237E-4000</styleUrl>
        <ExtendedData>
          <Data name="descripción">
            <value/>
          </Data>
          <Data name="fid">
            <value>13</value>
          </Data>
        </ExtendedData>
        <LineString>
          <tessellate>1</tessellate>
          <coordinates>
            -90.529625,14.657673,0
            -90.529357,14.657766,0
            -90.529291,14.657498,0
          </coordinates>
        </LineString>
      </Placemark>
      <Placemark>
        <name/>
        <description><![CDATA[descripción: <br>fid: 4]]></description>
        <styleUrl>#line-1A237E-4000</styleUrl>
        <ExtendedData>
          <Data name="descripción">
            <value/>
          </Data>
          <Data name="fid">
            <value>4</value>
          </Data>
        </ExtendedData>
        <LineString>
          <tessellate>1</tessellate>
          <coordinates>
            -90.518195,14.6299,0
            -90.5184234,14.6297285,0
            -90.518249,14.629535,0
          </coordinates>
        </LineString>
      </Placemark>
      <Placemark>
        <name/>
        <description><![CDATA[descripción: <br>fid: 12]]></description>
        <styleUrl>#line-1A237E-4000</styleUrl>
        <ExtendedData>
          <Data name="descripción">
            <value/>
          </Data>
          <Data name="fid">
            <value>12</value>
          </Data>
        </ExtendedData>
        <LineString>
          <tessellate>1</tessellate>
          <coordinates>
            -90.51855,14.632374,0
            -90.518332,14.632552,0
            -90.518175,14.632323,0
          </coordinates>
        </LineString>
      </Placemark>
      <Placemark>
        <name/>
        <description><![CDATA[descripción: <br>fid: 13]]></description>
        <styleUrl>#line-1A237E-4000</styleUrl>
        <ExtendedData>
          <Data name="descripción">
            <value/>
          </Data>
          <Data name="fid">
            <value>13</value>
          </Data>
        </ExtendedData>
        <LineString>
          <tessellate>1</tessellate>
          <coordinates>
            -90.517161,14.642147,0
            -90.516943,14.642325,0
            -90.516786,14.642096,0
          </coordinates>
        </LineString>
      </Placemark>
      <Placemark>
        <name/>
        <description><![CDATA[descripción: <br>fid: 14]]></description>
        <styleUrl>#line-1A237E-4000</styleUrl>
        <ExtendedData>
          <Data name="descripción">
            <value/>
          </Data>
          <Data name="fid">
            <value>14</value>
          </Data>
        </ExtendedData>
        <LineString>
          <tessellate>1</tessellate>
          <coordinates>
            -90.517792,14.63772,0
            -90.517574,14.637898,0
            -90.517417,14.637669,0
          </coordinates>
        </LineString>
      </Placemark>
      <Placemark>
        <name/>
        <description><![CDATA[descripción: <br>fid: 15]]></description>
        <styleUrl>#line-1A237E-4000</styleUrl>
        <ExtendedData>
          <Data name="descripción">
            <value/>
          </Data>
          <Data name="fid">
            <value>15</value>
          </Data>
        </ExtendedData>
        <LineString>
          <tessellate>1</tessellate>
          <coordinates>
            -90.516913,14.632167,0
            -90.517125,14.631982,0
            -90.51729,14.632206,0
          </coordinates>
        </LineString>
      </Placemark>
      <Placemark>
        <name/>
        <description><![CDATA[descripción: <br>fid: 16]]></description>
        <styleUrl>#line-1A237E-4000</styleUrl>
        <ExtendedData>
          <Data name="descripción">
            <value/>
          </Data>
          <Data name="fid">
            <value>16</value>
          </Data>
        </ExtendedData>
        <LineString>
          <tessellate>1</tessellate>
          <coordinates>
            -90.515464,14.642423,0
            -90.515675,14.642238,0
            -90.515841,14.642462,0
          </coordinates>
        </LineString>
      </Placemark>
      <Placemark>
        <name/>
        <description><![CDATA[descripción: <br>fid: 17]]></description>
        <styleUrl>#line-1A237E-4000</styleUrl>
        <ExtendedData>
          <Data name="descripción">
            <value/>
          </Data>
          <Data name="fid">
            <value>17</value>
          </Data>
        </ExtendedData>
        <LineString>
          <tessellate>1</tessellate>
          <coordinates>
            -90.516186,14.637207,0
            -90.516398,14.637022,0
            -90.516563,14.637245,0
          </coordinates>
        </LineString>
      </Placemark>
      <Placemark>
        <name/>
        <description><![CDATA[descripción: <br>fid: 4]]></description>
        <styleUrl>#line-1A237E-4000</styleUrl>
        <ExtendedData>
          <Data name="descripción">
            <value/>
          </Data>
          <Data name="fid">
            <value>4</value>
          </Data>
        </ExtendedData>
        <LineString>
          <tessellate>1</tessellate>
          <coordinates>
            -90.515478,14.648824,0
            -90.515296,14.648611,0
            -90.515532,14.648459,0
          </coordinates>
        </LineString>
      </Placemark>
      <Placemark>
        <name/>
        <description><![CDATA[descripción: <br>fid: 4]]></description>
        <styleUrl>#line-1A237E-4000</styleUrl>
        <ExtendedData>
          <Data name="descripción">
            <value/>
          </Data>
          <Data name="fid">
            <value>4</value>
          </Data>
        </ExtendedData>
        <LineString>
          <tessellate>1</tessellate>
          <coordinates>
            -90.519311,14.649391,0
            -90.519129,14.649178,0
            -90.519365,14.649026,0
          </coordinates>
        </LineString>
      </Placemark>
      <Placemark>
        <name/>
        <description><![CDATA[descripción: <br>fid: 16]]></description>
        <styleUrl>#line-1A237E-4000</styleUrl>
        <ExtendedData>
          <Data name="descripción">
            <value/>
          </Data>
          <Data name="fid">
            <value>16</value>
          </Data>
        </ExtendedData>
        <LineString>
          <tessellate>1</tessellate>
          <coordinates>
            -90.514881,14.646737,0
            -90.515093,14.646552,0
            -90.515258,14.646775,0
          </coordinates>
        </LineString>
      </Placemark>
      <Placemark>
        <name/>
        <description><![CDATA[descripción: <br>fid: 4]]></description>
        <styleUrl>#line-1A237E-4000</styleUrl>
        <ExtendedData>
          <Data name="descripción">
            <value/>
          </Data>
          <Data name="fid">
            <value>4</value>
          </Data>
        </ExtendedData>
        <LineString>
          <tessellate>1</tessellate>
          <coordinates>
            -90.519052,14.645288,0
            -90.519233,14.645501,0
            -90.518998,14.645653,0
          </coordinates>
        </LineString>
      </Placemark>
      <Placemark>
        <name/>
        <description><![CDATA[descripción: <br>fid: 13]]></description>
        <styleUrl>#line-1A237E-4000</styleUrl>
        <ExtendedData>
          <Data name="descripción">
            <value/>
          </Data>
          <Data name="fid">
            <value>13</value>
          </Data>
        </ExtendedData>
        <LineString>
          <tessellate>1</tessellate>
          <coordinates>
            -90.524604,14.644831,0
            -90.524397,14.644642,0
            -90.524612,14.644463,0
          </coordinates>
        </LineString>
      </Placemark>
      <Placemark>
        <name/>
        <description><![CDATA[descripción: <br>fid: 13]]></description>
        <styleUrl>#line-1A237E-4000</styleUrl>
        <ExtendedData>
          <Data name="descripción">
            <value/>
          </Data>
          <Data name="fid">
            <value>13</value>
          </Data>
        </ExtendedData>
        <LineString>
          <tessellate>1</tessellate>
          <coordinates>
            -90.5212,14.648155,0
            -90.52092,14.648204,0
            -90.520901,14.647929,0
          </coordinates>
        </LineString>
      </Placemark>
      <Placemark>
        <name/>
        <description><![CDATA[descripción: <br>fid: 13]]></description>
        <styleUrl>#line-1A237E-4000</styleUrl>
        <ExtendedData>
          <Data name="descripción">
            <value/>
          </Data>
          <Data name="fid">
            <value>13</value>
          </Data>
        </ExtendedData>
        <LineString>
          <tessellate>1</tessellate>
          <coordinates>
            -90.527067,14.646907,0
            -90.527109,14.647181,0
            -90.526826,14.647192,0
          </coordinates>
        </LineString>
      </Placemark>
      <Placemark>
        <name/>
        <description><![CDATA[descripción: <br>fid: 13]]></description>
        <styleUrl>#line-1A237E-4000</styleUrl>
        <ExtendedData>
          <Data name="descripción">
            <value/>
          </Data>
          <Data name="fid">
            <value>13</value>
          </Data>
        </ExtendedData>
        <LineString>
          <tessellate>1</tessellate>
          <coordinates>
            -90.527599,14.647662,0
            -90.527557,14.647389,0
            -90.527839,14.647378,0
          </coordinates>
        </LineString>
      </Placemark>
      <Placemark>
        <name/>
        <description><![CDATA[descripción: <br>fid: 13]]></description>
        <styleUrl>#line-1A237E-4000</styleUrl>
        <ExtendedData>
          <Data name="descripción">
            <value/>
          </Data>
          <Data name="fid">
            <value>13</value>
          </Data>
        </ExtendedData>
        <LineString>
          <tessellate>1</tessellate>
          <coordinates>
            -90.535843,14.645714,0
            -90.535646,14.645514,0
            -90.53587,14.645346,0
          </coordinates>
        </LineString>
      </Placemark>
      <Placemark>
        <name/>
        <description><![CDATA[descripción: <br>fid: 13]]></description>
        <styleUrl>#line-1A237E-4000</styleUrl>
        <ExtendedData>
          <Data name="descripción">
            <value/>
          </Data>
          <Data name="fid">
            <value>13</value>
          </Data>
        </ExtendedData>
        <LineString>
          <tessellate>1</tessellate>
          <coordinates>
            -90.534921,14.64546,0
            -90.535118,14.64566,0
            -90.534894,14.645828,0
          </coordinates>
        </LineString>
      </Placemark>
      <Placemark>
        <name>SIN TITULO</name>
        <description><![CDATA[descripción: <br>fid: ]]></description>
        <styleUrl>#line-1A237E-3713</styleUrl>
        <ExtendedData>
          <Data name="descripción">
            <value/>
          </Data>
          <Data name="fid">
            <value/>
          </Data>
        </ExtendedData>
        <LineString>
          <tessellate>1</tessellate>
          <coordinates>
            -90.52146,14.6443391,0
            -90.5213031,14.6441289,0
            -90.5211099,14.6443001,0
          </coordinates>
        </LineString>
      </Placemark>
    </Folder>
  </Document>
</kml>
